{
    "country_code": "CZ",
    "isSEPAcountry": true,
    "ISO_3166_1": { "name": "Czechia" , "name_fr": "tchèque (la République)" , "alpha2": "CZ" , "alpha3": "CZE" , "numeric": 203 },
    "list": [
{"id":100,"swift_code":"KOMBCZPPXXX","bank_code":100,"bank":"KOMERCNÍ BANKA, A.S." ,"zip":"11407","city":"PRAGUE","address":"NA PRIKOPE 33","support_codes":15},
{"id":300,"swift_code":"CEKOCZPPXXX","bank_code":300,"bank":"CESKOSLOVENSKÁ OBCHODNÍ BANKA, A.S." ,"zip":"15057","city":"PRAGUE 5","address":"RADLICKA 333\/150","support_codes":15},
{"id":600,"swift_code":"AGBACZPPXXX","bank_code":600,"bank":"MONETA Money Bank, a.s." ,"zip":"14028","city":"PRAGUE 4","address":"BB CENTRUM VYSKOCILOVA 1422\/1A","support_codes":1},
{"id":710,"swift_code":"CNBACZPPXXX","bank_code":710,"bank":"CESKÁ NÁRODNÍ BANKA" ,"zip":"11003","city":"PRAGUE","address":"NA PRIKOPE 28","support_codes":1},
{"id":800,"swift_code":"GIBACZPXXXX","bank_code":800,"bank":"CESKÁ SPORITELNA, A.S." ,"zip":"14000","city":"PRAGUE","address":"OLBRACHTOVA 62","support_codes":15},
{"id":2010,"swift_code":"FIOBCZPPXXX","bank_code":2010,"bank":"FIO BANKA, A.S." ,"zip":"11721","city":"PRAGUE","address":"MILLENNIUM PLAZA FLOOR 1 V CELNICI 1028\/10","support_codes":7},
{"id":2020,"swift_code":"BOTKCZPPXXX","bank_code":2020,"bank":"MUFG Bank (Europe) N.V. Prague Branch" ,"zip":"15000","city":"PRAGUE 5","address":"REGUS BUSINESS CENTRE S.R.O. ROOM 201 KLICPEROVA 3208\/12","support_codes":15},
{"id":2030,"swift_code":"AKCTCZ21XXX","bank_code":2030,"bank":"Československé úvěrní družstvo" ,"zip":"50002","city":"HRADEC KRALOVE","address":"GOCAROVA TRIDA 312"},
{"id":2060,"swift_code":"CITFCZPPXXX","bank_code":2060,"bank":"CITFIN, SPORITELNÍ DRUŽSTVO" ,"zip":"15800","city":"PRAGUE","address":"RADLICKA 751\/113E","support_codes":1},
{"id":2070,"swift_code":"MPUBCZPPXXX","bank_code":2070,"bank":"TRINITY BANK a.s." ,"zip":"11000","city":"PRAGUE","address":"SENOVAZNE NAMESTI 1375\/19","support_codes":1},
{"id":2100,"swift_code":"CEKOCZPPXXX","bank_code":2100,"bank":"HYPOTECNÍ BANKA, A.S." ,"zip":"15057","city":"PRAGUE 5","address":"RADLICKA 333\/150","support_codes":15},
{"id":2200,"swift_code":"CEKOCZPPXXX","bank_code":2200,"bank":"PENEŽNÍ DUM, SPORITELNÍ DRUŽSTVO" ,"zip":"15057","city":"PRAGUE 5","address":"RADLICKA 333\/150","support_codes":15},
{"id":2220,"swift_code":"ARTTCZPPXXX","bank_code":2220,"bank":"ARTESA, SPORITELNÍ DRUŽSTVO" ,"zip":"12000","city":"PRAGUE","address":"PANORAMA BUSINESS CENTER SKRETOVA 490\/12"},
{"id":2240,"swift_code":"POBNCZPPXXX","bank_code":2240,"bank":"POŠTOVÁ BANKA, A.S., POBOCKA CESKÁ REPUBLIKA" ,"zip":"18600","city":"PRAGUE","address":"SOKOLOVSKA 17","support_codes":1},
{"id":2250,"swift_code":"CTASCZ22XXX","bank_code":2250,"bank":"Banka CREDITAS a.s." ,"zip":"77900","city":"OLOMOUC","address":"TR. SVOBODY 1194\/12","support_codes":1},
{"id":2600,"swift_code":"CITICZPXXXX","bank_code":2600,"bank":"CITIBANK EUROPE PLC, ORGANIZACNÍ SLOŽKA" ,"zip":"15802","city":"PRAGUE","address":"BUCHAROVA 2641\/14","support_codes":15},
{"id":2700,"swift_code":"BACXCZPPXXX","bank_code":2700,"bank":"UNICREDIT BANK CZECH REPUBLIC AND SLOVAKIA, A.S." ,"zip":"11380","city":"PRAGUE 1","address":"NA PRIKOPE 858\/20","support_codes":15},
{"id":3030,"swift_code":"AIRACZPPXXX","bank_code":3030,"bank":"AIR BANK A.S." ,"zip":"14800","city":"PRAGUE 11","address":"HRASKEHO 2231\/25","support_codes":1},
{"id":3060,"swift_code":"BPKOCZPPXXX","bank_code":3060,"bank":"PKO BP S.A." ,"support_codes":1},
{"id":3500,"swift_code":"INGBCZPPXXX","bank_code":3500,"bank":"ING BANK N.V." ,"zip":"15000","city":"PRAGUE 5","address":"PLZENSKA 345\/5","support_codes":15},
{"id":4000,"swift_code":"EXPNCZPP","bank_code":4000,"bank":"EXPOBANK CZ A.S." ,"zip":"15021","city":"PRAGUE","address":"VITEZNA 1","support_codes":1},
{"id":4300,"swift_code":"CMZRCZP1XXX","bank_code":4300,"bank":"CESKOMORAVSKÁ ZÁRUCNÍ A ROZVOJOVÁ BANKA, A.S." ,"zip":"11000","city":"PRAGUE 1","address":"JERUZALEMSKA 964\/4 PRAHA 1"},
{"id":5500,"swift_code":"RZBCCZPPXXX","bank_code":5500,"bank":"RAIFFEISENBANK A.S." ,"zip":"14078","city":"PRAGUE","address":"CITY TOWER HVEZDOVA 1716\/2B","support_codes":1},
{"id":5800,"swift_code":"JTBPCZPPXXX","bank_code":5800,"bank":"J & T BANKA, A.S." ,"zip":"18600","city":"PRAGUE","address":"POBREZNI 14","support_codes":7},
{"id":6000,"swift_code":"PMBPCZPPXXX","bank_code":6000,"bank":"PPF BANKA A.S." ,"zip":"16041","city":"PRAGUE 6","address":"PPF GATE EVROPSKA 2690\/17","support_codes":1},
{"id":6100,"swift_code":"EQBKCZPPXXX","bank_code":6100,"bank":"EQUA BANK A.S." ,"zip":"11121","city":"PRAGUE","address":"LAZARSKA 1718\/3","support_codes":1},
{"id":6200,"swift_code":"COBACZPXXXX","bank_code":6200,"bank":"COMMERZBANK AKTIENGESELLSCHAFT, POBOCKA PRAHA" ,"zip":"12021","city":"PRAGUE","address":"JUGOSLAVSKA 1","support_codes":15},
{"id":6210,"swift_code":"BREXCZPPXXX","bank_code":6210,"bank":"MBANK S.A., ORGANIZACNÍ SLOŽKA" ,"zip":"12000","city":"PRAGUE","address":"JUGOSLAVSKA 1","support_codes":1},
{"id":6300,"swift_code":"GEBACZPPXXX","bank_code":6300,"bank":"BNP Paribas S.A." ,"zip":"11000","city":"PRAGUE","address":"MYSLBEK BUILDING OVOCNY TRH 8","support_codes":15},
{"id":6700,"swift_code":"SUBACZPPXXX","bank_code":6700,"bank":"VŠEOBECNÁ ÚVEROVÁ BANKA A.S., POBOCKA PRAHA" ,"zip":"18600","city":"PRAGUE","address":"IBC POBREZNI 3","support_codes":15},
{"id":6800,"swift_code":"VBOECZ2XXXX","bank_code":6800,"bank":"SBERBANK CZ, A.S." ,"zip":"14000","city":"PRAGUE","address":"NA PANKRACI 1724\/129","support_codes":1},
{"id":7910,"swift_code":"DEUTCZPXXXX","bank_code":7910,"bank":"DEUTSCHE BANK A.G. FILIALE PRAG" ,"zip":"11000","city":"PRAGUE","address":"FILIALE PRAG, ORGANIZACNI SLOZKA JUNGMANNOVA 750\/34","support_codes":15},
{"id":7940,"swift_code":"SPWTCZ21XXX","bank_code":7940,"bank":"WALDVIERTLER SPARKASSE BANK AG" ,"zip":"37701","city":"JINDRICHUV HRADEC","address":"KLASTERSKA 126\/II","support_codes":1},
{"id":7950,"swift_code":"RZBCCZPPXXX","bank_code":7950,"bank":"RAIFFEISEN STAVEBNÍ SPORITELNA A.S." ,"zip":"14078","city":"PRAGUE","address":"CITY TOWER HVEZDOVA 1716\/2B","support_codes":1},
{"id":7960,"swift_code":"CEKOCZPPXXX","bank_code":7960,"bank":"CESKOMORAVSKÁ STAVEBNÍ SPORITELNA, A.S." ,"zip":"15057","city":"PRAGUE 5","address":"RADLICKA 333\/150","support_codes":15},
{"id":7970,"swift_code":"BACXCZPPXXX","bank_code":7970,"bank":"WÜSTENROT-STAVEBNÍ SPORITELNA A.S." ,"zip":"11380","city":"PRAGUE 1","address":"NA PRIKOPE 858\/20","support_codes":15},
{"id":7980,"swift_code":"BACXCZPPXXX","bank_code":7980,"bank":"WÜSTENROT HYPOTECNÍ BANKA A.S." ,"zip":"11380","city":"PRAGUE 1","address":"NA PRIKOPE 858\/20","support_codes":15},
{"id":7990,"swift_code":"GENOCZ21XXX","bank_code":7990,"bank":"MODRÁ PYRAMIDA STAVEBNÍ SPORITELNA, A.S." ,"zip":"35011","city":"CHEB","address":"POBOCKA CHEB KUBELIKOVA 4","support_codes":15},
{"id":8030,"swift_code":"GENOCZ21XXX","bank_code":8030,"bank":"Volksbank Raiffeisenbank Nordoberpfalz eG" ,"zip":"35011","city":"CHEB","address":"POBOCKA CHEB KUBELIKOVA 4","support_codes":15},
{"id":8040,"swift_code":"OBKLCZ2XXXX","bank_code":8040,"bank":"OBERBANK AG POBOCKA CESKÁ REPUBLIKA" ,"zip":"37001","city":"CESKE BUDEJOVICE","address":"NAM. PREMYSLA OTOKARA II, 6\/3","support_codes":15},
{"id":8060,"swift_code":"CZEECZPPXXX","bank_code":8060,"bank":"STAVEBNÍ SPORITELNA CESKÉ SPORITELNY, A.S." ,"zip":"14000","city":"PRAGUE","address":"OLBRACHTOVA 62"},
{"id":8090,"swift_code":"MIDLCZPPXXX","bank_code":8090,"bank":"CESKÁ EXPORTNÍ BANKA, A.S." ,"zip":"11121","city":"PRAGUE","address":"VODICKOVA 34","support_codes":1},
{"id":8150,"swift_code":"MIDLCZPPXXX","bank_code":8150,"bank":"HSBC BANK PLC - POBOCKA PRAHA" ,"zip":"11721","city":"PRAGUE","address":"MILLENIUM PLAZA V CELNICI 10","support_codes":1},
{"id":8198,"swift_code":"FFCSCZP1XXX","bank_code":8198,"bank":"FAS finance company s.r.o." ,"support_codes":1},
{"id":8199,"swift_code":"MOUSCZP2XXX","bank_code":8199,"bank":"MoneyPolo Europe s.r.o." },
{"id":8200,"swift_code":"PAERCZP1XXX","bank_code":8200,"bank":"\"PRIVAT BANK AG DER RAIFFEISENLANDESBANK OBERÖSTERREICH V CESKÉ REPUBLICE\"" ,"zip":"15400","city":"PRAGUE","address":"K LOCHKOVU 30\/4","support_codes":1},
{"id":8220,"swift_code":"PAERCZP1XXX","bank_code":8220,"bank":"PAYMENT EXECUTION S.R.O." ,"zip":"15400","city":"PRAGUE","address":"K Lochkovu 30\/4, Slivenec","support_codes":1},
{"id":8225,"swift_code":"ORRRCZP1XXX","bank_code":8225,"bank":"ORANGETRUST s.r.o." ,"support_codes":1},
{"id":8230,"swift_code":"EEPSCZPPXXX","bank_code":8230,"bank":"EEPAYS S. R. O." ,"zip":"15400","city":"PRAGUE","address":"K Lochkovu 30\/4, Slivenec"},
{"id":8250,"swift_code":"BKCHCZPP","bank_code":8250,"bank":"Bank of China (Hungary) Close Ltd. Prague branch" ,"support_codes":1},
{"id":8255,"swift_code":"COMMCZPPXXX","bank_code":8255,"bank":"Bank of Communications Co." },
{"id":8260,"swift_code":"PYYMCZPPXXX","bank_code":8260,"bank":"PAYMASTER a.s." },
{"id":8265,"swift_code":"ICBKCZPPXXX","bank_code":8265,"bank":"Industrial and Commercial Bank of China Limited Prague Branch" ,"support_codes":1},
{"id":8270,"swift_code":"FAPOCZP1XXX","bank_code":8270,"bank":"Fairplay Pay s.r.o." ,"support_codes":1},
{"id":8280,"swift_code":"BEFKCZP1XXX","bank_code":8280,"bank":"B-Efekt a.s." ,"support_codes":1},
{"id":8283,"swift_code":"QPSRCZPPXXX","bank_code":8283,"bank":"Qpay s.r.o." }
    ]
}
