{
    "country_code": "EE",
    "isSEPAcountry": true,
    "ISO_3166_1": { "name": "Estonia" , "name_fr": "Estonie (l')" , "alpha2": "EE" , "alpha3": "EST" , "numeric": 233 },
    "list": [
{"id": 0,"swift_code":"TABUEE22XXX","bank_code": 0,"bank":"TALLINNA ARIPANGA AS","zip":"15097","city":"TALLINN","address":"VANA-VIRU 7","support_codes":1},
{"id": 2,"swift_code":"UHISEE21XXX","bank_code": 2,"bank":"UHISARVELDUSED AS","support_codes":1},
{"id":10,"swift_code":"EEUHEE2XXXX","bank_code":10,"bank":"AS SEB PANK","zip":"15010","city":"TALLINN","address":"TORNIMAE 2 FLOOR 10","support_codes":1},
{"id":11,"swift_code":"HABAEE2XXXX","bank_code":11,"bank":"Swedbank","support_codes":1},
{"id":12,"swift_code":"PARXEE22XXX","bank_code":12,"bank":"AS Citadele banka Eesti filiaal","zip":"10119","city":"TALLINN","address":"ROOSIKRANTSI 2","support_codes":1},
{"id":16,"swift_code":"EPBEEE2XXXX","bank_code":16,"bank":"Eesti Pank (Bank of Estonia)","zip":"15095","city":"TALLINN","address":"ESTONIA PST. 13","support_codes":1},
{"id":17,"swift_code":"NDEAEE2XXXX","bank_code":17,"bank":"NORDEA BANK FINLAND PLC ESTONIA BRANCH","city":"TALLINN","support_codes":1},
{"id":22,"swift_code":"HABAEE2XXXX","bank_code":22,"bank":"SWEDBANK AS","zip":"15040","city":"TALLINN","address":"LIIVALAIA 8","support_codes":1},
{"id":33,"swift_code":"FOREEE2XXXX","bank_code":33,"bank":"DANSKE BANK A\/S ESTONIA BRANCH","zip":"15015","city":"TALLINN","address":"NARVA MNT. 11"},
{"id":42,"swift_code":"EKRDEE22XXX","bank_code":42,"bank":"Coop Pank AS","zip":"0001","city":"TALLINN","address":"NARVA ROAD 4","support_codes":1},
{"id":45,"swift_code":"GFCBEE22XXX","bank_code":45,"bank":"GFC GOOD FINANCE COMPANY"},
{"id":51,"swift_code":"OKOYEE2XXXX","bank_code":51,"bank":"OP Corporate Bank plc Eesti filiaal","zip":"11314","city":"TALLINN","address":"PARNU MNT. 141","support_codes":1},
{"id":55,"swift_code":"SBMBEE22XXX","bank_code":55,"bank":"VERSOBANK AS","zip":"10148","city":"TALLINN","address":"PARNU MNT 12"},
{"id":62,"swift_code":"MAEHEE21XXX","bank_code":62,"bank":"MAAELU EDENDAMISE HOIU-LAENUUHISTU","support_codes":1},
{"id":75,"swift_code":"BIGKEE2BXXX","bank_code":75,"bank":"BIGBANK AS","zip":"10115","city":"TALLINN","address":"TARTU MNT 18","support_codes":1},
{"id":77,"swift_code":"LHVBEE22XXX","bank_code":77,"bank":"AS LHV PANK","city":"TALLINN","address":"TARTU MNT. 2","support_codes":1},
{"id":83,"swift_code":"HANDEE22XXX","bank_code":83,"bank":"SVENSKA HANDELSBANKEN AB ESTONIAN BRANCH","zip":"10130","city":"TALLINN","address":"HARJU 6"},
{"id":88,"swift_code":"UNCREE22XXX","bank_code":88,"bank":"AS UNICREDIT BANK EESTI FILIAAL","zip":"10118","city":"TALLINN","address":"LIIVALAIA 13\/15"},
{"id":96,"swift_code":"RIKOEE22XXX","bank_code":96,"bank":"Luminor Bank AS (DNB) ","zip":"10145","city":"TALLINN","address":"TARTU MNT. 10","support_codes":1},
{"id":99,"swift_code":"AKELEE21XXX","bank_code":99,"bank":"AS Pocopay","city":"TALLINN","address":"PARNU MNT 102C","support_codes":1},
    ]
}
