{
    "country_code": "ES",
    "isSEPAcountry": true,
    "ISO_3166_1": { "name": "Spain" , "name_fr": "Espagne (l')" , "alpha2": "ES" , "alpha3": "ESP" , "numeric": 724 },
    "list": [
{"id":3,"swift_code":"BDEPESM1XXX","bank_code":3,"bank":"BANCO DE DEPOSITOS, S.A.","branch_code":0,"zip":"28006","city":"MADRID","address":"JOSE ORTEGA Y GASSET 29","phone":"0914352175","fax":"0915752296","support_codes":7},
{"id":11,"swift_code":"ALLFESMMXXX","bank_code":11,"bank":"ALLFUNDS BANK, S.A.","branch_code":0,"zip":"28109","city":"ALCOBENDAS","address":"ESTAFETA 6","phone":"0912746400","fax":"0912746464","www":"www.allfundsbank.com"},
{"id":19,"swift_code":"DEUTESBBXXX","bank_code":19,"bank":"DEUTSCHE BANK, S.A.E.","branch_code":0,"zip":"28046","city":"MADRID","address":"DE LA CASTELLANA 18","phone":"0913355800","www":"www.deutsche-bank.es","support_codes":15},
{"id":36,"swift_code":"SABNESMMXXX","bank_code":36,"bank":"SANTANDER INVESTMENT, S.A.","branch_code":0,"zip":"28660","city":"BOADILLA DEL MONTE","address":"DE CANTABRIA S\/N","phone":"0912893400","fax":"0912571817","support_codes":7},
{"id":38,"swift_code":"BSSSESM2XXX","bank_code":38,"bank":"SANTANDER SECURITIES SERVICES, S.A.","branch_code":0,"zip":"28660","city":"BOADILLA DEL MONTE","address":"DE CANTABRIA S\/N","phone":"0912896445","support_codes":7},
{"id":49,"swift_code":"BSCHESMMXXX","bank_code":49,"bank":"BANCO SANTANDER, S.A.","branch_code":0,"zip":"39004","city":"SANTANDER","address":"DE PEREDA 9-12","phone":"0942206100","fax":"0915813388","www":"www.santander.com","support_codes":15},
{"id":61,"swift_code":"BMARES2MXXX","bank_code":61,"bank":"BANCA MARCH, S.A.","branch_code":0,"zip":"7002","city":"PALMA DE MALLORCA","address":"ALEJANDRO ROSELLO 8","phone":"0971779100","fax":"0971469929","www":"www.bancamarch.es","support_codes":15},
{"id":73,"swift_code":"OPENESMMXXX","bank_code":73,"bank":"OPEN BANK, S.A.","branch_code":0,"zip":"28660","city":"BOADILLA DEL MONTE","address":"CANTABRIA S\/N","phone":"0913421000","fax":"0913421043","www":"www.openbank.es","support_codes":7},
{"id":78,"swift_code":"BAPUES22XXX","bank_code":78,"bank":"BANCA PUEYO, S.A.","branch_code":0,"zip":"6700","city":"VILLANUEVA DE LA SERENA","address":"NUESTRA SEÑORA DE GUADALUPE 2","phone":"0924846008","fax":"0924846008","www":"www.bancapueyo.es","support_codes":15},
{"id":81,"swift_code":"BSABESBBXXX","bank_code":81,"bank":"BANCO DE SABADELL, S.A.","branch_code":0,"zip":"8201","city":"SABADELL","address":"DE SANT ROC 20","phone":"0937289289","fax":"0937271867","www":"www.grupobancosabadell.com","support_codes":15},
{"id":83,"swift_code":"RENBESMMXXX","bank_code":83,"bank":"RENTA 4 BANCO, S.A.","branch_code":0,"zip":"28036","city":"MADRID","address":"DE LA HABANA 74","phone":"0913848500","fax":"0913848507","support_codes":1},
{"id":91,"swift_code":"ALACESM1XXX","bank_code":91,"bank":"BANCO DE ALBACETE, S.A.","branch_code":0,"zip":"28660","city":"BOADILLA DEL MONTE","address":"DE CANTABRIA S\/N","phone":"0913422881","fax":"0913422884"},
{"id":108,"swift_code":"SOGEESMMXXX","bank_code":108,"bank":"SOCIETE GENERALE, S.E.","branch_code":0,"zip":"28020","city":"MADRID","address":"PABLO RUIZ PICASSO 1","phone":"0915898060","fax":"0915893805","support_codes":15},
{"id":113,"swift_code":"INBBESM1XXX","bank_code":113,"bank":"BANCO INDUSTRIAL DE BILBAO, S.A.","branch_code":0,"zip":"48009","city":"BILBAO","address":"GRAN VIA DON DIEGO LOPEZ HARO 12","phone":"0944875429","fax":"0944874448"},
{"id":121,"swift_code":"OCBAESM1XXX","bank_code":121,"bank":"BANCO OCCIDENTAL, S.A.","branch_code":0,"zip":"28050","city":"MADRID","address":"AZUL 4","phone":"0944875429","fax":"0944874448"},
{"id":125,"swift_code":"BAOFESM1XXX","bank_code":125,"bank":"BANCOFAR, S.A.","branch_code":0,"zip":"28010","city":"MADRID","address":"FORTUNY 51","phone":"0917023190","fax":"0917023194","www":"www.bancofar.es","support_codes":15},
{"id":128,"swift_code":"BKBKESMMXXX","bank_code":128,"bank":"BANKINTER, S.A.","branch_code":0,"zip":"28046","city":"MADRID","address":"DE LA CASTELLANA 29","phone":"0913397500","fax":"0913397522","www":"www.ebankinter.com","support_codes":15},
{"id":131,"swift_code":"BESMESMMXXX","bank_code":131,"bank":"NOVO BANCO, S.A., SUCURSAL EN ESPAÑA","branch_code":0,"zip":"28006","city":"MADRID","address":"SERRANO 88","phone":"0914005000","fax":"0914005053","www":"www.novobanco.es","support_codes":15},
{"id":133,"swift_code":"MIKBESB1XXX","bank_code":133,"bank":"NUEVO MICRO BANK, S.A.","branch_code":0,"zip":"28014","city":"MADRID","address":"ALCALA 27","phone":"0932813750","fax":"0932813751","www":"www.microbanklacaixa.com","support_codes":15},
{"id":136,"swift_code":"AREBESMMXXX","bank_code":136,"bank":"ARESBANK, S.A.","branch_code":0,"zip":"28046","city":"MADRID","address":"DE LA CASTELLANA 257","phone":"0913149595","fax":"0913149768","www":"www.aresbank.es","support_codes":7},
{"id":138,"swift_code":"BKOAES22XXX","bank_code":138,"bank":"BANKOA, S.A.","branch_code":0,"zip":"20004","city":"SAN SEBASTIAN","address":"DE LA LIBERTAD 5","phone":"0943410100","fax":"0943429414","www":"www.bankoa.es","support_codes":15},
{"id":145,"swift_code":"DEUTESM1XXX","bank_code":145,"bank":"DEUTSCHE BANK A.G., S.E.","branch_code":0,"zip":"28046","city":"MADRID","address":"DE LA CASTELLANA 18","phone":"0915773577","fax":"0915753921"},
{"id":149,"swift_code":"BNPAESMSXXX","bank_code":149,"bank":"BNP PARIBAS S.A., S.E.","branch_code":0,"zip":"28042","city":"MADRID","address":"RIBERA DEL LOIRA 28","phone":"0913491100","fax":"0913491282","www":"www.bnpparibas.es","support_codes":15},
{"id":151,"swift_code":"CHASESM3XXX","bank_code":151,"bank":"JPMORGAN CHASE BANK NATIONAL ASSOCIATION, S.E.","branch_code":0,"zip":"28046","city":"MADRID","address":"DE LA CASTELLANA 31","phone":"0915161200","fax":"0915161616","support_codes":15},
{"id":152,"swift_code":"BPLCESMMXXX","bank_code":152,"bank":"BARCLAYS BANK PLC, S.E.","branch_code":0,"zip":"28046","city":"MADRID","address":"DE COLON 1","phone":"0913360779","support_codes":15},
{"id":154,"swift_code":"BSUIESMMXXX","bank_code":154,"bank":"CREDIT AGRICOLE CORPORATE AND INVESTMENT BANK,S.E.","branch_code":0,"zip":"28046","city":"MADRID","address":"DE LA CASTELLANA 1","phone":"0914327200","fax":"0914327500","support_codes":15},
{"id":155,"swift_code":"BRASESMMXXX","bank_code":155,"bank":"BANCO DO BRASIL AG, SUCURSAL EN ESPAÑA","branch_code":0,"zip":"28046","city":"MADRID","address":"DE LA CASTELLANA 259-C","phone":"0914232500","fax":"0914232520","www":"madri@bb.com.br","support_codes":7},
{"id":159,"swift_code":"COBAESMXXXX","bank_code":159,"bank":"COMMERZBANK AKTIENGESELLSCHAFT, S.E.","branch_code":0,"zip":"28046","city":"MADRID","address":"DE LA CASTELLANA 110","phone":"0915724700","fax":"0915724821","support_codes":15},
{"id":160,"swift_code":"BOTKESMXXXX","bank_code":160,"bank":"THE BANK OF TOKYO-MITSUBISHI UFJ, LTD, S.E.","branch_code":0,"zip":"28006","city":"MADRID","address":"JOSE ORTEGA Y GASSET 29","phone":"0914328500","fax":"0914328597","support_codes":15},
{"id":162,"swift_code":"MIDLESMMXXX","bank_code":162,"bank":"HSBC BANK PLC, S.E.","branch_code":0,"zip":"28020","city":"MADRID","address":"PABLO RUIZ PICASSO 1","phone":"0914566100","fax":"0914566200","support_codes":15},
{"id":169,"swift_code":"NACNESMMXXX","bank_code":169,"bank":"BANCO DE LA NACION ARGENTINA, S.E.","branch_code":0,"zip":"28001","city":"MADRID","address":"NUÑEZ DE BALBOA 73","phone":"0915763703","fax":"0915766142","support_codes":7},
{"id":182,"swift_code":"BBVAESMMXXX","bank_code":182,"bank":"BANCO BILBAO VIZCAYA ARGENTARIA, S.A.","branch_code":0,"zip":"48005","city":"BILBAO","address":"DE SAN NICOLAS 4","phone":"0944876000","fax":"0944876417","www":"www.bbva.com","support_codes":15},
{"id":184,"swift_code":"BEDFESM1XXX","bank_code":184,"bank":"BANCO EUROPEO DE FINANZAS, S.A.","branch_code":0,"zip":"29015","city":"MALAGA","address":"BOLSA 4","phone":"0952367955","fax":"0952367956","www":"www.bef.es","support_codes":15},
{"id":186,"swift_code":"BFIVESBBXXX","bank_code":186,"bank":"BANCO MEDIOLANUM, S.A.","branch_code":0,"zip":"8034","city":"BARCELONA","address":"DIAGONAL 668-670","phone":"0932535400","fax":"0932535430","www":"www.bancomediolanum.es","support_codes":7},
{"id":188,"swift_code":"ALCLESMMXXX","bank_code":188,"bank":"BANCO ALCALA, S.A.","branch_code":0,"zip":"28006","city":"MADRID","address":"JOSE ORTEGA Y GASSET 7","phone":"0911750700","fax":"0915755251","www":"www.bancoalcala.es","support_codes":15},
{"id":198,"swift_code":"BCOEESMMXXX","bank_code":198,"bank":"BANCO COOPERATIVO ESPAÑOL, S.A.","branch_code":0,"zip":"28013","city":"MADRID","address":"VIRGEN DE LOS PELIGROS 4","phone":"0915956700","fax":"0915956800","www":"www.bancocooperativo.es","support_codes":15},
{"id":200,"swift_code":"PRVBESB1XXX","bank_code":200,"bank":"BANK DEGROOF PETERCAM SPAIN, S.A.","branch_code":0,"zip":"8006","city":"BARCELONA","address":"DIAGONAL 464","phone":"0934458500","fax":"0934458501","www":"www.privatbank.es"},
{"id":211,"swift_code":"PROAESMMXXX","bank_code":211,"bank":"EBN BANCO DE NEGOCIOS, S.A.","branch_code":0,"zip":"28004","city":"MADRID","address":"DE RECOLETOS 29","phone":"0917009800","fax":"0917009895","www":"www.ebnbanco.com","support_codes":1},
{"id":216,"swift_code":"CMCIESMMXXX","bank_code":216,"bank":"TARGOBANK, S.A.","branch_code":0,"zip":"28006","city":"MADRID","address":"CLAUDIO COELLO 123","phone":"0915902500","fax":"0915759510","www":"www.targobank.es","support_codes":15},
{"id":219,"swift_code":"BMCEESMMXXX","bank_code":219,"bank":"BANQUE MAROCAINE COMMERCE EXTERIEUR INTERNAT.,S.A.","branch_code":0,"zip":"28006","city":"MADRID","address":"SERRANO 59","phone":"0915756800","fax":"0914316310","support_codes":7},
{"id":220,"swift_code":"FIOFESM1XXX","bank_code":220,"bank":"BANCO FINANTIA SOFINLOC, S.A.","branch_code":0,"zip":"28009","city":"MADRID","address":"MENENDEZ PELAYO 67","phone":"0915572300","fax":"0915572301","www":"www.bfs.es.","support_codes":7},
{"id":224,"swift_code":"SCFBESMMXXX","bank_code":224,"bank":"SANTANDER CONSUMER FINANCE, S.A.","branch_code":0,"zip":"28660","city":"BOADILLA DEL MONTE","address":"DE CANTABRIA S\/N","phone":"0912574930","fax":"0912571288","www":"www.santanderconsumerfinance.es","support_codes":7},
{"id":225,"swift_code":"FIEIESM1XXX","bank_code":225,"bank":"BANCO CETELEM, S.A.","branch_code":0,"zip":"28045","city":"MADRID","address":"RETAMA 3","phone":"0913370700","fax":"0915287780","www":"www.bancocetelem.es"},
{"id":226,"swift_code":"UBSWESMMXXX","bank_code":226,"bank":"UBS BANK, S.A","branch_code":0,"zip":"28006","city":"MADRID","address":"MARIA DE MOLINA 4","phone":"0917457000","fax":"0915633666","www":"www.ubs.es","support_codes":7},
{"id":229,"swift_code":"POPLESMMXXX","bank_code":229,"bank":"WIZINK BANK, S.A.","branch_code":0,"zip":"28001","city":"MADRID","address":"VELAZQUEZ 34","phone":"0918367000","fax":"0913202072","www":"www.bancopopular-e.com","support_codes":7},
{"id":232,"swift_code":"INVLESMMXXX","bank_code":232,"bank":"BANCO INVERSIS, S.A.","branch_code":0,"zip":"28042","city":"MADRID","address":"DE LA HISPANIDAD 6","phone":"0914001400","fax":"0914001410","www":"www.inversis.com","support_codes":7},
{"id":234,"swift_code":"CCOCESMMXXX","bank_code":234,"bank":"BANCO CAMINOS, S.A.","branch_code":0,"zip":"28010","city":"MADRID","address":"ALMAGRO 8","phone":"0913193448","fax":"0913085459","www":"www.bancocaminos.es","support_codes":15},
{"id":235,"swift_code":"PICHESMMXXX","bank_code":235,"bank":"BANCO PICHINCHA ESPAÑA, S.A.","branch_code":0,"zip":"28001","city":"MADRID","address":"LAGASCA 4","phone":"0917818958","fax":"0915758451","www":"www.bancopichincha.es","support_codes":15},
{"id":239,"swift_code":"EVOBESMMXXX","bank_code":239,"bank":"EVO BANCO S.A.","branch_code":0,"zip":"28001","city":"MADRID","address":"SERRANO 45","phone":"0915866030","fax":"0915866056","www":"www.evobanco.com","support_codes":15},
{"id":240,"swift_code":"BCCAESMMXXX","bank_code":240,"bank":"BANCO DE CREDITO SOCIAL COOPERATIVO, S.A.","branch_code":0,"zip":"28046","city":"MADRID","address":"DE LA CASTELLANA 87","phone":"0914183162","fax":"0914183163","support_codes":15},
{"id":241,"swift_code":"PRDVESM1XXX","bank_code":241,"bank":"A&G BANCA PRIVADA, S.A.","branch_code":0,"zip":"28002","city":"MADRID","address":"JOAQUIN COSTA 26","phone":"0915902121","fax":"0911441596"},
{"id":1451,"swift_code":"AGRIESB1XXX","bank_code":1451,"bank":"CAISSE REGIONALE CREDIT AGRICOLE MUTUEL SUD MED,SE","branch_code":0,"zip":"8008","city":"BARCELONA","address":"CORCEGA 301","phone":"0932179900","fax":"0932375309","support_codes":6},
{"id":1459,"swift_code":"PRABESMMXXX","bank_code":1459,"bank":"COOPERATIEVE RABOBANK U.A. SUCURSAL EN ESPAÑA","branch_code":0,"zip":"28010","city":"MADRID","address":"RAFAEL CALVO 39","phone":"0914364010","fax":"0914364020","support_codes":1},
{"id":1460,"swift_code":"CRESESMMXXX","bank_code":1460,"bank":"CREDIT SUISSE AG, S.E.","branch_code":0,"zip":"28001","city":"MADRID","address":"AYALA 42","phone":"0917916000","fax":"0917916010","www":"www.credit-suisse.com","support_codes":7},
{"id":1465,"swift_code":"INGDESMMXXX","bank_code":1465,"bank":"ING BANK N.V. SUCURSAL EN ESPAÑA","branch_code":0,"zip":"28232","city":"LAS ROZAS","address":"SEVERO OCHOA, 2 ","phone":"0916349200","fax":"0916349231","support_codes":15},
{"id":1474,"swift_code":"CITIESMXXXX","bank_code":1474,"bank":"CITIBANK EUROPE PLC SUCURSAL EN ESPAÑA","branch_code":0,"zip":"28006","city":"MADRID","address":"JOSE ORTEGA Y GASSET 29","phone":"0915384100","fax":"0915784412","support_codes":15},
{"id":1479,"swift_code":"NATXESMMXXX","bank_code":1479,"bank":"NATIXIS, S.A., S.E.","branch_code":0,"zip":"28004","city":"MADRID","address":"DE RECOLETOS 7-9","phone":"0914319769","fax":"0915774562"},
{"id":1480,"swift_code":"VOWAES21XXX","bank_code":1480,"bank":"VOLKSWAGEN BANK GMBH, S.E.","branch_code":0,"zip":"28108","city":"ALCOBENDAS","address":"DE BRUSELAS 34","phone":"0914535100","fax":"0914535273","www":"www.vwbstock.com","support_codes":15},
{"id":1485,"swift_code":"BOFAES2XXXX","bank_code":1485,"bank":"BANK OF AMERICA MERRILL LYNCH INTERNATIONAL LTD SE","branch_code":0,"zip":"28001","city":"MADRID","address":"MARQUES DE VILLAMAGNA 3","phone":"0915143000","fax":"0915143001","www":"emea_madridclient@bankofamerica.com","support_codes":15},
{"id":1490,"swift_code":"SELFESMMXXX","bank_code":1490,"bank":"SELF TRADE BANK, S.A.","branch_code":0,"zip":"28013","city":"MADRID","address":"GRAN VIA 30","phone":"0917894000","fax":"0917894019","www":"www.selftrade.es","support_codes":15},
{"id":1491,"swift_code":"TRIOESMMXXX","bank_code":1491,"bank":"TRIODOS BANK, N.V., S.E.","branch_code":0,"zip":"28230","city":"LAS ROZAS","address":"JOSE ECHEGARAY 5","phone":"0916404684","fax":"0916405444","www":"www.triodos.es","support_codes":7},
{"id":1494,"swift_code":"BCITESMMXXX","bank_code":1494,"bank":"INTESA SANPAOLO S.P.A., S.E.","branch_code":0,"zip":"28046","city":"MADRID","address":"DE LA CASTELLANA 31","phone":"0913490400","fax":"0913197722","support_codes":15},
{"id":1525,"swift_code":"BCDMESMMXXX","bank_code":1525,"bank":"BANQUE CHAABI DU MAROC, S.E.","branch_code":0,"zip":"28002","city":"MADRID","address":"DEL DOCTOR ARCE 35","phone":"0915630648","fax":"0915630220","www":"www.chaabibank.es","support_codes":7},
{"id":1534,"swift_code":"KBLXESMMXXX","bank_code":1534,"bank":"KBL EUROPEAN PRIVATE BANKERS, S.A. S.E.","branch_code":0,"zip":"28006","city":"MADRID","address":"SERRANO 57","phone":"0914232200","fax":"0914232270"},
{"id":1538,"swift_code":"ICBKESMMXXX","bank_code":1538,"bank":"INDUSTRIAL & COMMERCIAL BANK OF CHINA(EUROPE)SA,SE","branch_code":0,"zip":"28001","city":"MADRID","address":"DE RECOLETOS 12","phone":"0912168888","fax":"0912168866","www":"www.icbc.com.es","support_codes":15},
{"id":1541,"swift_code":"BCMAESMMXXX","bank_code":1541,"bank":"ATTIJARIWAFA BANK EUROPE, S.E.","branch_code":0,"zip":"28020","city":"MADRID","address":"BRAVO MURILLO 210","phone":"0915632775","fax":"0915643420","support_codes":7},
{"id":1544,"swift_code":"BACAESMMXXX","bank_code":1544,"bank":"ANDBANK ESPAÑA, S.A.","branch_code":0,"zip":"28046","city":"MADRID","address":"DE LA CASTELLANA 55","phone":"0912062850","fax":"0912062879","www":"www.andbank.es","support_codes":7},
{"id":1545,"swift_code":"AGRIESMMXXX","bank_code":1545,"bank":"CA INDOSUEZ WEALTH (EUROPE), S.E.","branch_code":0,"zip":"28046","city":"MADRID","address":"DE LA CASTELLANA 1","phone":"0914327432","fax":"0914327265","support_codes":7},
{"id":1550,"swift_code":"ETICES21XXX","bank_code":1550,"bank":"BANCA POPOLARE ETICA SCPA, SUCURSAL EN ESPAÑA","branch_code":0,"zip":"48005","city":"BILBAO","address":"SANTA MARÍA 9","phone":"0944153496","fax":"0944154286","support_codes":15},
{"id":1554,"swift_code":"FASNESM1XXX","bank_code":1554,"bank":"BANCA FARMAFACTORING SPA, SUCURSAL EN ESPAÑA","branch_code":0,"zip":"28010","city":"MADRID","address":"LUCHANA 23","phone":"0912102159","fax":"0915916521","www":"http\/\/www.bancafarmafactoring.it    http:\/\/www.cuentafacto.es","support_codes":15},
{"id":1568,"swift_code":"ORUEES21XXX","bank_code":1568,"bank":"ORANGE BANK SA","branch_code":0,"support_codes":7},
{"id":2080,"swift_code":"CAGLESMMXXX","bank_code":2080,"bank":"ABANCA CORPORACION BANCARIA, S.A.","branch_code":0,"zip":"15300","city":"BETANZOS","address":"CANTON CLAUDINO PITA 2","phone":"0981187000","fax":"0981223562","support_codes":15},
{"id":3183,"swift_code":"CASDESBBXXX","bank_code":3183,"bank":"CAJA DE ARQUITECTOS S.C.C.","branch_code":0,"zip":"8002","city":"BARCELONA","address":"ARCS 1","phone":"0934826810","fax":"0934826801","www":"www.arquia.es","support_codes":15}
    ]
}
