{
    "country_code": "IS",
    "isSEPAcountry": true,
    "ISO_3166_1": { "name": "Iceland" , "name_fr": "Islande (l')" , "alpha2": "IS" , "alpha3": "ISL" , "numeric": 352 },
    "list": [
{"id":1,"swift_code":"SISLISREXXX","bank_code":1,"bank":"CENTRAL BANK OF ICELAND","zip":"150","city":"REYKJAVIK","address":"KALKOFNSVEGUR 1","support_codes":1},
{"id":100,"swift_code":"NBIIISREXXX","bank_code":100,"bank":"NBI HF","zip":"155","city":"REYKJAVIK","address":"AUSTURSTRAETI 11","support_codes":1},
{"id":101,"swift_code":"NBIIISREXXX","bank_code":101,"bank":"Landsbankinn hf","zip":"155","city":"REYKJAVIK","address":"AUSTURSTRAETI 11","support_codes":1},
{"id":102,"swift_code":"NBIIISREXXX","bank_code":102,"bank":"Landsbankinn hf","zip":"155","city":"REYKJAVIK","address":"AUSTURSTRAETI 11","support_codes":1},
{"id":103,"swift_code":"NBIIISREXXX","bank_code":103,"bank":"Landsbankinn hf","zip":"155","city":"REYKJAVIK","address":"AUSTURSTRAETI 11","support_codes":1},
{"id":104,"swift_code":"NBIIISREXXX","bank_code":104,"bank":"Landsbankinn hf","zip":"155","city":"REYKJAVIK","address":"AUSTURSTRAETI 11","support_codes":1},
{"id":105,"swift_code":"NBIIISREXXX","bank_code":105,"bank":"Landsbankinn hf","zip":"155","city":"REYKJAVIK","address":"AUSTURSTRAETI 11","support_codes":1},
{"id":106,"swift_code":"NBIIISREXXX","bank_code":106,"bank":"Landsbankinn hf","zip":"155","city":"REYKJAVIK","address":"AUSTURSTRAETI 11","support_codes":1},
{"id":107,"swift_code":"NBIIISREXXX","bank_code":107,"bank":"Landsbankinn hf","zip":"155","city":"REYKJAVIK","address":"AUSTURSTRAETI 11","support_codes":1},
{"id":108,"swift_code":"NBIIISREXXX","bank_code":108,"bank":"Landsbankinn hf","zip":"155","city":"REYKJAVIK","address":"AUSTURSTRAETI 11","support_codes":1},
{"id":109,"swift_code":"NBIIISREXXX","bank_code":109,"bank":"Landsbankinn hf","zip":"155","city":"REYKJAVIK","address":"AUSTURSTRAETI 11","support_codes":1},
{"id":110,"swift_code":"NBIIISREXXX","bank_code":110,"bank":"Landsbankinn hf","zip":"155","city":"REYKJAVIK","address":"AUSTURSTRAETI 11","support_codes":1},
{"id":111,"swift_code":"NBIIISREXXX","bank_code":111,"bank":"Landsbankinn hf","zip":"155","city":"REYKJAVIK","address":"AUSTURSTRAETI 11","support_codes":1},
{"id":113,"swift_code":"NBIIISREXXX","bank_code":113,"bank":"Landsbankinn hf","zip":"155","city":"REYKJAVIK","address":"AUSTURSTRAETI 11","support_codes":1},
{"id":114,"swift_code":"NBIIISREXXX","bank_code":114,"bank":"Landsbankinn hf","zip":"155","city":"REYKJAVIK","address":"AUSTURSTRAETI 11","support_codes":1},
{"id":115,"swift_code":"NBIIISREXXX","bank_code":115,"bank":"Landsbankinn hf","zip":"155","city":"REYKJAVIK","address":"AUSTURSTRAETI 11","support_codes":1},
{"id":116,"swift_code":"NBIIISREXXX","bank_code":116,"bank":"Landsbankinn hf","zip":"155","city":"REYKJAVIK","address":"AUSTURSTRAETI 11","support_codes":1},
{"id":117,"swift_code":"NBIIISREXXX","bank_code":117,"bank":"Landsbankinn hf","zip":"155","city":"REYKJAVIK","address":"AUSTURSTRAETI 11","support_codes":1},
{"id":118,"swift_code":"NBIIISREXXX","bank_code":118,"bank":"Landsbankinn hf","zip":"155","city":"REYKJAVIK","address":"AUSTURSTRAETI 11","support_codes":1},
{"id":121,"swift_code":"NBIIISREXXX","bank_code":121,"bank":"Landsbankinn hf","zip":"155","city":"REYKJAVIK","address":"AUSTURSTRAETI 11","support_codes":1},
{"id":122,"swift_code":"NBIIISREXXX","bank_code":122,"bank":"Landsbankinn hf","zip":"155","city":"REYKJAVIK","address":"AUSTURSTRAETI 11","support_codes":1},
{"id":123,"swift_code":"NBIIISREXXX","bank_code":123,"bank":"Landsbankinn hf","zip":"155","city":"REYKJAVIK","address":"AUSTURSTRAETI 11","support_codes":1},
{"id":124,"swift_code":"NBIIISREXXX","bank_code":124,"bank":"Landsbankinn hf","zip":"155","city":"REYKJAVIK","address":"AUSTURSTRAETI 11","support_codes":1},
{"id":125,"swift_code":"NBIIISREXXX","bank_code":125,"bank":"Landsbankinn hf","zip":"155","city":"REYKJAVIK","address":"AUSTURSTRAETI 11","support_codes":1},
{"id":126,"swift_code":"NBIIISREXXX","bank_code":126,"bank":"Landsbankinn hf","zip":"155","city":"REYKJAVIK","address":"AUSTURSTRAETI 11","support_codes":1},
{"id":127,"swift_code":"NBIIISREXXX","bank_code":127,"bank":"Landsbankinn hf","zip":"155","city":"REYKJAVIK","address":"AUSTURSTRAETI 11","support_codes":1},
{"id":128,"swift_code":"NBIIISREXXX","bank_code":128,"bank":"Landsbankinn hf","zip":"155","city":"REYKJAVIK","address":"AUSTURSTRAETI 11","support_codes":1},
{"id":129,"swift_code":"NBIIISREXXX","bank_code":129,"bank":"Landsbankinn hf","zip":"155","city":"REYKJAVIK","address":"AUSTURSTRAETI 11","support_codes":1},
{"id":130,"swift_code":"NBIIISREXXX","bank_code":130,"bank":"Landsbankinn hf","zip":"155","city":"REYKJAVIK","address":"AUSTURSTRAETI 11","support_codes":1},
{"id":133,"swift_code":"NBIIISREXXX","bank_code":133,"bank":"Landsbankinn hf","zip":"155","city":"REYKJAVIK","address":"AUSTURSTRAETI 11","support_codes":1},
{"id":134,"swift_code":"NBIIISREXXX","bank_code":134,"bank":"Landsbankinn hf","zip":"155","city":"REYKJAVIK","address":"AUSTURSTRAETI 11","support_codes":1},
{"id":135,"swift_code":"NBIIISREXXX","bank_code":135,"bank":"Landsbankinn hf","zip":"155","city":"REYKJAVIK","address":"AUSTURSTRAETI 11","support_codes":1},
{"id":137,"swift_code":"NBIIISREXXX","bank_code":137,"bank":"Landsbankinn hf","zip":"155","city":"REYKJAVIK","address":"AUSTURSTRAETI 11","support_codes":1},
{"id":140,"swift_code":"NBIIISREXXX","bank_code":140,"bank":"Landsbankinn hf","zip":"155","city":"REYKJAVIK","address":"AUSTURSTRAETI 11","support_codes":1},
{"id":142,"swift_code":"NBIIISREXXX","bank_code":142,"bank":"Landsbankinn hf","zip":"155","city":"REYKJAVIK","address":"AUSTURSTRAETI 11","support_codes":1},
{"id":143,"swift_code":"NBIIISREXXX","bank_code":143,"bank":"Landsbankinn hf","zip":"155","city":"REYKJAVIK","address":"AUSTURSTRAETI 11","support_codes":1},
{"id":144,"swift_code":"NBIIISREXXX","bank_code":144,"bank":"Landsbankinn hf","zip":"155","city":"REYKJAVIK","address":"AUSTURSTRAETI 11","support_codes":1},
{"id":146,"swift_code":"NBIIISREXXX","bank_code":146,"bank":"Landsbankinn hf","zip":"155","city":"REYKJAVIK","address":"AUSTURSTRAETI 11","support_codes":1},
{"id":147,"swift_code":"NBIIISREXXX","bank_code":147,"bank":"Landsbankinn hf","zip":"155","city":"REYKJAVIK","address":"AUSTURSTRAETI 11","support_codes":1},
{"id":148,"swift_code":"NBIIISREXXX","bank_code":148,"bank":"Landsbankinn hf","zip":"155","city":"REYKJAVIK","address":"AUSTURSTRAETI 11","support_codes":1},
{"id":149,"swift_code":"NBIIISREXXX","bank_code":149,"bank":"Landsbankinn hf","zip":"155","city":"REYKJAVIK","address":"AUSTURSTRAETI 11","support_codes":1},
{"id":150,"swift_code":"NBIIISREXXX","bank_code":150,"bank":"Landsbankinn hf","zip":"155","city":"REYKJAVIK","address":"AUSTURSTRAETI 11","support_codes":1},
{"id":151,"swift_code":"NBIIISREXXX","bank_code":151,"bank":"Landsbankinn hf","zip":"155","city":"REYKJAVIK","address":"AUSTURSTRAETI 11","support_codes":1},
{"id":152,"swift_code":"NBIIISREXXX","bank_code":152,"bank":"Landsbankinn hf","zip":"155","city":"REYKJAVIK","address":"AUSTURSTRAETI 11","support_codes":1},
{"id":153,"swift_code":"NBIIISREXXX","bank_code":153,"bank":"Landsbankinn hf","zip":"155","city":"REYKJAVIK","address":"AUSTURSTRAETI 11","support_codes":1},
{"id":154,"swift_code":"NBIIISREXXX","bank_code":154,"bank":"Landsbankinn hf","zip":"155","city":"REYKJAVIK","address":"AUSTURSTRAETI 11","support_codes":1},
{"id":156,"swift_code":"NBIIISREXXX","bank_code":156,"bank":"Landsbankinn hf","zip":"155","city":"REYKJAVIK","address":"AUSTURSTRAETI 11","support_codes":1},
{"id":157,"swift_code":"NBIIISREXXX","bank_code":157,"bank":"Landsbankinn hf","zip":"155","city":"REYKJAVIK","address":"AUSTURSTRAETI 11","support_codes":1},
{"id":159,"swift_code":"NBIIISREXXX","bank_code":159,"bank":"Landsbankinn hf","zip":"155","city":"REYKJAVIK","address":"AUSTURSTRAETI 11","support_codes":1},
{"id":160,"swift_code":"NBIIISREXXX","bank_code":160,"bank":"Landsbankinn hf","zip":"155","city":"REYKJAVIK","address":"AUSTURSTRAETI 11","support_codes":1},
{"id":161,"swift_code":"NBIIISREXXX","bank_code":161,"bank":"Landsbankinn hf","zip":"155","city":"REYKJAVIK","address":"AUSTURSTRAETI 11","support_codes":1},
{"id":162,"swift_code":"NBIIISREXXX","bank_code":162,"bank":"Landsbankinn hf","zip":"155","city":"REYKJAVIK","address":"AUSTURSTRAETI 11","support_codes":1},
{"id":163,"swift_code":"NBIIISREXXX","bank_code":163,"bank":"Landsbankinn hf","zip":"155","city":"REYKJAVIK","address":"AUSTURSTRAETI 11","support_codes":1},
{"id":166,"swift_code":"NBIIISREXXX","bank_code":166,"bank":"Landsbankinn hf","zip":"155","city":"REYKJAVIK","address":"AUSTURSTRAETI 11","support_codes":1},
{"id":167,"swift_code":"NBIIISREXXX","bank_code":167,"bank":"Landsbankinn hf","zip":"155","city":"REYKJAVIK","address":"AUSTURSTRAETI 11","support_codes":1},
{"id":168,"swift_code":"NBIIISREXXX","bank_code":168,"bank":"Landsbankinn hf","zip":"155","city":"REYKJAVIK","address":"AUSTURSTRAETI 11","support_codes":1},
{"id":169,"swift_code":"NBIIISREXXX","bank_code":169,"bank":"LANDSBANKINN HF","support_codes":1},
{"id":171,"swift_code":"NBIIISREXXX","bank_code":171,"bank":"Landsbankinn hf","zip":"155","city":"REYKJAVIK","address":"AUSTURSTRAETI 11","support_codes":1},
{"id":172,"swift_code":"NBIIISREXXX","bank_code":172,"bank":"Landsbankinn hf","zip":"155","city":"REYKJAVIK","address":"AUSTURSTRAETI 11","support_codes":1},
{"id":174,"swift_code":"NBIIISREXXX","bank_code":174,"bank":"LANDSBANKINN HF","support_codes":1},
{"id":175,"swift_code":"NBIIISREXXX","bank_code":175,"bank":"Landsbankinn hf","zip":"155","city":"REYKJAVIK","address":"AUSTURSTRAETI 11","support_codes":1},
{"id":176,"swift_code":"NBIIISREXXX","bank_code":176,"bank":"Landsbankinn hf","zip":"155","city":"REYKJAVIK","address":"AUSTURSTRAETI 11","support_codes":1},
{"id":177,"swift_code":"NBIIISREXXX","bank_code":177,"bank":"LANDSBANKINN HF","support_codes":1},
{"id":178,"swift_code":"NBIIISREXXX","bank_code":178,"bank":"Landsbankinn hf","zip":"155","city":"REYKJAVIK","address":"AUSTURSTRAETI 11","support_codes":1},
{"id":179,"swift_code":"NBIIISREXXX","bank_code":179,"bank":"LANDSBANKINN HF","support_codes":1},
{"id":180,"swift_code":"NBIIISREXXX","bank_code":180,"bank":"Landsbankinn hf","zip":"155","city":"REYKJAVIK","address":"AUSTURSTRAETI 11","support_codes":1},
{"id":182,"swift_code":"NBIIISREXXX","bank_code":182,"bank":"Landsbankinn hf","zip":"155","city":"REYKJAVIK","address":"AUSTURSTRAETI 11","support_codes":1},
{"id":183,"swift_code":"NBIIISREXXX","bank_code":183,"bank":"Landsbankinn hf","zip":"155","city":"REYKJAVIK","address":"AUSTURSTRAETI 11","support_codes":1},
{"id":184,"swift_code":"NBIIISREXXX","bank_code":184,"bank":"Landsbankinn hf","zip":"155","city":"REYKJAVIK","address":"AUSTURSTRAETI 11","support_codes":1},
{"id":185,"swift_code":"NBIIISREXXX","bank_code":185,"bank":"LANDSBANKINN HF","support_codes":1},
{"id":186,"swift_code":"NBIIISREXXX","bank_code":186,"bank":"Landsbankinn hf","zip":"155","city":"REYKJAVIK","address":"AUSTURSTRAETI 11","support_codes":1},
{"id":187,"swift_code":"GLITISREXXX","bank_code":187,"bank":"Landsbanki Islands hf","zip":"155","city":"REYKJAVIK","address":"KIRKJUSANDUR 2","support_codes":1},
{"id":189,"swift_code":"NBIIISREXXX","bank_code":189,"bank":"LANDSBANKINN","support_codes":1},
{"id":190,"swift_code":"NBIIISREXXX","bank_code":190,"bank":"Landsbankinn hf","zip":"155","city":"REYKJAVIK","address":"AUSTURSTRAETI 11","support_codes":1},
{"id":191,"swift_code":"NBIIISREXXX","bank_code":191,"bank":"Landsbankinn hf","zip":"155","city":"REYKJAVIK","address":"AUSTURSTRAETI 11","support_codes":1},
{"id":192,"swift_code":"NBIIISREXXX","bank_code":192,"bank":"Landsbankinn hf","zip":"155","city":"REYKJAVIK","address":"AUSTURSTRAETI 11","support_codes":1},
{"id":193,"swift_code":"NBIIISREXXX","bank_code":193,"bank":"Landsbankinn hf","zip":"155","city":"REYKJAVIK","address":"AUSTURSTRAETI 11","support_codes":1},
{"id":194,"swift_code":"NBIIISREXXX","bank_code":194,"bank":"Landsbankinn hf","zip":"155","city":"REYKJAVIK","address":"AUSTURSTRAETI 11","support_codes":1},
{"id":196,"swift_code":"NBIIISREXXX","bank_code":196,"bank":"Landsbankinn hf","zip":"155","city":"REYKJAVIK","address":"AUSTURSTRAETI 11","support_codes":1},
{"id":197,"swift_code":"NBIIISREXXX","bank_code":197,"bank":"Landsbankinn hf","zip":"155","city":"REYKJAVIK","address":"AUSTURSTRAETI 11","support_codes":1},
{"id":300,"swift_code":"ESJAISREXXX","bank_code":300,"bank":"Arion banki hf","zip":"105","city":"REYKJAVIK","address":"BORGARTUN 19","support_codes":1},
{"id":301,"swift_code":"ESJAISREXXX","bank_code":301,"bank":"Arion banki hf","zip":"105","city":"REYKJAVIK","address":"BORGARTUN 19","support_codes":1},
{"id":302,"swift_code":"ESJAISREXXX","bank_code":302,"bank":"Arion banki hf","zip":"105","city":"REYKJAVIK","address":"BORGARTUN 19","support_codes":1},
{"id":303,"swift_code":"ESJAISREXXX","bank_code":303,"bank":"Arion banki hf","zip":"105","city":"REYKJAVIK","address":"BORGARTUN 19","support_codes":1},
{"id":305,"swift_code":"ESJAISREXXX","bank_code":305,"bank":"Arion banki hf","zip":"105","city":"REYKJAVIK","address":"BORGARTUN 19","support_codes":1},
{"id":306,"swift_code":"ESJAISREXXX","bank_code":306,"bank":"Arion banki hf","zip":"105","city":"REYKJAVIK","address":"BORGARTUN 19","support_codes":1},
{"id":307,"swift_code":"ESJAISREXXX","bank_code":307,"bank":"Arion banki hf","zip":"105","city":"REYKJAVIK","address":"BORGARTUN 19","support_codes":1},
{"id":308,"swift_code":"ESJAISREXXX","bank_code":308,"bank":"Arion banki hf","zip":"105","city":"REYKJAVIK","address":"BORGARTUN 19","support_codes":1},
{"id":309,"swift_code":"ESJAISREXXX","bank_code":309,"bank":"Arion banki hf","zip":"105","city":"REYKJAVIK","address":"BORGARTUN 19","support_codes":1},
{"id":310,"swift_code":"ESJAISREXXX","bank_code":310,"bank":"Arion banki hf","zip":"105","city":"REYKJAVIK","address":"BORGARTUN 19","support_codes":1},
{"id":311,"swift_code":"ESJAISREXXX","bank_code":311,"bank":"Arion banki hf","zip":"105","city":"REYKJAVIK","address":"BORGARTUN 19","support_codes":1},
{"id":312,"swift_code":"ESJAISREXXX","bank_code":312,"bank":"Arion banki hf","zip":"105","city":"REYKJAVIK","address":"BORGARTUN 19","support_codes":1},
{"id":313,"swift_code":"ESJAISREXXX","bank_code":313,"bank":"Arion banki hf","zip":"105","city":"REYKJAVIK","address":"BORGARTUN 19","support_codes":1},
{"id":314,"swift_code":"ESJAISREXXX","bank_code":314,"bank":"Arion banki hf","zip":"105","city":"REYKJAVIK","address":"BORGARTUN 19","support_codes":1},
{"id":315,"swift_code":"ESJAISREXXX","bank_code":315,"bank":"Arion banki hf","zip":"105","city":"REYKJAVIK","address":"BORGARTUN 19","support_codes":1},
{"id":316,"swift_code":"ESJAISREXXX","bank_code":316,"bank":"Arion banki hf","zip":"105","city":"REYKJAVIK","address":"BORGARTUN 19","support_codes":1},
{"id":317,"swift_code":"ESJAISREXXX","bank_code":317,"bank":"Arion banki hf","zip":"105","city":"REYKJAVIK","address":"BORGARTUN 19","support_codes":1},
{"id":318,"swift_code":"ESJAISREXXX","bank_code":318,"bank":"Arion banki hf","zip":"105","city":"REYKJAVIK","address":"BORGARTUN 19","support_codes":1},
{"id":319,"swift_code":"ESJAISREXXX","bank_code":319,"bank":"Arion banki hf","zip":"105","city":"REYKJAVIK","address":"BORGARTUN 19","support_codes":1},
{"id":321,"swift_code":"ESJAISREXXX","bank_code":321,"bank":"Arion banki hf","zip":"105","city":"REYKJAVIK","address":"BORGARTUN 19","support_codes":1},
{"id":322,"swift_code":"ESJAISREXXX","bank_code":322,"bank":"Arion banki hf","zip":"105","city":"REYKJAVIK","address":"BORGARTUN 19","support_codes":1},
{"id":323,"swift_code":"ESJAISREXXX","bank_code":323,"bank":"Arion banki hf","zip":"105","city":"REYKJAVIK","address":"BORGARTUN 19","support_codes":1},
{"id":324,"swift_code":"ESJAISREXXX","bank_code":324,"bank":"Arion banki hf","zip":"105","city":"REYKJAVIK","address":"BORGARTUN 19","support_codes":1},
{"id":325,"swift_code":"ESJAISREXXX","bank_code":325,"bank":"Arion banki hf","zip":"105","city":"REYKJAVIK","address":"BORGARTUN 19","support_codes":1},
{"id":326,"swift_code":"ESJAISREXXX","bank_code":326,"bank":"Arion banki hf","zip":"105","city":"REYKJAVIK","address":"BORGARTUN 19","support_codes":1},
{"id":327,"swift_code":"ESJAISREXXX","bank_code":327,"bank":"Arion banki hf","zip":"105","city":"REYKJAVIK","address":"BORGARTUN 19","support_codes":1},
{"id":328,"swift_code":"ESJAISREXXX","bank_code":328,"bank":"Arion banki hf","zip":"105","city":"REYKJAVIK","address":"BORGARTUN 19","support_codes":1},
{"id":329,"swift_code":"ESJAISREXXX","bank_code":329,"bank":"Arion banki hf","zip":"105","city":"REYKJAVIK","address":"BORGARTUN 19","support_codes":1},
{"id":330,"swift_code":"ESJAISREXXX","bank_code":330,"bank":"Arion banki hf","zip":"105","city":"REYKJAVIK","address":"BORGARTUN 19","support_codes":1},
{"id":331,"swift_code":"ESJAISREXXX","bank_code":331,"bank":"Arion banki hf","zip":"105","city":"REYKJAVIK","address":"BORGARTUN 19","support_codes":1},
{"id":332,"swift_code":"ESJAISREXXX","bank_code":332,"bank":"Arion banki hf","zip":"105","city":"REYKJAVIK","address":"BORGARTUN 19","support_codes":1},
{"id":333,"swift_code":"ESJAISREXXX","bank_code":333,"bank":"Arion banki hf","zip":"105","city":"REYKJAVIK","address":"BORGARTUN 19","support_codes":1},
{"id":334,"swift_code":"ESJAISREXXX","bank_code":334,"bank":"Arion banki hf","zip":"105","city":"REYKJAVIK","address":"BORGARTUN 19","support_codes":1},
{"id":335,"swift_code":"ESJAISREXXX","bank_code":335,"bank":"Arion banki hf","zip":"105","city":"REYKJAVIK","address":"BORGARTUN 19","support_codes":1},
{"id":336,"swift_code":"ESJAISREXXX","bank_code":336,"bank":"Arion banki hf","zip":"105","city":"REYKJAVIK","address":"BORGARTUN 19","support_codes":1},
{"id":337,"swift_code":"ESJAISREXXX","bank_code":337,"bank":"Arion banki hf","zip":"105","city":"REYKJAVIK","address":"BORGARTUN 19","support_codes":1},
{"id":338,"swift_code":"ESJAISREXXX","bank_code":338,"bank":"Arion banki hf","zip":"105","city":"REYKJAVIK","address":"BORGARTUN 19","support_codes":1},
{"id":340,"swift_code":"ESJAISREXXX","bank_code":340,"bank":"Arion banki hf","zip":"105","city":"REYKJAVIK","address":"BORGARTUN 19","support_codes":1},
{"id":342,"swift_code":"ESJAISREXXX","bank_code":342,"bank":"Arion banki hf","zip":"105","city":"REYKJAVIK","address":"BORGARTUN 19","support_codes":1},
{"id":343,"swift_code":"ESJAISREXXX","bank_code":343,"bank":"Arion banki hf","zip":"105","city":"REYKJAVIK","address":"BORGARTUN 19","support_codes":1},
{"id":344,"swift_code":"ESJAISREXXX","bank_code":344,"bank":"Arion banki hf","zip":"105","city":"REYKJAVIK","address":"BORGARTUN 19","support_codes":1},
{"id":345,"swift_code":"ESJAISREXXX","bank_code":345,"bank":"Arion banki hf","zip":"105","city":"REYKJAVIK","address":"BORGARTUN 19","support_codes":1},
{"id":346,"swift_code":"ESJAISREXXX","bank_code":346,"bank":"Arion banki hf","zip":"105","city":"REYKJAVIK","address":"BORGARTUN 19","support_codes":1},
{"id":347,"swift_code":"ESJAISREXXX","bank_code":347,"bank":"ARION BANK","support_codes":1},
{"id":348,"swift_code":"ESJAISREXXX","bank_code":348,"bank":"Arion banki hf","support_codes":1},
{"id":349,"swift_code":"ESJAISREXXX","bank_code":349,"bank":"ARION BANK","support_codes":1},
{"id":351,"swift_code":"ESJAISREXXX","bank_code":351,"bank":"Arion banki hf","zip":"105","city":"REYKJAVIK","address":"BORGARTUN 19","support_codes":1},
{"id":354,"swift_code":"ESJAISREXXX","bank_code":354,"bank":"Arion banki hf","zip":"105","city":"REYKJAVIK","address":"BORGARTUN 19","support_codes":1},
{"id":355,"swift_code":"ESJAISREXXX","bank_code":355,"bank":"Arion banki hf","zip":"105","city":"REYKJAVIK","address":"BORGARTUN 19","support_codes":1},
{"id":356,"swift_code":"ESJAISREXXX","bank_code":356,"bank":"Arion banki hf","zip":"105","city":"REYKJAVIK","address":"BORGARTUN 19","support_codes":1},
{"id":357,"swift_code":"ESJAISREXXX","bank_code":357,"bank":"Arion banki hf","zip":"105","city":"REYKJAVIK","address":"BORGARTUN 19","support_codes":1},
{"id":358,"swift_code":"ESJAISREXXX","bank_code":358,"bank":"Arion banki hf","zip":"105","city":"REYKJAVIK","address":"BORGARTUN 19","support_codes":1},
{"id":359,"swift_code":"ESJAISREXXX","bank_code":359,"bank":"Arion banki hf","zip":"105","city":"REYKJAVIK","address":"BORGARTUN 19","support_codes":1},
{"id":360,"swift_code":"ESJAISREXXX","bank_code":360,"bank":"Arion banki hf","zip":"105","city":"REYKJAVIK","address":"BORGARTUN 19","support_codes":1},
{"id":361,"swift_code":"ESJAISREXXX","bank_code":361,"bank":"Arion banki hf","zip":"105","city":"REYKJAVIK","address":"BORGARTUN 19","support_codes":1},
{"id":370,"swift_code":"ESJAISREXXX","bank_code":370,"bank":"Arion banki hf","zip":"105","city":"REYKJAVIK","address":"BORGARTUN 19","support_codes":1},
{"id":371,"swift_code":"ESJAISREXXX","bank_code":371,"bank":"Arion banki hf","zip":"105","city":"REYKJAVIK","address":"BORGARTUN 19","support_codes":1},
{"id":372,"swift_code":"ESJAISREXXX","bank_code":372,"bank":"Arion banki hf","zip":"105","city":"REYKJAVIK","address":"BORGARTUN 19","support_codes":1},
{"id":394,"swift_code":"ESJAISREXXX","bank_code":394,"bank":"Arion banki hf","zip":"105","city":"REYKJAVIK","address":"BORGARTUN 19","support_codes":1},
{"id":395,"swift_code":"ESJAISREXXX","bank_code":395,"bank":"Arion banki hf","zip":"105","city":"REYKJAVIK","address":"BORGARTUN 19","support_codes":1},
{"id":397,"swift_code":"ESJAISREXXX","bank_code":397,"bank":"Arion banki hf","zip":"105","city":"REYKJAVIK","address":"BORGARTUN 19","support_codes":1},
{"id":398,"swift_code":"ESJAISREXXX","bank_code":398,"bank":"Arion banki hf","zip":"105","city":"REYKJAVIK","address":"BORGARTUN 19","support_codes":1},
{"id":500,"swift_code":"GLITISREXXX","bank_code":500,"bank":"Islandsbanki hf","zip":"155","city":"REYKJAVIK","address":"KIRKJUSANDUR 2","support_codes":1},
{"id":501,"swift_code":"GLITISREXXX","bank_code":501,"bank":"Islandsbanki hf","zip":"155","city":"REYKJAVIK","address":"KIRKJUSANDUR 2","support_codes":1},
{"id":502,"swift_code":"GLITISREXXX","bank_code":502,"bank":"Islandsbanki hf","zip":"155","city":"REYKJAVIK","address":"KIRKJUSANDUR 2","support_codes":1},
{"id":503,"swift_code":"GLITISREXXX","bank_code":503,"bank":"Islandsbanki hf","zip":"155","city":"REYKJAVIK","address":"KIRKJUSANDUR 2","support_codes":1},
{"id":504,"swift_code":"GLITISREXXX","bank_code":504,"bank":"Islandsbanki hf","zip":"155","city":"REYKJAVIK","address":"KIRKJUSANDUR 2","support_codes":1},
{"id":505,"swift_code":"GLITISREXXX","bank_code":505,"bank":"Islandsbanki hf","zip":"155","city":"REYKJAVIK","address":"KIRKJUSANDUR 2","support_codes":1},
{"id":506,"swift_code":"GLITISREXXX","bank_code":506,"bank":"Islandsbanki hf","zip":"155","city":"REYKJAVIK","address":"KIRKJUSANDUR 2","support_codes":1},
{"id":507,"swift_code":"GLITISREXXX","bank_code":507,"bank":"Islandsbanki hf","zip":"155","city":"REYKJAVIK","address":"KIRKJUSANDUR 2","support_codes":1},
{"id":508,"swift_code":"GLITISREXXX","bank_code":508,"bank":"ISLANDSBANKI HF","zip":"155","city":"REYKJAVIK","address":"KIRKJUSANDUR 2","support_codes":1},
{"id":510,"swift_code":"GLITISREXXX","bank_code":510,"bank":"Islandsbanki hf","zip":"155","city":"REYKJAVIK","address":"KIRKJUSANDUR 2","support_codes":1},
{"id":511,"swift_code":"GLITISREXXX","bank_code":511,"bank":"Islandsbanki hf","zip":"155","city":"REYKJAVIK","address":"KIRKJUSANDUR 2","support_codes":1},
{"id":512,"swift_code":"GLITISREXXX","bank_code":512,"bank":"Islandsbanki hf","zip":"155","city":"REYKJAVIK","address":"KIRKJUSANDUR 2","support_codes":1},
{"id":513,"swift_code":"GLITISREXXX","bank_code":513,"bank":"Islandsbanki hf","zip":"155","city":"REYKJAVIK","address":"KIRKJUSANDUR 2","support_codes":1},
{"id":514,"swift_code":"GLITISREXXX","bank_code":514,"bank":"Islandsbanki hf","zip":"155","city":"REYKJAVIK","address":"KIRKJUSANDUR 2","support_codes":1},
{"id":515,"swift_code":"GLITISREXXX","bank_code":515,"bank":"Islandsbanki hf","zip":"155","city":"REYKJAVIK","address":"KIRKJUSANDUR 2","support_codes":1},
{"id":516,"swift_code":"GLITISREXXX","bank_code":516,"bank":"Islandsbanki hf","zip":"155","city":"REYKJAVIK","address":"KIRKJUSANDUR 2","support_codes":1},
{"id":518,"swift_code":"GLITISREXXX","bank_code":518,"bank":"Islandsbanki hf","zip":"155","city":"REYKJAVIK","address":"KIRKJUSANDUR 2","support_codes":1},
{"id":519,"swift_code":"GLITISREXXX","bank_code":519,"bank":"Islandsbanki hf","zip":"155","city":"REYKJAVIK","address":"KIRKJUSANDUR 2","support_codes":1},
{"id":520,"swift_code":"GLITISREXXX","bank_code":520,"bank":"Islandsbanki hf","zip":"155","city":"REYKJAVIK","address":"KIRKJUSANDUR 2","support_codes":1},
{"id":521,"swift_code":"GLITISREXXX","bank_code":521,"bank":"Islandsbanki hf","zip":"155","city":"REYKJAVIK","address":"KIRKJUSANDUR 2","support_codes":1},
{"id":523,"swift_code":"GLITISREXXX","bank_code":523,"bank":"Islandsbanki hf","zip":"155","city":"REYKJAVIK","address":"KIRKJUSANDUR 2","support_codes":1},
{"id":525,"swift_code":"GLITISREXXX","bank_code":525,"bank":"Islandsbanki hf","zip":"155","city":"REYKJAVIK","address":"KIRKJUSANDUR 2","support_codes":1},
{"id":526,"swift_code":"GLITISREXXX","bank_code":526,"bank":"Islandsbanki hf","zip":"155","city":"REYKJAVIK","address":"KIRKJUSANDUR 2","support_codes":1},
{"id":527,"swift_code":"GLITISREXXX","bank_code":527,"bank":"ISLANDSBANKI HF","support_codes":1},
{"id":528,"swift_code":"GLITISREXXX","bank_code":528,"bank":"Islandsbanki hf","zip":"155","city":"REYKJAVIK","address":"KIRKJUSANDUR 2","support_codes":1},
{"id":535,"swift_code":"GLITISREXXX","bank_code":535,"bank":"Islandsbanki hf","zip":"155","city":"REYKJAVIK","address":"KIRKJUSANDUR 2","support_codes":1},
{"id":536,"swift_code":"GLITISREXXX","bank_code":536,"bank":"Islandsbanki hf","zip":"155","city":"REYKJAVIK","address":"KIRKJUSANDUR 2","support_codes":1},
{"id":537,"swift_code":"GLITISREXXX","bank_code":537,"bank":"Islandsbanki hf","zip":"155","city":"REYKJAVIK","address":"KIRKJUSANDUR 2","support_codes":1},
{"id":541,"swift_code":"GLITISREXXX","bank_code":541,"bank":"Islandsbanki hf","zip":"155","city":"REYKJAVIK","address":"KIRKJUSANDUR 2","support_codes":1},
{"id":542,"swift_code":"GLITISREXXX","bank_code":542,"bank":"Islandsbanki hf","zip":"155","city":"REYKJAVIK","address":"KIRKJUSANDUR 2","support_codes":1},
{"id":544,"swift_code":"GLITISREXXX","bank_code":544,"bank":"Islandsbanki hf","zip":"155","city":"REYKJAVIK","address":"KIRKJUSANDUR 2","support_codes":1},
{"id":545,"swift_code":"GLITISREXXX","bank_code":545,"bank":"Islandsbanki hf","zip":"155","city":"REYKJAVIK","address":"KIRKJUSANDUR 2","support_codes":1},
{"id":546,"swift_code":"GLITISREXXX","bank_code":546,"bank":"Islandsbanki hf","zip":"155","city":"REYKJAVIK","address":"KIRKJUSANDUR 2","support_codes":1},
{"id":549,"swift_code":"GLITISREXXX","bank_code":549,"bank":"Islandsbanki hf","zip":"155","city":"REYKJAVIK","address":"KIRKJUSANDUR 2","support_codes":1},
{"id":551,"swift_code":"GLITISREXXX","bank_code":551,"bank":"Islandsbanki hf","zip":"155","city":"REYKJAVIK","address":"KIRKJUSANDUR 2","support_codes":1},
{"id":552,"swift_code":"GLITISREXXX","bank_code":552,"bank":"Islandsbanki hf","zip":"155","city":"REYKJAVIK","address":"KIRKJUSANDUR 2","support_codes":1},
{"id":553,"swift_code":"GLITISREXXX","bank_code":553,"bank":"Islandsbanki hf","zip":"155","city":"REYKJAVIK","address":"KIRKJUSANDUR 2","support_codes":1},
{"id":556,"swift_code":"GLITISREXXX","bank_code":556,"bank":"Islandsbanki hf","zip":"155","city":"REYKJAVIK","address":"KIRKJUSANDUR 2","support_codes":1},
{"id":565,"swift_code":"GLITISREXXX","bank_code":565,"bank":"Islandsbanki hf","zip":"155","city":"REYKJAVIK","address":"KIRKJUSANDUR 2","support_codes":1},
{"id":566,"swift_code":"GLITISREXXX","bank_code":566,"bank":"Islandsbanki hf","zip":"155","city":"REYKJAVIK","address":"KIRKJUSANDUR 2","support_codes":1},
{"id":567,"swift_code":"GLITISREXXX","bank_code":567,"bank":"Islandsbanki hf","zip":"155","city":"REYKJAVIK","address":"KIRKJUSANDUR 2","support_codes":1},
{"id":568,"swift_code":"GLITISREXXX","bank_code":568,"bank":"Islandsbanki hf","zip":"155","city":"REYKJAVIK","address":"KIRKJUSANDUR 2","support_codes":1},
{"id":569,"swift_code":"GLITISREXXX","bank_code":569,"bank":"Islandsbanki hf","zip":"155","city":"REYKJAVIK","address":"KIRKJUSANDUR 2","support_codes":1},
{"id":580,"swift_code":"GLITISREXXX","bank_code":580,"bank":"Islandsbanki hf","zip":"155","city":"REYKJAVIK","address":"KIRKJUSANDUR 2","support_codes":1},
{"id":582,"swift_code":"GLITISREXXX","bank_code":582,"bank":"Islandsbanki hf","zip":"155","city":"REYKJAVIK","address":"KIRKJUSANDUR 2","support_codes":1},
{"id":586,"swift_code":"GLITISREXXX","bank_code":586,"bank":"Islandsbanki hf","zip":"155","city":"REYKJAVIK","address":"KIRKJUSANDUR 2","support_codes":1},
{"id":587,"swift_code":"GLITISREXXX","bank_code":587,"bank":"Islandsbanki hf","zip":"155","city":"REYKJAVIK","address":"KIRKJUSANDUR 2","support_codes":1},
{"id":588,"swift_code":"GLITISREXXX","bank_code":588,"bank":"Islandsbanki hf","zip":"155","city":"REYKJAVIK","address":"KIRKJUSANDUR 2","support_codes":1},
{"id":589,"swift_code":"GLITISREXXX","bank_code":589,"bank":"Islandsbanki hf","zip":"155","city":"REYKJAVIK","address":"KIRKJUSANDUR 2","support_codes":1},
{"id":590,"swift_code":"GLITISREXXX","bank_code":590,"bank":"Islandsbanki hf","zip":"155","city":"REYKJAVIK","address":"KIRKJUSANDUR 2","support_codes":1},
{"id":591,"swift_code":"GLITISREXXX","bank_code":591,"bank":"Islandsbanki hf","zip":"155","city":"REYKJAVIK","address":"KIRKJUSANDUR 2","support_codes":1},
{"id":596,"swift_code":"GLITISREXXX","bank_code":596,"bank":"Islandsbanki hf","zip":"155","city":"REYKJAVIK","address":"KIRKJUSANDUR 2","support_codes":1},
{"id":597,"swift_code":"GLITISREXXX","bank_code":597,"bank":"Glitnir banki hf.","zip":"155","city":"REYKJAVIK","address":"KIRKJUSANDUR 2","support_codes":1},
{"id":599,"swift_code":"GLITISREXXX","bank_code":599,"bank":"Islandsbanki hf","zip":"155","city":"REYKJAVIK","address":"KIRKJUSANDUR 2","support_codes":1},
{"id":700,"swift_code":"MPBAISREXXX","bank_code":700,"bank":"KVIKA BANKI HF.","zip":"105","city":"REYKJAVIK","address":"Katrínartún 2","support_codes":1},
{"id":701,"swift_code":"MPBAISREXXX","bank_code":701,"bank":"KVIKA BANKI HF.","zip":"105","city":"REYKJAVIK","address":"Katrínartún 2","support_codes":1},
{"id":1100,"swift_code":"MPBAISREXXX","bank_code":1100,"bank":"Greidslumidlun","zip":"105","city":"REYKJAVIK","address":"SKIPHOLT 50D","support_codes":1},
{"id":1101,"swift_code":"BYRSISREXXX","bank_code":1101,"bank":"BYR HF"},
{"id":1102,"swift_code":"MPBAISREXXX","bank_code":1102,"bank":"SPARISJODUR","zip":"105","city":"REYKJAVIK","address":"SKIPHOLT 50D","support_codes":1},
{"id":1106,"swift_code":"MPBAISREXXX","bank_code":1106,"bank":"SPARISJODUR","zip":"105","city":"REYKJAVIK","address":"SKIPHOLT 50D","support_codes":1},
{"id":1107,"swift_code":"MPBAISREXXX","bank_code":1107,"bank":"Islandsbanki hf","zip":"105","city":"REYKJAVIK","address":"SKIPHOLT 50D","support_codes":1},
{"id":1110,"swift_code":"MPBAISREXXX","bank_code":1110,"bank":"SPARISJODUR","zip":"105","city":"REYKJAVIK","address":"SKIPHOLT 50D","support_codes":1},
{"id":1112,"swift_code":"MPBAISREXXX","bank_code":1112,"bank":"Islandsbanki hf","zip":"105","city":"REYKJAVIK","address":"SKIPHOLT 50D","support_codes":1},
{"id":1114,"swift_code":"MPBAISREXXX","bank_code":1114,"bank":"SPARISJODURINN","zip":"105","city":"REYKJAVIK","address":"SKIPHOLT 50D","support_codes":1},
{"id":1121,"swift_code":"MPBAISREXXX","bank_code":1121,"bank":"Islandsbanki hf","zip":"105","city":"REYKJAVIK","address":"SKIPHOLT 50D","support_codes":1},
{"id":1123,"swift_code":"MPBAISREXXX","bank_code":1123,"bank":"Islandsbanki hf","zip":"105","city":"REYKJAVIK","address":"SKIPHOLT 50D","support_codes":1},
{"id":1125,"swift_code":"MPBAISREXXX","bank_code":1125,"bank":"SPARISJODUR","zip":"105","city":"REYKJAVIK","address":"SKIPHOLT 50D","support_codes":1},
{"id":1126,"swift_code":"MPBAISREXXX","bank_code":1126,"bank":"Sparisjodur","zip":"105","city":"REYKJAVIK","address":"SKIPHOLT 50D","support_codes":1},
{"id":1127,"swift_code":"MPBAISREXXX","bank_code":1127,"bank":"SPARISJODUR","zip":"105","city":"REYKJAVIK","address":"SKIPHOLT 50D","support_codes":1},
{"id":1129,"swift_code":"MPBAISREXXX","bank_code":1129,"bank":"SPARISJODUR","zip":"105","city":"REYKJAVIK","address":"SKIPHOLT 50D","support_codes":1},
{"id":1131,"swift_code":"MPBAISREXXX","bank_code":1131,"bank":"Islandsbanki hf","zip":"105","city":"REYKJAVIK","address":"SKIPHOLT 50D","support_codes":1},
{"id":1147,"swift_code":"MPBAISREXXX","bank_code":1147,"bank":"SPARISJOdUR","zip":"105","city":"REYKJAVIK","address":"SKIPHOLT 50D","support_codes":1},
{"id":1158,"swift_code":"ESJAISREXXX","bank_code":1158,"bank":"ARION BANK","support_codes":1},
{"id":1161,"swift_code":"MPBAISREXXX","bank_code":1161,"bank":"SPARISJODUR","zip":"105","city":"REYKJAVIK","address":"SKIPHOLT 50D","support_codes":1},
{"id":1167,"swift_code":"MPBAISREXXX","bank_code":1167,"bank":"SPARISJODUR","zip":"105","city":"REYKJAVIK","address":"SKIPHOLT 50D","support_codes":1},
{"id":1169,"swift_code":"MPBAISREXXX","bank_code":1169,"bank":"Sparisj. Vestmannaeyja","zip":"105","city":"REYKJAVIK","address":"SKIPHOLT 50D","support_codes":1},
{"id":1174,"swift_code":"MPBAISREXXX","bank_code":1174,"bank":"Islandsbanki hf","zip":"105","city":"REYKJAVIK","address":"SKIPHOLT 50D","support_codes":1},
{"id":1175,"swift_code":"BYRSISREXXX","bank_code":1175,"bank":"BYR HF"},
{"id":1176,"swift_code":"MPBAISREXXX","bank_code":1176,"bank":"SPARISJODUR","zip":"105","city":"REYKJAVIK","address":"SKIPHOLT 50D","support_codes":1},
{"id":1177,"swift_code":"MPBAISREXXX","bank_code":1177,"bank":"Sparisjodurinn","zip":"105","city":"REYKJAVIK","address":"SKIPHOLT 50D","support_codes":1},
{"id":1187,"swift_code":"MPBAISREXXX","bank_code":1187,"bank":"SPARISJODUR","zip":"105","city":"REYKJAVIK","address":"SKIPHOLT 50D","support_codes":1},
{"id":1194,"swift_code":"MPBAISREXXX","bank_code":1194,"bank":"Islandsbanki hf","zip":"105","city":"REYKJAVIK","address":"SKIPHOLT 50D","support_codes":1},
{"id":1501,"swift_code":"BORGISREXXX","bank_code":1501,"bank":"BORGUN HF","zip":"108","city":"REYKJAVIK","address":"30 ARMULI"}
     ]
}
