{
    "country_code": "IT",
    "isSEPAcountry": true,
    "ISO_3166_1": { "name": "Italy" , "name_fr": "Italie (l')" , "alpha2": "IT" , "alpha3": "ITA" , "numeric": 380 },
    "list": [
{"id":1000,"swift_code":"BITAITRRXXX","bank_code":1000,"bank":"BANCA D'ITALIA","branch_code":0,"branch":"TORINO VIA ARSENALE, 8","zip":"10121","city":"TORINO","address":"VIA ARSENALE, 8","support_codes":1},
{"id":1005,"swift_code":"BNLIITRRXXX","bank_code":1005,"bank":"BANCA NAZIONALE DEL LAVORO SPA","branch_code":0,"branch":"FILIALE DI TORINO","zip":"10121","city":"TORINO","address":"VIA XX SETTEMBRE, 40","support_codes":15},
{"id":1010,"swift_code":"BCITITMMXXX","bank_code":1010,"bank":"INTESA SANPAOLO SPA","branch_code":0,"branch":"DCO CPF MERC NORD OVEST","zip":"10122","city":"TORINO","address":"VIA SANTA MARIA 8","support_codes":15},
{"id":1015,"swift_code":"SARDIT31XXX","bank_code":1015,"bank":"BANCO DI SARDEGNA SPA","branch_code":0,"branch":"FILIALE DI GENOVA","zip":"16123","city":"GENOVA","address":"PIAZZA FONTANE MAROSE, 6","support_codes":15},
{"id":1020,"swift_code":"UNCRITMMXXX","bank_code":1020,"bank":"BANCO DI SICILIA SPA","branch_code":0,"branch":"TORINO FILIALE 100","zip":"10121","city":"TORINO","address":"VIA ALFIERI, 13","support_codes":15},
{"id":1025,"swift_code":"BCITITMMXXX","bank_code":1025,"bank":"INTESA SANPAOLO SPA","branch_code":0,"branch":"TORINO PIAZZA S.CARLO, 156","zip":"10121","city":"TORINO","address":"PIAZZA S.CARLO, 156","support_codes":15},
{"id":1030,"swift_code":"PASCITMMXXX","bank_code":1030,"bank":"BANCA MONTEPASCHI DI SIENA S.P.A.","branch_code":0,"branch":"TORINO AGENZIA SEDE","zip":"10123","city":"TORINO","address":"VIA MAZZINI N. 14 16","support_codes":15},
{"id":2002,"swift_code":"BCITITMMXXX","bank_code":2002,"bank":"BANCA COMMERCIALE ITALIANA","branch_code":0,"branch":"SEDE DI TORINO","zip":"10121","city":"TORINO","address":"VIA S. TERESA, 9","support_codes":15},
{"id":2008,"swift_code":"UNCRITMMXXX","bank_code":2008,"bank":"UNICREDIT SPA","branch_code":0,"branch":"EX-TORINO CORSO PESCHIERA A","zip":"10141","city":"TORINO","address":"CORSO PESCHIERA, 191","support_codes":15},
{"id":3001,"swift_code":"BCITITMMXXX","bank_code":3001,"bank":"BANCO AMBROSIANO VENETO S.P.A.","branch_code":0,"branch":"SEDE","zip":"10121","city":"TORINO","address":"VIA XX SETTEMBRE, 37","support_codes":15},
{"id":3002,"swift_code":"UNCRITMMXXX","bank_code":3002,"bank":"UNICREDIT BANCA DI ROMA SPA","branch_code":0,"branch":"TORINO 5","zip":"10137","city":"TORINO","address":"VIA BUENOS AIRES, 114","support_codes":15},
{"id":3003,"swift_code":"ABNAITMMXXX","bank_code":3003,"bank":"ROYAL BANK OF SCOTLAND PLC","branch_code":0,"branch":"MILANO VIA TURATI, 9","zip":"20121","city":"MILANO","address":"VIA TURATI, 9"},
{"id":3006,"swift_code":"ARABDEFFXXX","bank_code":3006,"bank":"EUROPE ARAB BANK PLC","branch_code":0,"branch":"EUROPE ARAB BANK PLC - MILAN BRANCH","zip":"20121","city":"MILANO","address":"CORSO MATTEOTTI 1\/A","support_codes":15},
{"id":3009,"swift_code":"FCEFITR1XXX","bank_code":3009,"bank":"FCE BANK PLC","branch_code":0,"branch":"SEDE GENERALE PER L'ITALIA DELLA SUCC.IT","zip":"00143","city":"ROMA","address":"VIA ANDREA ARGOLI, 54"},
{"id":3011,"swift_code":"HAABIT2UXXX","bank_code":3011,"bank":"HYPO ALPE ADRIA BANK S.P.A.","branch_code":0,"branch":"SUCCURSALE DIREZIONE","zip":"33100","city":"UDINE","address":"VIALE VENEZIA, 100"},
{"id":3015,"swift_code":"FEBIITM1XXX","bank_code":3015,"bank":"FINECOBANK S.P.A.","branch_code":0,"branch":"SEDE DI ROMA","zip":"00187","city":"ROMA","address":"SALITA SAN NICOLA DA TOLENTINO, 1-B","support_codes":15},
{"id":3017,"swift_code":"NVESITRRXXX","bank_code":3017,"bank":"INVEST BANCA S.P.A.","branch_code":0,"branch":"FILIALE DI FIRENZE - PRIVATE BANKING","zip":"50121","city":"FIRENZE","address":"VIA VINCENZO GIOBERTI, 32-D","support_codes":15},
{"id":3018,"swift_code":"LJBAIT2TXXX","bank_code":3018,"bank":"NOVA LJUBLJANSKA BANKA D.D.","branch_code":0,"branch":"FILIALE DI TRIESTE","zip":"34133","city":"TRIESTE","address":"STRADA PER VIENNA 55 1                  34151"},
{"id":3019,"swift_code":"BPCVIT2SXXX","bank_code":3019,"bank":"CREDITO VALTELLINESE","branch_code":0,"branch":"AGENZIA DI TORINO","zip":"10152","city":"TORINO","address":"PIAZZA REPUBBLICA, 17","support_codes":15},
{"id":3021,"swift_code":"MIDLITMXXXX","bank_code":3021,"bank":"HSBC BANK PLC","branch_code":0,"branch":"FILIALE DI MILANO","zip":"20123","city":"MILANO","address":"PIAZZETTA BOSSI, 1","support_codes":15},
{"id":3022,"swift_code":"CFFRFRPPXXX","bank_code":3022,"bank":"CREDIT FONCIER DE FRANCE","branch_code":0,"branch":"AGENZIA DI TRIESTE 6","zip":"34100","city":"TRIESTE","address":"VIA CABOTO, 1","support_codes":15},
{"id":3025,"swift_code":"PROFITMMXXX","bank_code":3025,"bank":"BANCA PROFILO S.P.A.","branch_code":0,"branch":"FILIALE DI GENOVA","zip":"16100","city":"GENOVA","address":"SALITA SANTA CATERINA, 4","support_codes":7},
{"id":3026,"swift_code":"BLEAITM1XXX","bank_code":3026,"bank":"BANCA ITALEASE S.P.A.","branch_code":0,"branch":"SEDE CENTRALE","zip":"20122","city":"MILANO","address":"VIA CINO DEL DUCA, 12","support_codes":1},
{"id":3029,"swift_code":"MELYITM1XXX","bank_code":3029,"bank":"MERRILL LYNCH INTERNATIONAL BANK LIMITED","branch_code":0,"branch":"SEDE DI MILANO","zip":"20121","city":"MILANO","address":"VIA MANZONI, 31"},
{"id":3030,"swift_code":"CROPITRRXXX","bank_code":3030,"bank":"DEXIA CREDIOP S.P.A.","branch_code":0,"branch":"DEXIA CREDIOP SPA FILIALE DI TORINO","zip":"10121","city":"TORINO","address":"VIA S.FRANCESCO D'ASSISI, 22","support_codes":1},
{"id":3032,"swift_code":"BACRIT22XXX","bank_code":3032,"bank":"CREDITO EMILIANO SPA","branch_code":0,"branch":"TORINO","zip":"10121","city":"TORINO","address":"VIA VIOTTI ANG. VIA BERTOLA","support_codes":15},
{"id":3034,"swift_code":"BASMSMSMXXX","bank_code":3034,"bank":"BANCA AGRICOLA COMMERCIALE REPUBBLICA DI SAN MARINOSASM","branch_code":0,"branch":"FILIALE DOGANA","zip":"47031","city":"REPUBBLICA DI SAN MARINO","address":"FILIALE DI DOGANA - PIAZZA M. TINI, 26","support_codes":15},
{"id":3040,"swift_code":"CRESCHZHXXX","bank_code":3040,"bank":"CREDIT SUISSE AG","branch_code":0,"branch":"SEDE DI MILANO","zip":"20121","city":"MILANO","address":"VIA SANTA MARGHERITA 3","support_codes":15},
{"id":3041,"swift_code":"UBSWITMMXXX","bank_code":3041,"bank":"UBS EUROPE SE SUCCURSALE ITALIA","branch_code":0,"branch":"TORINO","zip":"10123","city":"TORINO","address":"VIA GIUSEPPE MAZZINI, 41\/B","support_codes":1},
{"id":3043,"swift_code":"BIMTITTTXXX","bank_code":3043,"bank":"BANCA INTERMOBILIARE DI INVESTIMENTI E GESTIONI S.P.A.","branch_code":0,"branch":"SEDE DI TORINO","zip":"10121","city":"TORINO","address":"VIA GRAMSCI 7","support_codes":15},
{"id":3045,"swift_code":"AKROITMMXXX","bank_code":3045,"bank":"BANCA AKROS S.P.A.","branch_code":0,"branch":"SEDE","zip":"20149","city":"MILANO","address":"VIALE EGINARDO, 29","support_codes":1},
{"id":3047,"swift_code":"CAOTIT31XXX","bank_code":3047,"bank":"BANCA CAPASSO ANTONIO B. - ALIFE","branch_code":0,"branch":"ALIFE PIAZZA TERMINI, 1","zip":"81011","city":"ALIFE","address":"PIAZZA TERMINI, 1","support_codes":15},
{"id":3048,"swift_code":"BDCPITTTXXX","bank_code":3048,"bank":"BANCA DEL PIEMONTE S.P.A.","branch_code":0,"branch":"SEDE","zip":"10121","city":"TORINO","address":"VIA CERNAIA, 7","support_codes":15},
{"id":3049,"swift_code":"BRDGIT33XXX","bank_code":3049,"bank":"BANCA SELLA SUD ARDITI GALATI","branch_code":0,"address":"VIALE MARCONI 45"},
{"id":3051,"swift_code":"BARCITMMBKO","bank_code":3051,"bank":"BARCLAYS BANK IRELAND-MILAN BRANCH","branch_code":0,"branch":"SEDE","zip":"20135","city":"MILANO","address":"VIA ARCONATI 1","support_codes":15},
{"id":3053,"swift_code":"BPCVIT2SXXX","bank_code":3053,"bank":"CREDITO VALTELLINESE","branch_code":0,"branch":"LINEA CARTAPERTA","zip":"23100","city":"SONDRIO","address":"VIA DELLE PERGOLE, 4","support_codes":15},
{"id":3054,"swift_code":"UCBUITT1XXX","bank_code":3054,"bank":"BNP PARIBAS PERSONAL FINANCE SPA","branch_code":0,"branch":"SEDE","zip":"20124","city":"MILANO","address":"VIA G. FARA, 39"},
{"id":3055,"swift_code":"BYLAGB22XXX","bank_code":3055,"bank":"BAYERISCHE LANDESBANK","branch_code":0,"branch":"SEDE","zip":"20123","city":"MILANO","address":"VIA CORDUSIO, 2","support_codes":1},
{"id":3057,"swift_code":"MELYITM1XXX","bank_code":3057,"bank":"MERRILL LYNCH INTERNATIONAL BANKLTD MILAN BRANCH","branch_code":0,"branch":"SEDE","zip":"20121","city":"MILANO","address":"VIA MANZONI, 5"},
{"id":3058,"swift_code":"MICSITM1XXX","bank_code":3058,"bank":"CHE BANCA! S.P.A.","branch_code":0,"branch":"DISTRETTO PIEMONTE E VAL D'AOSTA","zip":"10122","city":"TORINO","address":"VIA SAN FRANCESCO D'ASSISI, 11","support_codes":15},
{"id":3059,"swift_code":"BCITITMMXXX","bank_code":3059,"bank":"BANCA DI CREDITO SARDO S.P.A.","branch_code":0,"branch":"DCO CPF MERC NORD OVEST","zip":"10122","city":"TORINO","address":"VIA SANTA MARIA 8","support_codes":15},
{"id":3061,"swift_code":"CITTITMMXXX","bank_code":3061,"bank":"CITIBANK INTERNATIONAL PLC","branch_code":0,"branch":"SEDE","zip":"20121","city":"MILANO","address":"FORO BONAPARTE, 16"},
{"id":3062,"swift_code":"MEDBITMMXXX","bank_code":3062,"bank":"BANCA MEDIOLANUM S.P.A.","branch_code":0,"branch":"SUCCURSALE DI MILANO","zip":"20121","city":"MILANO","address":"VIA SAN PAOLO, 1","support_codes":15},
{"id":3064,"swift_code":"BCALIT22XXX","bank_code":3064,"bank":"BANCA SELLA SPA","branch_code":0,"branch":"SEDE CENTRALE","zip":"38122","city":"TRENTO","address":"VIA OSS MAZZURANA 63","support_codes":7},
{"id":3067,"swift_code":"BLOPIT22XXX","bank_code":3067,"bank":"UBI BANCA SPA","branch_code":0,"branch":"SEDE DI ROMA","zip":"00192","city":"ROMA","address":"VIA POMPEO MAGNO, 23\/A","support_codes":15},
{"id":3069,"swift_code":"BCITITMMXXX","bank_code":3069,"bank":"INTESA SANPAOLO SPA","branch_code":0,"branch":"TORINO - PIAZZA SAN CARLO","zip":"10121","city":"TORINO","address":"PIAZZA SAN CARLO, 156","support_codes":15},
{"id":3073,"swift_code":"BHBEIT22XXX","bank_code":3073,"bank":"BHW BAUSPARKASSE A.G.","branch_code":0,"branch":"SEDE","zip":"39100","city":"BOLZANO-BOZEN","address":"VIA MASO DELLA PIEVE 60 A"},
{"id":3074,"swift_code":"FRANITM1XXX","bank_code":3074,"bank":"FRANFINANCE S.A. SUCCURSALE IN ITALIA","branch_code":0},
{"id":3075,"swift_code":"BGENIT2TXXX","bank_code":3075,"bank":"BANCA GENERALI S.P.A.","branch_code":0,"branch":"SUCCURSALE DI TORINO  (511)","zip":"10123","city":"TORINO","address":"PIAZZA C.L.N., 255 (I PIANO)","support_codes":15},
{"id":3078,"swift_code":"BAIBIT22XXX","bank_code":3078,"bank":"CREDITO VALTELLINESE","branch_code":0,"branch":"LINEA CARTAPERTA","zip":"23100","city":"SONDRIO","address":"VIA DELLE PERGOLE, 4"},
{"id":3081,"swift_code":"HYVEITMMXXX","bank_code":3081,"bank":"BAYERISCHE HYPO - UND VEREINSBANK AG","branch_code":0,"branch":"UBM DIREZIONE CENTRALE","zip":"20122","city":"MILANO","address":"VIA DURINI, 9"},
{"id":3083,"swift_code":"BLPIIT21XXX","bank_code":3083,"bank":"IW BANK S.P.A.","branch_code":0,"branch":"FILIALE DI TORINO","zip":"10128","city":"TORINO","address":"CORSO RE UMBERTO, 47","support_codes":15},
{"id":3084,"swift_code":"BCEPITMMXXX","bank_code":3084,"bank":"BANCA CESARE PONTI","branch_code":0,"branch":"SEDE DI GENOVA","zip":"16121","city":"GENOVA","address":"PIAZZA DANTE 38 R","support_codes":15},
{"id":3085,"swift_code":"CFCCITM1XXX","bank_code":3085,"bank":"CATERPILLAR FINANCIAL CORPORATION F. S. A. E. F. DE C","branch_code":0,"branch":"SEDE","zip":"20122","city":"MILANO","address":"VIA CONSERVATORIO, 22"},
{"id":3087,"swift_code":"FNATITRRXXX","bank_code":3087,"bank":"BANCA FINNAT EURAMERICA S.P.A.","branch_code":0,"branch":"FILIALE DI MILANO","zip":"20123","city":"MILANO","address":"VIA MERAVIGLI, 3","support_codes":15},
{"id":3089,"swift_code":"CRESITMMXXX","bank_code":3089,"bank":"CREDIT SUISSE (ITALY) S.P.A.","branch_code":0,"branch":"FILIALE DI MILANO 2","zip":"20121","city":"MILANO","address":"VIA SANTA MARGHERITA, 3","support_codes":7},
{"id":3093,"swift_code":"BKCHITMMXXX","bank_code":3093,"bank":"BANK OF CHINA","branch_code":0,"branch":"SEDE","zip":"20121","city":"MILANO","address":"VIA SANTA MARGHERITA, 14-16","support_codes":1},
{"id":3095,"swift_code":"COBAITMMXXX","bank_code":3095,"bank":"COMMERZBANK A.G.","branch_code":0,"branch":"SEDE DI MILANO","zip":"20123","city":"MILANO","address":"VIA CORDUSIO, 2","support_codes":15},
{"id":3097,"swift_code":"AARBITR1XXX","bank_code":3097,"bank":"AAREAL BANK AG","branch_code":0,"branch":"AAREAL BANK AG FILIALE ITALIA","zip":"00198","city":"ROMA","address":"VIA SAVERIO MERCADANTE 12 14","support_codes":15},
{"id":3099,"swift_code":"FIEOIT21XXX","bank_code":3099,"bank":"NEOS BANCA S.P.A.","branch_code":0,"branch":"SUCCURSALE DI TORINO","zip":"10100","city":"TORINO","address":"VIA DELL'ARSENALE, 37"},
{"id":3101,"swift_code":"PSABITM1XXX","bank_code":3101,"bank":"BANQUE PSA FINANCE","branch_code":0},
{"id":3102,"swift_code":"ALETITMMXXX","bank_code":3102,"bank":"BANCA ALETTI & C. BANCA DI INVESTIMENTO MOBILIARE S.P.A.","branch_code":0,"branch":"FILIALE PRIVATE DI TORINO","zip":"10121","city":"TORINO","address":"PIAZZA S. CARLO, 196","support_codes":15},
{"id":3103,"swift_code":"RECNITR1XXX","bank_code":3103,"bank":"RENAULT CREDIT INTERNATIONAL S.A.","branch_code":0},
{"id":3104,"swift_code":"DEUTITMMXXX","bank_code":3104,"bank":"DEUTSCHE BANK SPA","branch_code":0,"branch":"SPORTELLO DI TORINO","zip":"10121","city":"TORINO","address":"VIA VIOTTI, 4D","support_codes":15},
{"id":3105,"swift_code":"VOWAITMMXXX","bank_code":3105,"bank":"VOLKSWAGEN BANK GMBH","branch_code":0,"branch":"DIREZIONE ITALIA","zip":"20149","city":"MILANO","address":"VIA PETITTI, 15","support_codes":15},
{"id":3110,"swift_code":"FARBIT22XXX","bank_code":3110,"bank":"FARBANCA S.P.A.","branch_code":0,"branch":"FILIALE SEDE","zip":"40126","city":"BOLOGNA","address":"VIA IRNERIO, 43 B","support_codes":15},
{"id":3111,"swift_code":"BLOPIT22XXX","bank_code":3111,"bank":"UNIONE DI BANCHE ITALIANE S.P.A.","branch_code":0,"branch":"FIL.TORINO C.SO VITTORIO EMANUELE II","zip":"10128","city":"TORINO","address":"CORSO VITTORIO EMANUELE II 107","support_codes":15},
{"id":3115,"swift_code":"FIDMIT3FXXX","bank_code":3115,"bank":"FINDOMESTIC BANCA SPA","branch_code":0,"branch":"CENTRO CLIENTI TORINO","zip":"10139","city":"TORINO","address":"C.SO TRAPANI, 16","support_codes":15},
{"id":3119,"swift_code":"CECRIT2CXXX","bank_code":3119,"bank":"CREDIT AGRICOLE","branch_code":0,"branch":"DIREZIONE GENERALE UNIBANCA SPA","zip":"47023","city":"CESENA","address":"CORSO GARIBALDI, 18"},
{"id":3123,"swift_code":"ICRAITRRTFD","bank_code":3123,"bank":"AGRILEASING BANCA PER IL LEASING DELLE B.C.C. - C.R.A. S","branch_code":0,"branch":"SEDE DI TORINO","zip":"10128","city":"TORINO","address":"CORSO RE UMBERTO, 64","support_codes":15},
{"id":3124,"swift_code":"BAFUITRRXXX","bank_code":3124,"bank":"BANCA DEL FUCINO","branch_code":0,"branch":"BANCA DEL FUCINO PRIVATE BANKING MILANO","zip":"20121","city":"MILANO","address":"VIA MONTE DI PIETA' 24","support_codes":15},
{"id":3126,"swift_code":"BLEOITMXXXX","bank_code":3126,"bank":"BANCA LEONARDO S.P.A.","branch_code":0,"branch":"SUCCURSALE DI TORINO","zip":"10121","city":"TORINO","address":"VIA PAPACINO 1","support_codes":15},
{"id":3127,"swift_code":"BPMOIT22XXX","bank_code":3127,"bank":"BPER BANCA SPA","branch_code":0,"branch":"TORINO FIL. 313 - CORSO BRUNELLESCHI","zip":"10141","city":"TORINO","address":"CORSO FILIPPO BRUNELLESCHI, 18","support_codes":15},
{"id":3131,"swift_code":"UNCRITMMXXX","bank_code":3131,"bank":"UNICREDIT BANCA MOBILIARE S.P.A.","branch_code":0,"branch":"DIREZIONE E SEDE SOCIALE","zip":"20121","city":"MILANO","address":"VIA TOMMASO GROSSI, 10","support_codes":15},
{"id":3134,"swift_code":"ALPEIT21XXX","bank_code":3134,"bank":"ALPENBANK A.G.","branch_code":0,"branch":"FILIALE DI BOLZANO","zip":"39100","city":"BOLZANO-BOZEN","address":"VIA DELLA RENA (GREIF CENTER)","support_codes":15},
{"id":3135,"swift_code":"UNCRITMMXXX","bank_code":3135,"bank":"UNICREDITO SPA","branch_code":0,"branch":"UPA - PRESIDIO BONIFICI ITALIA","zip":"10126","city":"TORINO","address":"VIA NIZZA 150","support_codes":15},
{"id":3136,"swift_code":"BPPUIT31XXX","bank_code":3136,"bank":"BANCA POPOLARE PUGLIESE","branch_code":0,"branch":"SEDE","zip":"82100","city":"BENEVENTO","address":"C.DA ROSETO \"SNC\"","support_codes":1},
{"id":3138,"swift_code":"BRTOITTTXXX","bank_code":3138,"bank":"BANCA REALE S.P.A.","branch_code":0,"branch":"SEDE TORINO VITTORIO EMANUELE","zip":"10128","city":"TORINO","address":"CORSO VITTORIO EMANUELE, 101","support_codes":15},
{"id":3139,"swift_code":"SVIUITRRXXX","bank_code":3139,"bank":"BANCA PER LO SVILUPPO DELLA COOPERAZIONE DI CREDITO S.P.A.","branch_code":0,"branch":"MILANO","zip":"20132","city":"MILANO","address":"VIA CARLO ESTERLE 11                                                            MILANO","support_codes":15},
{"id":3140,"swift_code":"PASCITMMXXX","bank_code":3140,"bank":"BANCA MONTE DEI PASCHI DI SIENA SPA","branch_code":0,"branch":"FILIALE DI TORINO","zip":"10122","city":"TORINO","address":"PIAZZA STATUTO 4","support_codes":15},
{"id":3141,"swift_code":"BPAAIT2BXXX","bank_code":3141,"bank":"BANCA POPOLARE DELLALTO ADIGE SPA","branch_code":0,"branch":"FIL. DI TREVISO - V.LE BRIGATA TREVISO 1","zip":"31100","city":"TREVISO","address":"V.LE BRIGATA TREVISO, 1","support_codes":15},
{"id":3145,"swift_code":"BTITSMS1XXX","bank_code":3145,"bank":"BANCA IMPRESA DI SAN MARINO S.P.A.","branch_code":0,"branch":"DIREZIONE","zip":"47891","city":"REPUBBLICA DI SAN MARINO","address":"VIA ALFONSO GIANGI, 16","support_codes":15},
{"id":3149,"swift_code":"BCITITMMXXX","bank_code":3149,"bank":"INTESA SANPAOLO SPA","branch_code":0,"branch":"SEDE","zip":"40126","city":"BOLOGNA","address":"VIA CASTIGLIONE 12-A","support_codes":15},
{"id":3150,"swift_code":"DEMUITM1XXX","bank_code":3150,"bank":"DEUTSCHE BANK MUTUI S.P.A.","branch_code":0,"branch":"SEDE","zip":"20122","city":"MILANO","address":"VIA SANTA SOFIA, 10"},
{"id":3151,"swift_code":"HYPTIT2BXXX","bank_code":3151,"bank":"HYPO TIROL BANK AG - SUCCURSALE ITALIA","branch_code":0,"branch":"HYPO TIROL BANK ITALIA SPA - FILIALE","zip":"39100","city":"BOLZANO-BOZEN","address":"PIAZZA WALTHER, 2","support_codes":15},
{"id":3158,"swift_code":"BSISITMMXXX","bank_code":3158,"bank":"BANCA SISTEMA S.P.A.","branch_code":0,"branch":"SEDE","zip":"20122","city":"MILANO","address":"CORSO MONFORTE, 20","support_codes":15},
{"id":3159,"swift_code":"INPIITM1XXX","bank_code":3159,"bank":"BANCA CONSULIA SPA","branch_code":0,"branch":"AGENZIA DI TORINO","zip":"10128","city":"TORINO","address":"CORSO GALILEO FERRARIS, 64","support_codes":15},
{"id":3162,"swift_code":"MSITITMXXXX","bank_code":3162,"bank":"MORGAN STANLEY DEAN WITTER BANK","branch_code":0,"branch":"SEDE","zip":"20121","city":"MILANO","address":"CORSO VENEZIA, 16"},
{"id":3163,"swift_code":"BCITITMMXXX","bank_code":3163,"bank":"STATE STREET BANK GMBH - SUCCURSALE ITALIA","branch_code":0,"branch":"GESTIONE SOPRAVVENIENZE","zip":"10126","city":"TORINO","address":"VIA NIZZA, 280","support_codes":15},
{"id":3165,"swift_code":"BLPIIT21XXX","bank_code":3165,"bank":"UBI BANCA PRIVAT INVESTMENT","branch_code":0,"branch":"IWBANK SPA","zip":"20134","city":"MILANO","address":"VIA CAVRIANA 20","support_codes":15},
{"id":3169,"swift_code":"INGBITD1XXX","bank_code":3169,"bank":"ING BANK N.V.","branch_code":0,"branch":"FLIALE DI TORINO","zip":"10121","city":"TORINO","address":"VIA VENTI SETTEMBRE, 58E","support_codes":7},
{"id":3170,"swift_code":"FFUBITM1XXX","bank_code":3170,"bank":"FINANZA & FUTURO BANCA S.P.A.","branch_code":0,"branch":"SEDE","zip":"20124","city":"MILANO","address":"VIA M. GIOIA, 8"},
{"id":3171,"swift_code":"BASMSMSMXXX","bank_code":3171,"bank":"BANCA AGRICOLA COMMERCIALE ISTITUTO BANCARIO SAMMARINESE SPA","branch_code":0,"support_codes":15},
{"id":3175,"swift_code":"WLBEITM2XXX","bank_code":3175,"bank":"PORTIGON AG","branch_code":0,"branch":"FILIALE DI MILANO","zip":"20145","city":"MILANO","address":"VIA CANOCA 36-38-40"},
{"id":3177,"swift_code":"BPMOIT22XXX","bank_code":3177,"bank":"BPER BANCA SPA","branch_code":0,"branch":"SEDE DI TORINO","zip":"10123","city":"TORINO","address":"CORSO VITTORIO EMANUELE II N. 50","support_codes":15},
{"id":3178,"swift_code":"CRRNSMSMXXX","bank_code":3178,"bank":"BANCA CIS S.P.A.","branch_code":0,"support_codes":15},
{"id":3181,"swift_code":"BNPAITMMXXX","bank_code":3181,"bank":"BNP PARIBAS SUCCURSALE ITALIA","branch_code":0,"branch":"SEDE","zip":"20121","city":"MILANO","address":"P.ZZA SAN FEDELE, 2","support_codes":1},
{"id":3183,"swift_code":"ESPEITMMXXX","bank_code":3183,"bank":"MEDIOBANCA BANCA DI CREDITO FINANZIARIO SPA","branch_code":0,"branch":"SEDE DI TORINO","zip":"10128","city":"TORINO","address":"CORSO VITTORIO EMANUELE II, 97","support_codes":15},
{"id":3185,"swift_code":"IFIGIT31XXX","bank_code":3185,"bank":"BANCA IFIGEST S.P.A.","branch_code":0,"branch":"FILIALE DI TORINO","zip":"10123","city":"TORINO","address":"PIAZZA SAN CARLO, 183","support_codes":15},
{"id":3186,"swift_code":"BLOPIT22XXX","bank_code":3186,"bank":"BANCA 24-7 S.P.A.","branch_code":0,"branch":"SEDE DI BERGAMO","zip":"24121","city":"BERGAMO","address":"VIA STOPPANI, 15","support_codes":15},
{"id":3189,"swift_code":"NATXITMMXXX","bank_code":3189,"bank":"NATIXIS S.A. - SUCCURSALE DI MILANO","branch_code":0,"branch":"NATIXIS S.A. - SUCCURSALE DI MILANO","zip":"20122","city":"MILANO","address":"VIA BORGOGNA, 8","support_codes":1},
{"id":3191,"swift_code":"FICUITTTXXX","bank_code":3191,"bank":"SANTANDER CONSUMER BANK SPA","branch_code":0,"branch":"SEDE","zip":"10126","city":"TORINO","address":"VIA NIZZA, 262","support_codes":15},
{"id":3194,"swift_code":"BDBDIT22XXX","bank_code":3194,"bank":"BANCO DI DESIO E DELLA BRIANZA S.P.A.","branch_code":0,"support_codes":15},
{"id":3198,"swift_code":"UNCRITMMXXX","bank_code":3198,"bank":"UNICREDIT FAMILY FINANCING SPA","branch_code":0,"branch":"AGENZIA 1 ABBEY NATIONAL BANK","zip":"10121","city":"TORINO","address":"VIA SAN TOMMASO, 18","support_codes":15},
{"id":3204,"swift_code":"BAPPIT22XXX","bank_code":3204,"bank":"BANCO BPM SPA","branch_code":0,"branch":"AGENZIA DI GENOVA","zip":"16121","city":"GENOVA","address":"VIA BRIGATA LIGURIA, 122","support_codes":15},
{"id":3205,"swift_code":"IFISIT2VXXX","bank_code":3205,"bank":"BANCA IFIS S.P.A.","branch_code":0,"branch":"SUCCURSALE TORINO","zip":"10142","city":"TORINO","address":"CORSO FRANCIA 325","support_codes":15},
{"id":3210,"swift_code":"MPLFIT33XXX","bank_code":3210,"bank":"BANCA MPS LEASING & FACTORING","branch_code":0,"branch":"FILIALE DI MILANO","zip":"20124","city":"MILANO","address":"VIA IPPOLITO ROSELLINI 20","support_codes":15},
{"id":3211,"swift_code":"SENVITT1XXX","bank_code":3211,"bank":"BANCA PATRIMONI SELLA & C SPA","branch_code":0,"branch":"TORINO 1","zip":"10123","city":"TORINO","address":"PIAZZA C.L.N. 255","support_codes":15},
{"id":3214,"swift_code":"ELIOITM1XXX","bank_code":3214,"bank":"FINECOBANK SPA","branch_code":0,"branch":"FILIALE DI VIA PIRELLI","zip":"20124","city":"MILANO","address":"VIA PIRELLI, 32"},
{"id":3217,"swift_code":"EHYPITM1XXX","bank_code":3217,"bank":"HYPOTHEKENBANK FRANKFURT AG FILIALE DI MILANO","branch_code":0,"branch":"SEDE","zip":"20122","city":"MILANO","address":"CORSO DI PORTA ROMANA, 68"},
{"id":3218,"swift_code":"UNCRITMMXXX","bank_code":3218,"bank":"UNICREDIT FAMILY FINANCING","branch_code":0,"branch":"SUCC. DI TORINO","zip":"10139","city":"TORINO","address":"CORSO FRANCIA, 203","support_codes":15},
{"id":3219,"swift_code":"PASCITMMXXX","bank_code":3219,"bank":"MPS GESTIONE CREDITI BANCA S.P.A.","branch_code":0,"branch":"SEDE","zip":"53100","city":"SIENA","address":"VIA SPRUGNOLI, 12","support_codes":15},
{"id":3221,"swift_code":"BKRAITMMXXX","bank_code":3221,"bank":"BANCA BNL INVESTIMENTI S.P.A.","branch_code":0,"branch":"BANCA BNL INVESTIMENTI SPA SEDE","zip":"20124","city":"MILANO","address":"VIA G. LAZZARONI, 3","support_codes":15},
{"id":3223,"swift_code":"UNCRITMMXXX","bank_code":3223,"bank":"UNICREDIT PRIVATE BANKING S.P.A.","branch_code":0,"branch":"TORINO ARSENALE","zip":"10100","city":"TORINO","address":"VIA ARSENALE, 21","support_codes":15},
{"id":3225,"swift_code":"ICSMSMSMXXX","bank_code":3225,"bank":"BANCA CENTRALE DELLA REPUBBLICA DI SAN MARINOSASM","branch_code":0,"branch":"TESORERIA ED ESATTORIA","zip":"47890","city":"REPUBBLICA DI SAN MARINO","address":"VIA GIOVAN BATTISTA BELLUZZI N. 3","support_codes":7},
{"id":3226,"swift_code":"UNCRITMMXXX","bank_code":3226,"bank":"UNICREDIT CORPORATE BANKING S.P.A.","branch_code":0,"branch":"TORINO CENTRO","zip":"10121","city":"TORINO","address":"VIA ARSENALE, 19","support_codes":15},
{"id":3229,"swift_code":"CFERIT2FXXX","bank_code":3229,"bank":"FERRARA SPA","branch_code":0,"branch":"SEDE DI MODENA","zip":"41100","city":"MODENA","address":"VIA RAINUSSO, 46 48 50"},
{"id":3231,"swift_code":"DELZITR1XXX","bank_code":3231,"bank":"BANCO DESIO LAZIO S.P.A.","branch_code":0,"branch":"FILALE DI ROMA PO","zip":"00198","city":"ROMA","address":"VIA PO 6-8"},
{"id":3235,"swift_code":"SCCDIT31XXX","bank_code":3235,"bank":"BANCA DI SCONTO E CONTI CORRENTIDI SANTA MARIA CAPUA VE","branch_code":0,"branch":"SANTA MARIA CAPUA VETERE PIAZZA MAZZINI,","zip":"81055","city":"SANTA MARIA CAPUA VETERE","address":"PIAZZA MAZZINI, 52\/53\/54","support_codes":15},
{"id":3239,"swift_code":"BCITITM3XXX","bank_code":3239,"bank":"INTESA SANPAOLO PRIVATE BANKING S.P.A.","branch_code":0,"branch":"GESTIONE SOPRAVVENIENZE","zip":"10126","city":"TORINO","address":"VIA NIZZA, 280","support_codes":15},
{"id":3240,"swift_code":"BCITITMMXXX","bank_code":3240,"bank":"INTESA SANPAOLO SPA","branch_code":0,"branch":"DCO PFI CENTRO PUBLIC FINANCE NORD OVEST","zip":"10122","city":"TORINO","address":"VIA SANTA MARIA 8","support_codes":15},
{"id":3242,"swift_code":"BLUCIT31XXX","bank_code":3242,"bank":"BANCO DI LUCCA E DEL TIRRENO SPA","branch_code":0,"branch":"FIRENZE","zip":"50121","city":"FIRENZE","address":"VIALE ANTONIO GRAMSCI 17","support_codes":15},
{"id":3244,"swift_code":"BLOPIT22XXX","bank_code":3244,"bank":"UBI BANCA SPA","branch_code":0,"branch":"FILIALE DI SONDRIO","zip":"23100","city":"SONDRIO","address":"VIA TRENTO 50","support_codes":15},
{"id":3245,"swift_code":"BCVAIT2VXXX","bank_code":3245,"bank":"BANCA VALSABBINA","branch_code":0,"branch":"FILIALE DI VERONA","zip":"37135","city":"VERONA","address":"VIALE DEL LAVORO, 23-25","support_codes":15},
{"id":3249,"swift_code":"CABOITMHXXX","bank_code":3249,"bank":"BANCA IMI SPA","branch_code":0,"branch":"GESTIONE SOPRAVVENIENZE","zip":"10126","city":"TORINO","address":"VIA NIZZA, 280"},
{"id":3250,"swift_code":"EUBAITM1XXX","bank_code":3250,"bank":"BANCA EUROMOBILIARE - MILANO","branch_code":0,"branch":"TORINO","zip":"10128","city":"TORINO","address":"CORSO VITTORIO EMANUELE II 85","support_codes":15},
{"id":3251,"swift_code":"UMRCIT21XXX","bank_code":3251,"bank":"UNIPOL MERCHANT S.P.A.","branch_code":0,"branch":"DIREZIONE GENERALE","zip":"40128","city":"BOLOGNA","address":"PIAZZA DELLA COSTITUZIONE 2-2"},
{"id":3253,"swift_code":"BLOPIT22XXX","bank_code":3253,"bank":"UBI BANCA SPA","branch_code":0,"branch":"FIRENZE VIA DEI BANCHI, 33\/R, 37\/R, 41\/R","zip":"50123","city":"FIRENZE","address":"VIA DEI BANCHI, 33\/R, 37\/R, 41\/R, 43\/R - VIA DE' RONDINELLI,7\/R","support_codes":15},
{"id":3259,"swift_code":"CIVIIT2CXXX","bank_code":3259,"bank":"BANCA DI CIVIDALE","branch_code":0,"branch":"SERV.INCASSI E PAGAMENTI-REP.PORTAFOGLIO","zip":"20134","city":"MILANO","address":"VIA FELTRE, 75","support_codes":15},
{"id":3262,"swift_code":"ASTTSMSMXXX","bank_code":3262,"bank":"ASSET BANCA S.P.A.SASM","branch_code":0,"branch":"FILIALE SEDE CENTRALE","zip":"47891","city":"REPUBBLICA DI SAN MARINO","address":"VIA III SETTEMBRE, 210"},
{"id":3263,"swift_code":"IBLBITRRXXX","bank_code":3263,"bank":"IBL BANCA ISTITUTO BANCARIO DEL LAVORO S.P.A.","branch_code":0,"branch":"FILIALE DI TORINO","zip":"10121","city":"TORINO","address":"VIA PRINCIPE AMADEO, 12","support_codes":15},
{"id":3265,"swift_code":"PROSITNNXXX","bank_code":3265,"bank":"BANCA PROMOS S.P.A.","branch_code":0,"branch":"SEDE","zip":"80123","city":"NAPOLI","address":"VIA ALESSANDRO MANZONI 113","support_codes":15},
{"id":3266,"swift_code":"BFINITMMXXX","bank_code":3266,"bank":"BANCA FININT S.P.A.","branch_code":0,"branch":"SEDE","zip":"20121","city":"MILANO","address":"CORSO VENEZIA, 54","support_codes":15},
{"id":3267,"swift_code":"GAEOITM1XXX","bank_code":3267,"bank":"BANCA GALILEO S.P.A.","branch_code":0,"branch":"SEDE DI MILANO","zip":"20121","city":"MILANO","address":"CORSO VENEZIA, 40","support_codes":15},
{"id":3268,"swift_code":"SELBIT2BXXX","bank_code":3268,"bank":"BANCA SELLA SPA","branch_code":0,"branch":"TORINO SEDE - PIAZZA CASTELLO","zip":"10122","city":"TORINO","address":"PIAZZA CASTELLO 127","support_codes":15},
{"id":3269,"swift_code":"BTERITM1XXX","bank_code":3269,"bank":"BANCA DELLA NUOVA TERRA SPA","branch_code":0,"branch":"SEDE","zip":"20151","city":"MILANO","address":"VIA ANTONIO CECHOV, 50\/2","support_codes":1},
{"id":3271,"swift_code":"ALLFITMMXXX","bank_code":3271,"bank":"ALLFUNDS BANK S.A.","branch_code":0,"branch":"SEDE","zip":"20121","city":"MILANO","address":"VIA SANTA MARGHERITA, 7"},
{"id":3273,"swift_code":"CRDRIT2FXXX","bank_code":3273,"bank":"SOLUTION BANK S.P.A.","branch_code":0,"branch":"BOLOGNA VIALE SILVANI","zip":"40122","city":"BOLOGNA","address":"VIALE SILVANI ANGOLO VIA CALORI","support_codes":15},
{"id":3275,"swift_code":"BPALITMLXXX","bank_code":3275,"bank":"RETI BANCARIE SPA","branch_code":0,"branch":"SEDE","zip":"00187","city":"ROMA","address":"VIA BONCOPAGNI, 71\/H"},
{"id":3278,"swift_code":"ITTPIT2MXXX","bank_code":3278,"bank":"ILLIMITY BANK","branch_code":0,"branch":"SEDE DI MODENA","zip":"41121","city":"MODENA","address":"VIALE VIRGINIA REITER, 34","support_codes":15},
{"id":3279,"swift_code":"SAPVITMMXXX","bank_code":3279,"bank":"SANTANDER PRIVATE BANKING S.P.A.","branch_code":0,"branch":"SEDE","zip":"20121","city":"MILANO","address":"VIA SENATO, 28"},
{"id":3281,"swift_code":"GEECITM1XXX","bank_code":3281,"bank":"GENERAL ELECTRIC CAPITAL BANK S.A. SUCCURSALE MILANO","branch_code":0,"branch":"SEDE DI MILANO","zip":"20127","city":"MILANO","address":"VIA VALTORTA, 48"},
{"id":3283,"swift_code":"CRADITR1XXX","bank_code":3283,"bank":"SEDICIBANCA S.P.A.","branch_code":0},
{"id":3285,"swift_code":"MACQITM1XXX","bank_code":3285,"bank":"MACQUARIE BANK LIMITED","branch_code":0},
{"id":3287,"swift_code":"BSDISMSDXXX","bank_code":3287,"bank":"BANCA SAMMARINESE DI INVESTIMEN TOSASM","branch_code":0,"branch":"DIREZIONE GENERALE","zip":"47891","city":"REPUBBLICA DI SAN MARINO","address":"VIA MONALDO DA FALCIANO, 3","support_codes":15},
{"id":3296,"swift_code":"FIBKITMMXXX","bank_code":3296,"bank":"FIDEURAM - INTESA SANPAOLO PRIVATE BANKING SPA","branch_code":0,"branch":"SEDE DI TORINO","zip":"10129","city":"TORINO","address":"CORSO GALILEO FERRARIS, 36","support_codes":15},
{"id":3298,"swift_code":"DEUTCZPXXXX","bank_code":3298,"bank":"DEUTSCHE BANK AG","branch_code":0,"branch":"DB AG FILIALE DI MILANO","zip":"20121","city":"MILANO","address":"VIA SANTA MARGHERITA, 4","support_codes":15},
{"id":3300,"swift_code":"BPCVIT2SXXX","bank_code":3300,"bank":"CREDITO VALTELLINESE","branch_code":0,"branch":"LINEA CARTAPERTA","zip":"23100","city":"SONDRIO","address":"VIA DELLE PERGOLE, 4","support_codes":15},
{"id":3301,"swift_code":"IMCOIT2AXXX","bank_code":3301,"bank":"BANCA DI IMOLA SPA","branch_code":0,"branch":"SEDE CENTRALE","zip":"20123","city":"MILANO","address":"VIA GIORGIO GIULINI 3","support_codes":15},
{"id":3306,"swift_code":"PRRDIT21XXX","bank_code":3306,"bank":"PRADER BANK SPA","branch_code":0,"branch":"CENTRO CLIENTI TRENTO","zip":"38100","city":"TRENTO","address":"VIA BELENZANI, 25","support_codes":15},
{"id":3307,"swift_code":"TWOSITMMXXX","bank_code":3307,"bank":"SOCIETE' GENERALE SECURITIES SERVICE","branch_code":0,"branch":"SEDE LEGALE","zip":"10126","city":"TORINO","address":"VIA ALASSIO, 11-C","support_codes":7},
{"id":3309,"swift_code":"BCITITMMXXX","bank_code":3309,"bank":"INTESA SANPAOLO SPA","branch_code":0,"branch":"CENTRO INFRASTRUTTUREDI TORINO","zip":"10122","city":"TORINO","address":"VIA SANTA MARIA, 8","support_codes":15},
{"id":3310,"swift_code":"CRRNIT2RXXX","bank_code":3310,"bank":"BANCA CARIM SPA","branch_code":0,"branch":"FILIALE SEDE","zip":"47921","city":"RIMINI","address":"VIA DANTE ALIGHIERI, 25"},
{"id":3311,"swift_code":"SELBIT22XXX","bank_code":3311,"bank":"BANCA SELLA HOLDING S.P.A.","branch_code":0,"branch":"SEDE CENTRALE","zip":"13900","city":"BIELLA","address":"PIAZZA GAUDENZIO SELLA 1","support_codes":15},
{"id":3317,"swift_code":"PRACIT31XXX","bank_code":3317,"bank":"BANCA MACERATA S.P.A.","branch_code":0,"branch":"UFFICIO MAGAZZINO","zip":"44100","city":"FERRARA","address":"VIA DEL COMMERCIO, 68","support_codes":15},
{"id":3318,"swift_code":"CFERIT2FXXX","bank_code":3318,"bank":"FERRARA SPA","branch_code":0,"branch":"SEDE","zip":"47100","city":"FORLI'","address":"VIA G. MATTEOTTI, 115"},
{"id":3319,"swift_code":"IDIMITM1XXX","bank_code":3319,"bank":"IKB DEUTSCHE INDUSTRIEBANK AG MILANO","branch_code":0},
{"id":3321,"swift_code":"BILLITMMXXX","bank_code":3321,"bank":"RBC INVESTOR SERVICE BANK S.A.","branch_code":0,"branch":"SEDE","zip":"20154","city":"MILANO","address":"VIA VITTOR PISANI 26","support_codes":15},
{"id":3323,"swift_code":"FEDEIT31XXX","bank_code":3323,"bank":"GBM BANCA S.P.A.","branch_code":0,"branch":"FILIALE DI MILANO","zip":"20126","city":"MILANO","address":"VIALE MONZA 259","support_codes":15},
{"id":3327,"swift_code":"BDBDIT22XXX","bank_code":3327,"bank":"BANCO DI DESIO E DELLA BRIANZA S.P.A.","branch_code":0,"support_codes":15},
{"id":3329,"swift_code":"KSPKIT2UXXX","bank_code":3329,"bank":"CASSA DI RISPARMIO DI BOLZANO","branch_code":0,"branch":"FILIALE DI TREVISO","zip":"31100","city":"TREVISO","address":"VIALE DELLA REPUBBLICA 194"},
{"id":3330,"swift_code":"CRACIT33XXX","bank_code":3330,"bank":"BANCA INTERREGIONALE","branch_code":0,"branch":"FILIALE DI PISTOIA","zip":"51100","city":"PISTOIA","address":"VIA XX SETTEMBRE, 30","support_codes":15},
{"id":3331,"swift_code":"BPCCITM1XXX","bank_code":3331,"bank":"CENTRO LEASING BANCA S.P.A","branch_code":0,"branch":"SEDE DI FIRENZE","zip":"50129","city":"FIRENZE","address":"VIA SANTA CATERINA D'ALESSANDRIA 32-34"},
{"id":3332,"swift_code":"PASBITGGXXX","bank_code":3332,"bank":"BANCA PASSADORE & C.","branch_code":0,"branch":"FILIALE DI TORINO","zip":"10123","city":"TORINO","address":"VIA CARLO ALBERTO, 45","support_codes":15},
{"id":3336,"swift_code":"CREBIT22XXX","bank_code":3336,"bank":"BANCO BPM SPA","branch_code":0,"branch":"AGENZIA DI TORINO","zip":"10128","city":"TORINO","address":"CORSO VITTORIO EMANUELE II, 95","support_codes":15},
{"id":3338,"swift_code":"BPMOIT22XXX","bank_code":3338,"bank":"SERFINA BANCA S.P.A FUS BANCA POPOLARE DELL'EMILIA ROMA","branch_code":0,"branch":"FILIALE DI PESCARA","zip":"66100","city":"PESCARA","address":"TIBURTINA VALERIA, 56","support_codes":15},
{"id":3339,"swift_code":"INGBITMMXXX","bank_code":3339,"bank":"ING. REAL ESTATE FINANCE (ESPANA)EFC SA SUCC.MILANO","branch_code":0,"branch":"SUCCURSALE DI MILANO","zip":"20123","city":"MILANO","address":"CORSO MAGENTA, 85","support_codes":15},
{"id":3343,"swift_code":"PICTITTTXXX","bank_code":3343,"bank":"PICTET & CIE (EUROPE) S.A.","branch_code":0,"branch":"SEDE","zip":"10128","city":"TORINO","address":"C.SO VITTORIO EMANUELE II, 95","support_codes":7},
{"id":3346,"swift_code":"MHCBITMMXXX","bank_code":3346,"bank":"MIZUHO BANK LTD","branch_code":0,"branch":"SEDE","zip":"20122","city":"MILANO","address":"LARGO AUGUSTO, 7","support_codes":1},
{"id":3349,"swift_code":"CNCIIT21XXX","bank_code":3349,"bank":"CNH INDUSTRIAL FINANCIAL SERVICES S.A.","branch_code":0,"branch":"CNH INDUSTRIAL FINANCIAL SERVICES SA","zip":"10156","city":"TORINO","address":"LUNGO STURA LAZIO, 49"},
{"id":3350,"swift_code":"BCFAIT31XXX","bank_code":3350,"bank":"BANCA DI CREDITO DEI FARMACISTI S.P.A","branch_code":0},
{"id":3351,"swift_code":"IRVTITMMXXX","bank_code":3351,"bank":"THE BANK OF NEW YORK","branch_code":0,"branch":"SEDE","zip":"20123","city":"MILANO","address":"VIA G. CARDUCCI, 31","support_codes":1},
{"id":3353,"swift_code":"SUDNITN1XXX","bank_code":3353,"bank":"BANCA DEL SUD S.P.A.","branch_code":0,"branch":"SEDE","zip":"80122","city":"NAPOLI","address":"PIAZZA VITTORIA, 13","support_codes":15},
{"id":3357,"swift_code":"CRACIT33XXX","bank_code":3357,"bank":"BANCA CAMBIANO 1884 SPA","branch_code":0,"branch":"FILIALE TORINO","zip":"10138","city":"TORINO","address":"LARGO FRANCIA 113","support_codes":15},
{"id":3359,"swift_code":"BCITITMMXXX","bank_code":3359,"bank":"INTESA SANPAOLO SPA","branch_code":0,"branch":"P COMM TORINO","zip":"10121","city":"TORINO","address":"VIA MONTE DI PIETA 32","support_codes":15},
{"id":3362,"swift_code":"RABOITMMXXX","bank_code":3362,"bank":"DE LAGE LANDEN INTERNATIONAL B V","branch_code":0,"branch":"SUCCURSALE DI MILANO","zip":"20124","city":"MILANO","address":"VIALE MONTE GRAPPA, 4","support_codes":1},
{"id":3365,"swift_code":"TRVEIT2PXXX","bank_code":3365,"bank":"BANCO DELLE TRE VENEZIE","branch_code":0,"branch":"FILIALE DI VENEZIA-MESTRE","zip":"30174","city":"VENEZIA","address":"VIA MIRANESE, 91","support_codes":15},
{"id":3367,"swift_code":"SGIUIT21XXX","bank_code":3367,"bank":"BANCA SANTA GIULIA SPA","branch_code":0,"branch":"FILIALE DI BRESCIA","zip":"25134","city":"BRESCIA","address":"VIA ENZO FERRARI 4-6","support_codes":15},
{"id":3369,"swift_code":"NBILITMMXXX","bank_code":3369,"bank":"NOMURA BANK INTERNATIONAL PLC ITALIAN BANK","branch_code":0,"branch":"NBI - ITALIAN BRANCH","zip":"20121","city":"MILANO","address":"VIA DEL VECCHIO POLITECNICO 1"},
{"id":3370,"swift_code":"JPMGITMMXXX","bank_code":3370,"bank":"JP MORGAN INT. BANK LIMITED","branch_code":0,"branch":"FILIALE DI MILANO SEDE","zip":"20121","city":"MILANO","address":"VIA CATENA 4","support_codes":1},
{"id":3371,"swift_code":"PRTTIT22XXX","bank_code":3371,"bank":"AS PRIVAT BANK","branch_code":0,"branch":"AS PRIVATBANK ROMA","zip":"00192","city":"ROMA","address":"VIA VESPASIANO, 46 A\/B"},
{"id":3373,"swift_code":"KREDITMMXXX","bank_code":3373,"bank":"KBC BANK N.V. SUCCURSALE ITALIANA","branch_code":0,"branch":"SUCCURSALE ITALIANA","zip":"20124","city":"MILANO","address":"VIA LEPETIT8 10","support_codes":15},
{"id":3374,"swift_code":"ALOAIT21XXX","bank_code":3374,"bank":"ALTO ADIGE BANCA SPA","branch_code":0,"branch":"DIREZIONE GENERALE","zip":"39100","city":"BOLZANO-BOZEN","address":"VIA ESPERANTO, 1","support_codes":15},
{"id":3378,"swift_code":"SGMIITM1XXX","bank_code":3378,"bank":"SOCIETE' GENERALE MUTUI ITALIASPA","branch_code":0,"branch":"SEDE","zip":"20149","city":"MILANO","address":"VIA GUGLIELMO SILVA, 34","support_codes":15},
{"id":3380,"swift_code":"BOFAIT2XXXX","bank_code":3380,"bank":"BANK OF AMERICA MERRILL LYNCH INTERNATIONAL D.A.C.SUCCURSALE","branch_code":0,"branch":"SEDE DI MILANO","zip":"20121","city":"MILANO","address":"VIA ALESSANDRO MANZONI 5","support_codes":15},
{"id":3381,"swift_code":"SEPBITR1XXX","bank_code":3381,"bank":"BANK SEPAH","branch_code":0,"branch":"ROMA VIA BARBERINI, 50","zip":"00187","city":"ROMA","address":"VIA BARBERINI, 50"},
{"id":3385,"swift_code":"ITBBITMMXXX","bank_code":3385,"bank":"BANCA 5 S.P.A.","branch_code":0,"branch":"BANCA ITB","zip":"20152","city":"MILANO","address":"VIA GIOVANNI BENSI, 1\/1","support_codes":15},
{"id":3386,"swift_code":"PRTTIT22XXX","bank_code":3386,"bank":"JCB FINANCE","branch_code":0,"branch":"FILIALE MILANO","zip":"20124","city":"MILANO","address":"VIALE DELLA LIBERTA',16\/18"},
{"id":3387,"swift_code":"BCDMITM1XXX","bank_code":3387,"bank":"BANQUE CHAABI DU MAROC B.C.D.M.","branch_code":0,"branch":"BANQUE CHAABI DU MAROC - TORINO","zip":"10125","city":"TORINO","address":"VIA BELFIORE 38","support_codes":15},
{"id":3388,"swift_code":"STAIIT31XXX","bank_code":3388,"bank":"BANCA STABIESE","branch_code":0,"branch":"CASTELLAMMARE DI STABIA VIA PIOPPAINO N.","zip":"91014","city":"CASTELLAMMARE DI STABIA","address":"VIA PIOPPAINO N. 24","support_codes":15},
{"id":3389,"swift_code":"BSCHDEFFXXX","bank_code":3389,"bank":"BANCO SANTANDER S.A.","branch_code":0,"branch":"SEDE DI MILANO","zip":"20121","city":"MILANO","address":"VIA BOITO, 10","support_codes":15},
{"id":3393,"swift_code":"SVECIT31XXX","bank_code":3393,"bank":"BANCA AGRICOLA POPOLARE DI RAGUSA","branch_code":0,"branch":"CATANIA SEDE","zip":"95128","city":"CATANIA","address":"VIALE VENTI SETTEMBRE 54"},
{"id":3395,"swift_code":"ITTPIT2MXXX","bank_code":3395,"bank":"ILLIMITY BANK S.P.A.","branch_code":0,"branch":"FILIALE DI BOLOGNA","zip":"40131","city":"BOLOGNA","address":"VIA AURELIO SAFFI 58","support_codes":15},
{"id":3398,"swift_code":"SMSIIT21XXX","bank_code":3398,"bank":"BANCA SIMETICA SPA","branch_code":0,"branch":"BANCA SIMETICA SEDE","zip":"13900","city":"BIELLA","address":"VIA NAZARIO SAURO, 10","support_codes":1},
{"id":3399,"swift_code":"EXRRITM2XXX","bank_code":3399,"bank":"EXTRABANCA SPA ITALIAN BRANCH","branch_code":0,"branch":"SEDE DI MILANO","zip":"20124","city":"MILANO","address":"VIA PERGOLESI, 2\/A","support_codes":15},
{"id":3400,"swift_code":"PASCITMMXXX","bank_code":3400,"bank":"BANCA MONTE DEI PASCHI DI SIENA SPA \/ EX BANCA TOSCANA","branch_code":0,"branch":"FIL. DI MILANO","zip":"20100","city":"MILANO","address":"FORO BONAPARTE 12.8","support_codes":15},
{"id":3402,"swift_code":"BPMIITMMXXX","bank_code":3402,"bank":"WEBANK SPA","branch_code":0,"branch":"AGENZIA 1","zip":"20146","city":"MILANO","address":"VIA MASSAUA, 4","support_codes":15},
{"id":3403,"swift_code":"IMPAITRRXXX","bank_code":3403,"bank":"IMPREBANCA SPA","branch_code":0,"branch":"DIREZIONE GENERALE","zip":"00192","city":"ROMA","address":"VIA COLA DI RIENZO, 240","support_codes":15},
{"id":3406,"swift_code":"PHIEITR1XXX","bank_code":3406,"bank":"BANK OF THE PHILIPPINE ISLANDS(EUROPE) PLC","branch_code":0,"branch":"BANK OF THE PHILIPPINE ISLANDS (EUROPE)","zip":"20121","city":"MILANO","address":"PIAZZA DEL DUOMO, 17"},
{"id":3407,"swift_code":"COFIITM1XXX","bank_code":3407,"bank":"LA COMPAGNIE FINANCIERE EDMONDDE ROTHSCHILD BANQUES","branch_code":0,"branch":"MILANO","zip":"20121","city":"MILANO","address":"CORSO VENEZIA, 36","support_codes":15},
{"id":3411,"swift_code":"ICBKITMMXXX","bank_code":3411,"bank":"INDUSTRIAL AND COMMERCIAL BANKOF CHINA (EUROPE) S.A.","branch_code":0,"branch":"SPORTELLO INDUSTRIAL AND COMMERCIAL","zip":"20121","city":"MILANO","address":"VIA TOMMASO GROSSI, 2","support_codes":1},
{"id":3415,"swift_code":"BCMAITMMXXX","bank_code":3415,"bank":"ATTIJARIWAFA BANK EUROPE","branch_code":0,"branch":"ATTIJARIWAFA BANK EUROPE AGENZIA TORINO","zip":"10125","city":"TORINO","address":"VIA BELFIORE, 34","support_codes":7},
{"id":3417,"swift_code":"PRLEIT23XXX","bank_code":3417,"bank":"BANCA PRIVATA LEASING S.P.A.","branch_code":0,"branch":"FILIALE SEDE DI REGGIO EMILIA","zip":"42122","city":"REGGIO NELL'EMILIA","address":"VIA PANFILO CASTALDI DA FELTRE 1\/A","support_codes":15},
{"id":3421,"swift_code":"UNCRITMMXXX","bank_code":3421,"bank":"CARREFOUR BANQUE","branch_code":0,"branch":"CARREFOUR BANCA","zip":"20153","city":"MILANO","address":"VIA CALDERA, 21","support_codes":15},
{"id":3422,"swift_code":"AGIHITM1XXX","bank_code":3422,"bank":"AKF BANK","branch_code":0,"branch":"SEDE DELLA SUCCURSALE ITALIANA","zip":"20156","city":"MILANO","address":"VIA LUDOVICO DI BREME, 33"},
{"id":3423,"swift_code":"BICKITM1XXX","bank_code":3423,"bank":"BINCKBANK NV","branch_code":0,"branch":"SEDE UNICA MILANO","zip":"20134","city":"MILANO","address":"VIA VENTURA, 5","support_codes":1},
{"id":3424,"swift_code":"BAPPIT22XXX","bank_code":3424,"bank":"BANCO DI CHIAVARI E DELLA RIVIERA LIGURE","branch_code":0,"branch":"FILIALE","zip":"16145","city":"GENOVA","address":"VIA ALBARO, 11","support_codes":15},
{"id":3425,"swift_code":"AZZBITT1XXX","bank_code":3425,"bank":"BANCO DI CREDITO P. AZZOAGLIO","branch_code":0,"branch":"TORINO","zip":"10129","city":"TORINO","address":"CORSO GALILEO FERRARIS                  64","support_codes":15},
{"id":3426,"swift_code":"CEEPIT21XXX","bank_code":3426,"bank":"BANCA DI CREDITO PELORITANO S.P","branch_code":0,"branch":"FILIALE DI MESSINA","zip":"98122","city":"MESSINA","address":"VIA ORATORIO SAN FRANCESCO","support_codes":15},
{"id":3430,"swift_code":"CRLVIT21XXX","bank_code":3430,"bank":"CREDITO LOMBARDO VENETO S.P.A.","branch_code":0,"branch":"FILIALE BRESCIA SEDE","zip":"25125","city":"BRESCIA","address":"VIA ORZINUOVI, 75","support_codes":15},
{"id":3431,"swift_code":"CRGEITGGXXX","bank_code":3431,"bank":"BANCA CARIGE SPA","branch_code":0,"branch":"SEDE DI TORINO","zip":"10121","city":"TORINO","address":"CORSO MATTEOTTI, 13\/C","support_codes":15},
{"id":3432,"swift_code":"BSUIITMMXXX","bank_code":3432,"bank":"CREDIT AGRICOLE - CORPORATE AND INVESTMENT BANK","branch_code":0,"branch":"CREDIT AGRICOLE CIB SUCCURSALE DI MILANO","zip":"20121","city":"MILANO","address":"VIA BRERA, 21","support_codes":15},
{"id":3433,"swift_code":"EFGBITM1XXX","bank_code":3433,"bank":"EFG BANK (LUXEMBOURG) S.A. SUCCURSALE ITALIANA","branch_code":0,"branch":"FILIALE DI MILANO","zip":"20121","city":"MILANO","address":"VIA MONTEBELLO, 39","support_codes":7},
{"id":3434,"swift_code":"BMWBDEMUXXX","bank_code":3434,"bank":"BMW BANK GMBH","branch_code":0,"branch":"BMW BANK GMBH - SUCCURSALE ITALIANA","zip":"20097","city":"SAN DONATO MILANESE","address":"VIA DELLA UNIONE EUROPEA N.4","support_codes":15},
{"id":3435,"swift_code":"FARAITM1XXX","bank_code":3435,"bank":"BANCA FARMAFACTORING SPA","branch_code":0,"branch":"DIREZIONE GENERALE","zip":"20149","city":"MILANO","address":"VIA DOMENICHINO,5","support_codes":1},
{"id":3437,"swift_code":"BTRLITR1XXX","bank_code":3437,"bank":"BANCA TRANSILVANIA S.A.","branch_code":0,"branch":"BANCA TRANSILVANIA S.A.","zip":"00167","city":"ROMA","address":"VIA BALDO DEGLI UBALDI, 184 B","support_codes":7},
{"id":3438,"swift_code":"ISAEITMMXXX","bank_code":3438,"bank":"CACEIS BANK LUXEMBOURG","branch_code":0,"branch":"CACEIS BANK LUXEMBURG-MILAN BRANCH","zip":"20121","city":"MILANO","address":"PIAZZA CAVOUR, 2","support_codes":15},
{"id":3439,"swift_code":"SBOSITMLXXX","bank_code":3439,"bank":"STATE STREET BANK INTERNATIONAL GMBH - SUCCURSALE ITALIA","branch_code":0,"branch":"STATE STREET BANK GMBH-SUCCURSALE ITALIA","zip":"20125","city":"MILANO","address":"VIA FERRANTE APORTI, 10","support_codes":15},
{"id":3440,"swift_code":"BDBDIT22XXX","bank_code":3440,"bank":"BANCO DI DESIO E DELLA BRIANZA","branch_code":0,"branch":"FILIALE DI TORINO MATTEOTTI","zip":"10121","city":"TORINO","address":"CORSO MATTEOTTI 27","support_codes":15},
{"id":3441,"swift_code":"SVTUIT21XXX","bank_code":3441,"bank":"BANCA SVILUPPO TUSCIA S.P.A.","branch_code":0,"branch":"VITERBO - BANCA SVILUPPO TUSCIA SPA","zip":"01100","city":"VITERBO","address":"VIALE FRANCESCO BARACCA, 73","support_codes":15},
{"id":3442,"swift_code":"WIDIITMMXXX","bank_code":3442,"bank":"BANCA WIDIBA SPA","branch_code":0,"branch":"DIREZIONE GENERALE","zip":"20124","city":"MILANO","address":"VIA IPPOLITO ROSELLINI 16","support_codes":15},
{"id":3443,"swift_code":"AGRIITMMXXX","bank_code":3443,"bank":"CREDIT AGRICOLE LUXEMBOURG","branch_code":0,"branch":"CAL SUCCURSALE D'ITALIA","zip":"20121","city":"MILANO","address":"PIAZZA CAVOUR, 2"},
{"id":3445,"swift_code":"FCAAIT2TXXX","bank_code":3445,"bank":"FCA BANK S.P.A.","branch_code":0,"branch":"FILIALE DI TORINO","zip":"10135","city":"TORINO","address":"CORSO AGNELLI 200","support_codes":1},
{"id":3456,"swift_code":"APULIT31XXX","bank_code":3456,"bank":"BANCAPULIA S.P.A. FUSIONE BANCA MERIDIANA","branch_code":0,"branch":"LECCE","zip":"73100","city":"LECCE"},
{"id":3465,"swift_code":"BRASITMMXXX","bank_code":3465,"bank":"BANCO DO BRASIL AG SUCCURSALE IN ITALIA","branch_code":0,"branch":"MILANO VIA DANTE,9","zip":"20123","city":"MILANO","address":"VIA DANTE,9","support_codes":7},
{"id":3475,"swift_code":"INGBITMMXXX","bank_code":3475,"bank":"ING BANK N.V.","branch_code":0,"branch":"FILIALE DI TORINO","zip":"10121","city":"TORINO","address":"VIA XX SETTEMBRE 58 E","support_codes":15},
{"id":3479,"swift_code":"PARBITMMXXX","bank_code":3479,"bank":"BNP PARIBAS SECURITIES SERVICES SUCCURSALE DI MILANO","branch_code":0,"branch":"SEDE","zip":"20123","city":"MILANO","address":"VIA ANSPERTO, 5","support_codes":15},
{"id":3482,"swift_code":"RABOITMMXXX","bank_code":3482,"bank":"RABOBANK NEDERALND - COOPERATIEVE CENTRALE RAIFFEISE","branch_code":0,"branch":"SEDE DI MILANO","zip":"20121","city":"MILANO","address":"VIA DANTE, 16","support_codes":1},
{"id":3487,"swift_code":"BOTKITMXXXX","bank_code":3487,"bank":"MUFG BANK LTD","branch_code":0,"branch":"FILIALE DI MILANO","zip":"20124","city":"MILANO","address":"VIALE DELLA LIBERAZIONE, 18","support_codes":15},
{"id":3488,"swift_code":"LOMCITMMXXX","bank_code":3488,"bank":"CASSA LOMBARDA","branch_code":0,"branch":"SEDE","zip":"20121","city":"MILANO","address":"VIA MANZONI, 14","support_codes":15},
{"id":3489,"swift_code":"MHCBITMMXXX","bank_code":3489,"bank":"MIZUHO CORPORATE BANK LTD","branch_code":0,"support_codes":1},
{"id":3492,"swift_code":"BPCVIT2SXXX","bank_code":3492,"bank":"CREDITO VALTELLINESE","branch_code":0,"support_codes":15},
{"id":3493,"swift_code":"RZSBIT2BXXX","bank_code":3493,"bank":"CASSA CENTRALE RAIFFEISEN DELL'ALTO ADIGE - RAIFFEISEN LA","branch_code":0,"branch":"BOLZANO-BOZEN VIA LAURINO, 1","zip":"39100","city":"BOLZANO-BOZEN","address":"VIA LAURINO, 1","support_codes":15},
{"id":3494,"swift_code":"CHASITMXXXX","bank_code":3494,"bank":"JPMORGAN CHASE BANK","branch_code":0,"branch":"MILANO VIA CATENA, 4","zip":"20121","city":"MILANO","address":"VIA CATENA, 4","support_codes":15},
{"id":3500,"swift_code":"BLOPIT22XXX","bank_code":3500,"bank":"UBI BANCA SPA","branch_code":0,"branch":"FIL.DI MILANO PIAZZA BORROMEO","zip":"20123","city":"MILANO","address":"PIAZZA BORROMEO, 1","support_codes":15},
{"id":3512,"swift_code":"BPCVIT2SXXX","bank_code":3512,"bank":"CREDITO VALTELLINESE","branch_code":0,"branch":"LINEA CARTAPERTA","zip":"23100","city":"SONDRIO","address":"VIA DELLE PERGOLE, 4","support_codes":15},
{"id":3530,"swift_code":"CRRNSMSMXXX","bank_code":3530,"bank":"CREDITO INDUSTRIALE SAMMARINESE - SERRAVALLE (RSM)SASM","branch_code":0,"branch":"SEDE","zip":"47031","city":"REPUBBLICA DI SAN MARINO","address":"PIAZZA BERTOLDI","support_codes":15},
{"id":3561,"swift_code":"ABCOITMMXXX","bank_code":3561,"bank":"ABC INTERNATIONAL BANK PLC MILANO","branch_code":0,"branch":"MILANO VIA AMEDEI 8","zip":"20123","city":"MILANO","address":"VIA AMEDEI 8","support_codes":7},
{"id":3563,"swift_code":"COBAITMMXXX","bank_code":3563,"bank":"COMMERZBANK AG","branch_code":0,"support_codes":15},
{"id":3566,"swift_code":"CITIITMXXXX","bank_code":3566,"bank":"CITIBANK N.A.","branch_code":0,"branch":"MILANO FORO BUONAPARTE 16","zip":"20121","city":"MILANO","address":"FORO BUONAPARTE 16","support_codes":15},
{"id":3576,"swift_code":"BBVAITMMXXX","bank_code":3576,"bank":"BANCO BILBAO VIZCAYA ARGENTARIA S.A.","branch_code":0,"branch":"FILIALE DI MILANO","zip":"20121","city":"MILANO","address":"VIA CINO DEL DUCA, 8","support_codes":1},
{"id":3589,"swift_code":"BKRAITMMXXX","bank_code":3589,"bank":"ALLIANZ BANK FINANCIAL ADVISORS","branch_code":0,"branch":"FILIALE DI TORINO","zip":"10100","city":"TORINO","address":"VIA ALFIERI, 22","support_codes":15},
{"id":3593,"swift_code":"SOGEITMMXXX","bank_code":3593,"bank":"SOCIETE' GENERALE","branch_code":0,"branch":"MILANO VIA OLONA, 2","zip":"20121","city":"MILANO","address":"VIA OLONA, 2","support_codes":15},
{"id":3595,"swift_code":"BNLIITRRXXX","bank_code":3595,"bank":"FORTIS BANK SA - NV","branch_code":0,"branch":"MILANO CORSO DI PORTA ROMANA,3","zip":"20122","city":"MILANO","address":"CORSO DI PORTA ROMANA,3","support_codes":15},
{"id":3598,"swift_code":"UBAIITRRXXX","bank_code":3598,"bank":"U.B.A.E. (ARAB ITALIAN BANK)","branch_code":0,"branch":"MILANO PIAZZA DIAZ, 7","zip":"20123","city":"MILANO","address":"PIAZZA DIAZ, 7","support_codes":15},
{"id":3599,"swift_code":"CCRTIT2TXXX","bank_code":3599,"bank":"CASSA CENTRALE BANCA - CREDITOCOOPERATIVO ITALIANO S.P.A.","branch_code":0,"branch":"SEDE","zip":"38122","city":"TRENTO","address":"VIA SEGANTINI 5","support_codes":15},
{"id":3643,"swift_code":"MICSITM2XXX","bank_code":3643,"bank":"CHE BANCA! SPA","branch_code":0,"branch":"TORINO - ALFIERI","zip":"10122","city":"TORINO","address":"VIA V. ALFIERI, 19","support_codes":15},
{"id":3646,"swift_code":"NTSBITM1XXX","bank_code":3646,"bank":"N26 BANK GMBH FILIALE ITALIANA","branch_code":0,"branch":"N26 BANK GMBH - SUCCURSALE ITALIANA","zip":"20124","city":"MILANO","address":"VIA FILIPPO SASSETTI, 32","support_codes":7},
{"id":3656,"swift_code":"GUBEIT21XXX","bank_code":3656,"bank":"GUBER BANCA SPA","branch_code":0,"branch":"SEDE","zip":"25124","city":"BRESCIA","address":"VIA CORFU', 102","support_codes":15},
{"id":5000,"swift_code":"CIPBITMMXXX","bank_code":5000,"bank":"DEPOBANK S.P.A.","branch_code":0,"branch":"MILANO CORSO EUROPA, 18","zip":"20122","city":"MILANO","address":"CORSO EUROPA, 18","support_codes":15},
{"id":5010,"swift_code":"PIEMITTTXXX","bank_code":5010,"bank":"CREDITO VALTELLINESE","branch_code":0,"branch":"LINEA CARTAPERTA","zip":"23100","city":"SONDRIO","address":"VIA DELLE PERGOLE, 4"},
{"id":5013,"swift_code":"CREBIT22435","bank_code":5013,"bank":"BANCA VALORI S.P.A","branch_code":0,"branch":"SISTEMI DI PAGAMENTO","zip":"25100","city":"BRESCIA","address":"CORSO PALESTRO 29-C","support_codes":15},
{"id":5015,"swift_code":"POPHIT21XXX","bank_code":5015,"bank":"BANCA PROGETTO S.P.A","branch_code":0,"branch":"MILANO - SPORTELLO VIRTUALE","zip":"20123","city":"MILANO","address":"P.ZZA DIAZ, 1","support_codes":15},
{"id":5018,"swift_code":"CCRTIT2T84A","bank_code":5018,"bank":"BANCA POPOLARE ETICA","branch_code":0,"branch":"FILIALE DI TORINO","zip":"10100","city":"TORINO","address":"VIA S. PIO V, 15 BIS","support_codes":15},
{"id":5019,"swift_code":"CIPOIT2CXXX","bank_code":5019,"bank":"BANCA POPOLARE DI CIVIDALE INCORPORANTE ABI 5484","branch_code":0,"branch":"SERVIZIO CONTABILITA BANCHE ESTERO","zip":"23100","city":"SONDRIO","address":"VIA RAGAZZI DEL 99 12"},
{"id":5023,"swift_code":"BSVIITNNXXX","bank_code":5023,"bank":"BANCA REGIONALE DI SVILUPPO SPA","branch_code":0,"branch":"FILIALE DI NAPOLI","zip":"80133","city":"NAPOLI","address":"VIA VERDI 23-26","support_codes":15},
{"id":5024,"swift_code":"PASCITMMXXX","bank_code":5024,"bank":"BANCA MONTE DEI PASCHI DI SIENA SPA","branch_code":0,"branch":"SEDE DI MILANO","zip":"20123","city":"MILANO","address":"LARGO CAIROLI, 1","support_codes":15},
{"id":5025,"swift_code":"ICRAITRR900","bank_code":5025,"bank":"BANCA FARNESE S.C.P.A. A R.L.","branch_code":0,"branch":"SEDE","zip":"29122","city":"PIACENZA","address":"VIA DARIA MENICANTI N.1","support_codes":15},
{"id":5026,"swift_code":"BLOPIT22XXX","bank_code":5026,"bank":"BANCHE POPOLARI UNITE S.C.R.L.","branch_code":0,"branch":"MILANO","zip":"20124","city":"MILANO","address":"VIALE MONTESANTO 2","support_codes":15},
{"id":5029,"swift_code":"PDSCIT31XXX","bank_code":5029,"bank":"IGEA BANCA S.P.A","branch_code":0,"branch":"FILIALE DI ROMA","zip":"00198","city":"ROMA","address":"VIA G. PAISIELLO 38","support_codes":15},
{"id":5030,"swift_code":"CRSNIT31XXX","bank_code":5030,"bank":"VIVIBANCA S.P.A","branch_code":0,"branch":"FILIALE DI TORINO","zip":"10125","city":"TORINO","address":"VIA SAN PIO V, 5","support_codes":15},
{"id":5033,"swift_code":"PPMSIT31XXX","bank_code":5033,"bank":"BANCA POPOLARE DELLE PROVINCIEMOLISANE S.P.A","branch_code":0,"branch":"SEDE DI CAMPOBASSO","zip":"86170","city":"CAMPOBASSO","address":"VIALE DEI PENTRI SNC","support_codes":15},
{"id":5034,"swift_code":"BAPPIT22XXX","bank_code":5034,"bank":"BANCO BPM S.P.A.","branch_code":0,"branch":"TORINO","zip":"10121","city":"TORINO","address":"VIA XX SETTEMBRE, 44                    TORINO","support_codes":15},
{"id":5035,"swift_code":"BCITITMMXXX","bank_code":5035,"bank":"INTESA SANPAOLO SPA","branch_code":0,"branch":"FILIALE","zip":"10138","city":"TORINO","address":"VIA FRANCESCO FERRUCCI 79","support_codes":15},
{"id":5036,"swift_code":"POPRIT3RXXX","bank_code":5036,"bank":"BANCA AGRICOLA POPOLARE DI RAGUSA S.C.R.L.","branch_code":0,"branch":"SUCCURSALE DI MILANO","zip":"20122","city":"MILANO","address":"LARGO AUGUSTO N. 7","support_codes":15},
{"id":5037,"swift_code":"BPBAIT3BXXX","bank_code":5037,"bank":"BANCA POPOLARE DI BARI","branch_code":0,"branch":"FILIALE DI LAMEZIA TERME","zip":"88046","city":"LAMEZIA TERME","address":"VIA DEL MARE 22","support_codes":15},
{"id":5038,"swift_code":"BMEDITN1XXX","bank_code":5038,"bank":"BANCA POPOLARE DEL MEDITERRANEO","branch_code":0,"branch":"NAPOLI 1","zip":"80133","city":"NAPOLI","address":"VIA AGOSTINO DEPRETIS, 51","support_codes":15},
{"id":5040,"swift_code":"PASCITMMXXX","bank_code":5040,"bank":"BANCA MONTE DEI PASCHI DI SIENA SPA","branch_code":0,"branch":"TORINO","zip":"10129","city":"TORINO","address":"CORSO G. FERRARIS, 60","support_codes":15},
{"id":5048,"swift_code":"BLOPIT22XXX","bank_code":5048,"bank":"UBI BANCA SPA","branch_code":0,"branch":"UFFICIO SERVIZI PER SICAV","zip":"20121","city":"MILANO","address":"VIA DELLA MOSCOVA 33","support_codes":15},
{"id":5060,"swift_code":"BCMFIT31XXX","bank_code":5060,"bank":"CREDITO VALTELLINESE","branch_code":0,"branch":"LINEA CARTAPERTA","zip":"23100","city":"SONDRIO","address":"VIA DELLE PERGOLE, 4"},
{"id":5080,"swift_code":"IMCOIT2AXXX","bank_code":5080,"bank":"BANCA DI IMOLA SPA","branch_code":0,"branch":"MILANO SEDE","zip":"20123","city":"MILANO","address":"VIA GIORGIO GIULINI 3","support_codes":15},
{"id":5104,"swift_code":"BPLZIT3VXXX","bank_code":5104,"bank":"BANCA POPOLARE DEL LAZIO SCRL","branch_code":0,"branch":"FILIALE DI ROMA AG.1","zip":"00132","city":"ROMA","address":"VIA CASILINA, 1790","support_codes":15},
{"id":5116,"swift_code":"BCVAIT2VXXX","bank_code":5116,"bank":"BANCA VALSABBINA SOC.COOPERATIVA PER AZIONI","branch_code":0,"branch":"FILIALE DI TORINO","zip":"10143","city":"TORINO","address":"CORSO FRANCIA 2","support_codes":15},
{"id":5132,"swift_code":"BPVIIT3TXXX","bank_code":5132,"bank":"BANCA NUOVA S.P.A","branch_code":0,"branch":"ROMA","zip":"00187","city":"ROMA","address":"VIA BISSOLATI 8"},
{"id":5142,"swift_code":"BCPTITNNXXX","bank_code":5142,"bank":"BANCA DI CREDITO POPOLARE DI TORRE DEL GRECO","branch_code":0,"branch":"NUCLEO OPERATIVO PRESTITI PERSONALI","zip":"80142","city":"NAPOLI","address":"VIA GALILEO FERRARIS, 183","support_codes":15},
{"id":5156,"swift_code":"BCPCIT2PXXX","bank_code":5156,"bank":"BANCA DI PIACENZA SOC. COOP. PER AZIONI","branch_code":0,"branch":"MILANO LORETO","zip":"20124","city":"MILANO","address":"VIALE ANDREA DORIA N 32                 VIALE ANDREA DORIA N 32","support_codes":15},
{"id":5164,"swift_code":"BAPPIT22XXX","bank_code":5164,"bank":"BANCO BPM SPA","branch_code":0,"branch":"GENOVA VIA GARIBALDI 2 (SEDE DIREZIONE G","zip":"16124","city":"GENOVA","address":"VIA GARIBALDI 2 (SEDE DIREZIONE GENERALE)","support_codes":15},
{"id":5188,"swift_code":"BAPPIT22XXX","bank_code":5188,"bank":"BANCO BPM SPA","branch_code":0,"branch":"SEDE DI MILANO","zip":"20121","city":"MILANO","address":"LARGO CAIROLI 2\/A","support_codes":15},
{"id":5204,"swift_code":"BAPPIT22XXX","bank_code":5204,"bank":"BANCO BPM SPA","branch_code":0,"branch":"842 SETTORE CENTRO ASSEGNI","zip":"20146","city":"MILANO","address":"VIA MASSAUA, 6","support_codes":15},
{"id":5216,"swift_code":"BPCVIT2SXXX","bank_code":5216,"bank":"CREDITO VALTELLINESE","branch_code":0,"branch":"SEDE DI TORINO","zip":"10121","city":"TORINO","address":"VIA XX SETTEMBRE, 3","support_codes":15},
{"id":5228,"swift_code":"BAPPIT22XXX","bank_code":5228,"bank":"BANCO BPM SPA","branch_code":0,"branch":"GESTIONE BONIFICI","zip":"20138","city":"MILANO","address":"VIA MECENATE 84-A","support_codes":15},
{"id":5232,"swift_code":"BLJAIT3LXXX","bank_code":5232,"bank":"BANCA POPOLARE DI LAJATICO S.C.P.A.","branch_code":0,"branch":"FILIALE DI CASCIANA ALTA","zip":"56030","city":"CASCIANA TERME LARI","address":"PIAZZA DI VITTORIO, 15","support_codes":15},
{"id":5256,"swift_code":"BPMOIT22XXX","bank_code":5256,"bank":"BPER BANCA S.P.A.","branch_code":0,"branch":"SEDE DI BARI","zip":"70122","city":"BARI","address":"VIA ABATE GIMMA 66","support_codes":15},
{"id":5262,"swift_code":"BPPUIT33XXX","bank_code":5262,"bank":"BANCA POPOLARE PUGLIESE","branch_code":0,"branch":"SPORTELLO NORMALE","zip":"86100","city":"CAMPOBASSO","address":"VIA ALFREDO TROMBETTA,26","support_codes":15},
{"id":5296,"swift_code":"POFOIT3FXXX","bank_code":5296,"bank":"BANCA POPOLARE DI FONDI","branch_code":0,"branch":"FILIALE DI LATINA","zip":"04100","city":"LATINA","address":"PIAZZA S.MARCO, 7\/8","support_codes":15},
{"id":5297,"swift_code":"BPFRIT3FXXX","bank_code":5297,"bank":"BANCA POPOLARE DEL FRUSINATE -FROSINONE","branch_code":0,"branch":"BANCA POPOLARE DEL FRUSINATE","zip":"00198","city":"ROMA","address":"VIA PINCIANA, 61\/65","support_codes":15},
{"id":5308,"swift_code":"BLOPIT22XXX","bank_code":5308,"bank":"UBI BANCA SPA","branch_code":0,"branch":"MINISPORTELLO DI ANCONA VIA UMANI","zip":"60131","city":"ANCONA","address":"VIA UMANI","support_codes":15},
{"id":5336,"swift_code":"BPPNIT2PXXX","bank_code":5336,"bank":"BANCA POPOLARE FRIULADRIA S.P.A.","branch_code":0,"branch":"CREDITI AL CONSUMO","zip":"20123","city":"MILANO","address":"VIA ARMORARI 4","support_codes":15},
{"id":5372,"swift_code":"POCAIT3CXXX","bank_code":5372,"bank":"BANCA POPOLARE DEL CASSINATE","branch_code":0,"branch":"FROSINONE STRADA STATALE 155, KM. 0,740","zip":"03100","city":"FROSINONE","address":"STRADA STATALE 155, KM. 0,740","support_codes":15},
{"id":5385,"swift_code":"BPDMIT3BXXX","bank_code":5385,"bank":"BANCA POPOLARE DI PUGLIA E BASILICATA","branch_code":0,"branch":"FILIALE DI MILANO","zip":"20121","city":"MILANO","address":"VIA S. MARGHERITA, 4","support_codes":15},
{"id":5387,"swift_code":"BPMOIT22XXX","bank_code":5387,"bank":"BPER BANCA S.P.A.","branch_code":0,"branch":"TORINO - AGENZIA 4","zip":"10141","city":"TORINO","address":"C.SO FILIPPO BRUNELLESCHI, 18","support_codes":15},
{"id":5390,"swift_code":"BLOPIT22XXX","bank_code":5390,"bank":"UBI BANCA SPA","branch_code":0,"branch":"SEDE DI MILANO","zip":"20123","city":"MILANO","address":"VIA MAZZINI, 12","support_codes":15},
{"id":5392,"swift_code":"BPMOIT22XXX","bank_code":5392,"bank":"BPER BANCA S.P.A.","branch_code":0,"branch":"FILIALE DI ROMA","zip":"00186","city":"ROMA","address":"PIAZZA DEL PARLAMENTO N. 16","support_codes":15},
{"id":5414,"swift_code":"BPMOIT22XXX","bank_code":5414,"bank":"BPER BANCA SPA","branch_code":0,"branch":"FILIALE DI ROMA EUR","zip":"00144","city":"ROMA","address":"VIALE DEGLI ASTRI, 97-103","support_codes":15},
{"id":5418,"swift_code":"VEBHIT2MXXX","bank_code":5418,"bank":"VENETO BANCA SCPA","branch_code":0},
{"id":5424,"swift_code":"BPBAIT3BXXX","bank_code":5424,"bank":"BANCA POPOLARE DI BARI","branch_code":0,"branch":"FILIALE DI MILANO","zip":"20141","city":"MILANO","address":"VIA SALASCO, 40","support_codes":15},
{"id":5428,"swift_code":"BLOPIT22XXX","bank_code":5428,"bank":"UBI BANCA SPA","branch_code":0,"branch":"MILANO PIAZZA CINQUE GIORNATE","zip":"20129","city":"MILANO","address":"PIAZZA CINQUE GIORNATE, 1","support_codes":15},
{"id":5437,"swift_code":"UNCRITMMXXX","bank_code":5437,"bank":"BIPOP-CARIRE S.P.A.","branch_code":0,"branch":"SEDE DI TORINO","zip":"10121","city":"TORINO","address":"VIA ARSENALE, 15","support_codes":15},
{"id":5460,"swift_code":"PRTEIT21XXX","bank_code":5460,"bank":"BANCA POPOLARE DELLA PROVINCIADI TREVISO S.P.A.","branch_code":0,"branch":"SPORTELLO DI DIREZIONE GENERALE","zip":"31049","city":"VALDOBBIADENE","address":"PIAZZA MARCONI, 15"},
{"id":5484,"swift_code":"CIVIIT2CXXX","bank_code":5484,"bank":"BANCA DI CIVIDALE SCPA","branch_code":0,"branch":"SERV. INCAS. E PAGAM. - REP. PORTAFOGLIO","zip":"20134","city":"MILANO","address":"VIA FELTRE, 75","support_codes":15},
{"id":5496,"swift_code":"POCSIT31XXX","bank_code":5496,"bank":"BANCA POPOLARE DI CORTONA","branch_code":0,"branch":"AGENZIA DI PERUGIA","zip":"06132","city":"PERUGIA","address":"VIA G.DOTTORI,94","support_codes":15},
{"id":5512,"swift_code":"BAPPIT22XXX","bank_code":5512,"bank":"BANCO BPM SPA","branch_code":0,"branch":"FILIALE DI MILANO","zip":"20129","city":"MILANO","address":"VIA FONTANA, 22","support_codes":15},
{"id":5526,"swift_code":"BLOPIT22XXX","bank_code":5526,"bank":"UBI BANCA SPA","branch_code":0,"branch":"FIL.DI GENOVA SEDE","zip":"16121","city":"GENOVA","address":"VIA C.R. CECCARDI, 13\/R","support_codes":15},
{"id":5548,"swift_code":"VEBHIT2MXXX","bank_code":5548,"bank":"VENETO BANCA SCPA","branch_code":0},
{"id":5550,"swift_code":"BPMOIT22XXX","bank_code":5550,"bank":"BPER BANCA SPA","branch_code":0,"branch":"AGENZIA N. 11 - BOLOGNA","zip":"40134","city":"BOLOGNA","address":"VIA XXI APRILE '45, 31\/B","support_codes":15},
{"id":5572,"swift_code":"BPAAIT2BXXX","bank_code":5572,"bank":"BANCA POPOLARE DEL'ALTO ADIGE","branch_code":0,"branch":"VICENZA LOC. LAGHETTO","zip":"36100","city":"VICENZA","address":"VIA DEI LAGHI, 135","support_codes":15},
{"id":5584,"swift_code":"BAPPIT22XXX","bank_code":5584,"bank":"BANCO BPM SPA","branch_code":0,"branch":"SEDE DI TORINO","zip":"10121","city":"TORINO","address":"CORSO MATTEOTTI, 8","support_codes":15},
{"id":5602,"swift_code":"POVEIT33XXX","bank_code":5602,"bank":"BANCA POPOLARE VESUVIANA","branch_code":0,"branch":"FILIALE DI NAPOLI","zip":"80133","city":"NAPOLI","address":"VIA BRACCO 31","support_codes":15},
{"id":5608,"swift_code":"BAPPIT22XXX","bank_code":5608,"bank":"BANCO BPM SPA","branch_code":0,"branch":"POLLEIN - SPORT. AUTOPORTO VALLE D'AOSTA","zip":"11100","city":"POLLEIN","address":"PRESSO AUTOPORTO VALLE D'AOSTA","support_codes":15},
{"id":5630,"swift_code":"BAPPIT22XXX","bank_code":5630,"bank":"BANCA NETWORK INVESTIMENTI SPA","branch_code":0,"support_codes":15},
{"id":5640,"swift_code":"BPMOIT22XXX","bank_code":5640,"bank":"BPER BANCA SPA","branch_code":0,"branch":"FILIALE DI MESTRE","zip":"30172","city":"VENEZIA","address":"PIAZZA 27 OTTOBRE 40-41","support_codes":15},
{"id":5650,"swift_code":"CFERIT2FXXX","bank_code":5650,"bank":"NUOVA CASSA DI RISPARMIO DI FERRARA S.P.A.","branch_code":0,"branch":"SEDE DI ROMA","zip":"00187","city":"ROMA","address":"PIAZZA MADONNA DI LORETO, 24"},
{"id":5652,"swift_code":"SFSPIT22XXX","bank_code":5652,"bank":"SANFELICE 1893 BANCA POPOLARE","branch_code":0,"branch":"FILIALE DI BOLOGNA","zip":"40133","city":"BOLOGNA","address":"VIA BORGHESE, 21","support_codes":15},
{"id":5676,"swift_code":"BPSAIT31XXX","bank_code":5676,"bank":"BANCO DI SARDEGNA SPA","branch_code":0,"branch":"FILIALE DI ROMA","zip":"00187","city":"ROMA","address":"VIA XX SETTEMBRE, 98\/E","support_codes":15},
{"id":5696,"swift_code":"POSOIT22XXX","bank_code":5696,"bank":"BANCA POPOLARE DI SONDRIO","branch_code":0,"branch":"SUCCURSALE DI TORINO","zip":"10121","city":"TORINO","address":"VIA XX SETTEMBRE 37","support_codes":15},
{"id":5704,"swift_code":"BDBDIT22XXX","bank_code":5704,"bank":"BANCO DI DESIO E DELLA BRIANZA SPA","branch_code":0,"branch":"SPORTELLO DI TORINO","zip":"10128","city":"TORINO","address":"VIA MAGENTA","support_codes":15},
{"id":5728,"swift_code":"BCITITMMXXX","bank_code":5728,"bank":"INTESA SANPAOLO SPA","branch_code":0,"branch":"FILIALE DI TORINO","zip":"10121","city":"TORINO","address":"VIA MEUCCI, 2","support_codes":15},
{"id":5748,"swift_code":"BCITITMMXXX","bank_code":5748,"bank":"INTESA SANPAOLO SPA","branch_code":0,"branch":"DCO CPF MERC NORD OVEST","zip":"10122","city":"TORINO","address":"VIA SANTA MARIA 8","support_codes":15},
{"id":5772,"swift_code":"PSANIT3PXXX","bank_code":5772,"bank":"BANCA POPOLARE SANT'ANGELO SCPA","branch_code":0,"branch":"ROMA FILIALE 1","zip":"00193","city":"ROMA","address":"VIA VITTORIA COLONNA,8-10","support_codes":15},
{"id":5787,"swift_code":"BCITITMMXXX","bank_code":5787,"bank":"INTESA SANPAOLO SPA","branch_code":0,"branch":"GESTIONE SOPRAVVENIENZE","zip":"10126","city":"TORINO","address":"VIA NIZZA, 280","support_codes":15},
{"id":5792,"swift_code":"BPVMIT2RXXX","bank_code":5792,"bank":"BANCA POPOLARE VALCONCA","branch_code":0,"branch":"FILIALE DI MONTECCHIO","zip":"61020","city":"VALLEFOGLIA","address":"VIA ROMA N. 46","support_codes":15},
{"id":5824,"swift_code":"CSRFITR1XXX","bank_code":5824,"bank":"CASSA DI SOVVENZIONI E RISPARMIO FRA IL PERSONALE DELL","branch_code":0,"branch":"TORINO VIA ARSENALE, 8","zip":"10121","city":"TORINO","address":"VIA ARSENALE, 8","support_codes":15},
{"id":5856,"swift_code":"BPAAIT2BXXX","bank_code":5856,"bank":"BANCA POPOLARE DELL'ALTO ADIGES.P.A.","branch_code":0,"branch":"FILIALE TRENTO","zip":"38100","city":"TRENTO","address":"VIA S.CROCE 44","support_codes":15},
{"id":6010,"swift_code":"BCITITMMXXX","bank_code":6010,"bank":"INTESA SANPAOLO SPA","branch_code":0,"branch":"GESTIONE SOPRAVVENIENZE","zip":"10126","city":"TORINO","address":"VIA NIZZA 280","support_codes":15},
{"id":6020,"swift_code":"PRATIT31XXX","bank_code":6020,"bank":"BANCA POP DI VICENZA","branch_code":0,"branch":"MONTELUPO FIORENTINO","zip":"50056","city":"MONTELUPO FIORENTINO","address":"VIA CAVERNI 20"},
{"id":6030,"swift_code":"CRPPIT2PXXX","bank_code":6030,"bank":"CREDIT AGRICOLE SPA","branch_code":0,"branch":"GESTIONE SOPRAVVENIENZE","zip":"10126","city":"TORINO","address":"VIA NIZZA, 280","support_codes":15},
{"id":6040,"swift_code":"BPMOIT22XXX","bank_code":6040,"bank":"BPER BANCA SPA","branch_code":0,"branch":"SUCCURSALE DI ROMA","zip":"00186","city":"ROMA","address":"CORSO VITTORIO EMANUELE II, 299","support_codes":15},
{"id":6045,"swift_code":"CRBZIT2BXXX","bank_code":6045,"bank":"CASSA DI RISPARMIO DI BOLZANO SPA- DIREZIONE GENERALE","branch_code":0,"branch":"CASSA RISPARMIO-SPARKASSE MILANO","zip":"20121","city":"MILANO","address":"ROVELLO, 1 A","support_codes":15},
{"id":6050,"swift_code":"BLOPIT22XXX","bank_code":6050,"bank":"UBI BANCA SPA","branch_code":0,"branch":"MILANO PORTA ROMANA","zip":"20122","city":"MILANO","address":"CORSO DI PORTA ROMANA, 131","support_codes":15},
{"id":6055,"swift_code":"BLOPIT22XXX","bank_code":6055,"bank":"UBI BANCA SPA","branch_code":0,"branch":"FILIALE DI BOLOGNA","zip":"40121","city":"BOLOGNA","address":"VIA LUIGI CARLO FARINI 1 A","support_codes":15},
{"id":6060,"swift_code":"BPBAIT3BXXX","bank_code":6060,"bank":"BANCA POPOLARE DI BARI","branch_code":0,"branch":"BOLOGNA AGENZIA 1","zip":"40139","city":"BOLOGNA","address":"VIA MAZZINI, 146","support_codes":15},
{"id":6065,"swift_code":"BCITITMMXXX","bank_code":6065,"bank":"INTESA SANPAOLO SPA","branch_code":0,"branch":"GESTIONE SOPRAVVENIENZE","zip":"10126","city":"TORINO","address":"VIA NIZZA, 280","support_codes":15},
{"id":6067,"swift_code":"CSSMSMSMXXX","bank_code":6067,"bank":"CASSA DI RISPARMIO DELLA REPUBBLICA DI SAN MARINOSASM","branch_code":0,"branch":"SEDE CENTRALE","zip":"47890","city":"REPUBBLICA DI SAN MARINO","address":"PIAZZETTA DEL TITANO,2","support_codes":15},
{"id":6070,"swift_code":"BCITITMMXXX","bank_code":6070,"bank":"CARIPLO SPA - CASSA DI RISPARMIODELLE PROVINCIE LOMBAR","branch_code":0,"branch":"FILIALE DI TORINO","zip":"10121","city":"TORINO","address":"VIA VIOTTI, 4","support_codes":15},
{"id":6075,"swift_code":"BDLEIT2LXXX","bank_code":6075,"bank":"BANCA POPOLARE DI MILANO","branch_code":0,"branch":"FILIALE 72 - GENOVA","zip":"16148","city":"GENOVA","address":"VIA DE SCALZO, 6"},
{"id":6080,"swift_code":"IBSPIT3PXXX","bank_code":6080,"bank":"CASSA DI RISPARMIO DI ASCOLI PICENO SPA","branch_code":0,"branch":"GESTIONE SOPRAVVENIENZE","zip":"10126","city":"TORINO","address":"VIA NIZZA 280"},
{"id":6085,"swift_code":"CASRIT22XXX","bank_code":6085,"bank":"CASSA DI RISPARMIO DI ASTI SPA","branch_code":0,"branch":"FILIALE DI TORINO","zip":"10128","city":"TORINO","address":"CORSO RE UMBERTO,31 ANG. CORSO STATI UNITI","support_codes":15},
{"id":6090,"swift_code":"CRBIIT2BXXX","bank_code":6090,"bank":"BIVERBANCA S.P.A.","branch_code":0,"branch":"DIPENDENZA DI TORINO","zip":"10123","city":"TORINO","address":"VIA CAVOUR, 26","support_codes":15},
{"id":6095,"swift_code":"CRBRIT21XXX","bank_code":6095,"bank":"CASSA DI RISPARMIO DI BRA SPA","branch_code":0,"branch":"FILIALE DI TORINO","zip":"10134","city":"TORINO","address":"C.SO UNIONE SOVIETICA 153","support_codes":15},
{"id":6105,"swift_code":"UNCRITMMXXX","bank_code":6105,"bank":"CASSA RISPARMIO CARPI S.P.A. C\/RETTIFICHE","branch_code":0,"branch":"FILIALE DI MANTOVA","zip":"46100","city":"MANTOVA","address":"VIA SANT'AGNESE, 2","support_codes":15},
{"id":6110,"swift_code":"CRGEITGGXXX","bank_code":6110,"bank":"BANCA CARIGE S.P.A.","branch_code":0,"branch":"B\/O R\/968","zip":"16147","city":"GENOVA","address":"VIA ISONZO, 21","support_codes":15},
{"id":6115,"swift_code":"CRCEIT2CXXX","bank_code":6115,"bank":"CASSA DI RISPARMIO DI CENTO S.P.A.","branch_code":0,"branch":"FILIALE DI BOLOGNA","zip":"40122","city":"BOLOGNA","address":"VIA DELLA GRADA, 2","support_codes":15},
{"id":6120,"swift_code":"CRPPIT2PXXX","bank_code":6120,"bank":"CREDIT AGRICOLE SPA","branch_code":0,"branch":"FILIALE DI BOLOGNA","zip":"40122","city":"BOLOGNA","address":"LARGO CADUTI DEL LAVORO, 1\/A ANG. VIA MARCONI","support_codes":15},
{"id":6125,"swift_code":"CRSPIT3SXXX","bank_code":6125,"bank":"CASSE DI RISPARMIO DELL UMBRIA S.P.A.","branch_code":0,"branch":"GESTIONE SOPRAVVENIENZE","zip":"10126","city":"TORINO","address":"VIA NIZZA, 280"},
{"id":6130,"swift_code":"BCITITMMXXX","bank_code":6130,"bank":"INTESA SANPAOLO SPA","branch_code":0,"branch":"GESTIONE SOPRAVVENIENZE","zip":"10126","city":"TORINO","address":"VIA NIZZA, 280","support_codes":15},
{"id":6140,"swift_code":"VEBHIT2MXXX","bank_code":6140,"bank":"VENETO BANCA S.P.A.","branch_code":0,"branch":"AGENZIA DI GENGA","zip":"60040","city":"GENGA","address":"VIA ROMA, 15\/17"},
{"id":6145,"swift_code":"BPCVIT2SXXX","bank_code":6145,"bank":"CREDITO VALTELLINESE","branch_code":0,"branch":"SERVIZIO CONTENZIOSO","zip":"20121","city":"MILANO","address":"PIAZZA SAN FEDELE 4","support_codes":15},
{"id":6150,"swift_code":"CRFEIT3FXXX","bank_code":6150,"bank":"CASSA DI RISPARMIO DI FERMO SPA","branch_code":0,"branch":"ROMA (FIL. 37)","zip":"00187","city":"ROMA","address":"VIA PUGLIE, 15-21","support_codes":15},
{"id":6155,"swift_code":"BPMOIT22XXX","bank_code":6155,"bank":"BPER BANCA S.P.A.","branch_code":0,"branch":"SEDE DI MILANO","zip":"20123","city":"MILANO","address":"VIA S.MARIA FULCORINA N.9","support_codes":15},
{"id":6160,"swift_code":"BCITITMMXXX","bank_code":6160,"bank":"INTESA SANPAOLO SPA","branch_code":0,"branch":"DCO CPF MERC NORD OVEST","zip":"10122","city":"TORINO","address":"VIA SANTA MARIA 8","support_codes":15},
{"id":6165,"swift_code":"CRSPIT3SXXX","bank_code":6165,"bank":"CASSA DI RISPARMIO DI FOLIGNO SPA","branch_code":0,"branch":"GESTIONE SOPRAVVENIENZE","zip":"10126","city":"TORINO","address":"VIA NIZZA 280"},
{"id":6170,"swift_code":"CRIFIT2FXXX","bank_code":6170,"bank":"CASSA DI RISPARMIO DI FOSSANO SPA","branch_code":0,"branch":"TORINO N. 1","zip":"10129","city":"TORINO","address":"LARGO ORBASSANO, 66","support_codes":15},
{"id":6175,"swift_code":"CRGEITGGXXX","bank_code":6175,"bank":"BANCA CARIGE S.P.A. - CASSA DIRISPARMIO DI GENOVA E IMPERIA","branch_code":0,"branch":"SEDE TORINO","zip":"10121","city":"TORINO","address":"CORSO MATTEOTTI, 13\/C","support_codes":15},
{"id":6195,"swift_code":"BLOPIT22XXX","bank_code":6195,"bank":"UBI BANCA SPA","branch_code":0,"branch":"FILIALE DI ANCONA 1","zip":"60100","city":"ANCONA","address":"CORSO GARIBALDI, 44 - 46","support_codes":15},
{"id":6200,"swift_code":"BAPPIT22XXX","bank_code":6200,"bank":"BANCO BPM SPA","branch_code":0,"branch":"FIRENZE - AG. N. 2","zip":"50129","city":"FIRENZE","address":"PIAZZA DELLA LIBERTA 8","support_codes":15},
{"id":6205,"swift_code":"CRPPIT2PXXX","bank_code":6205,"bank":"CREDIT AGRICOLE SPA","branch_code":0,"branch":"FILIALE DI PADOVA","zip":"35126","city":"PADOVA","address":"VIA FACCIOLATI,36","support_codes":15},
{"id":6220,"swift_code":"BPBAITR1XXX","bank_code":6220,"bank":"CASSA DI RISPARMIO DI ORVIETO SPA","branch_code":0,"branch":"BANCA TELEFONICA C.R. ORVIETO","zip":"50122","city":"FIRENZE","address":"VIA S. EGIDIO, 14","support_codes":15},
{"id":6225,"swift_code":"BCITITMMXXX","bank_code":6225,"bank":"CASSA DI RISPARMIO DEL VENETO","branch_code":0,"branch":"DCO CPF MERC NORD OVEST","zip":"10122","city":"TORINO","address":"VIA SANTA MARIA 8","support_codes":15},
{"id":6230,"swift_code":"CRPPIT2PXXX","bank_code":6230,"bank":"CREDIT AGRICOLE ITALIA","branch_code":0,"branch":"SEDE DI TORINO","zip":"10123","city":"TORINO","address":"VIA GIOLITTI, 1","support_codes":15},
{"id":6235,"swift_code":"UNCRITMMXXX","bank_code":6235,"bank":"BANCA DELL'UMBRIA 1462 S.P.A. C\/RETTIFICHE","branch_code":0,"branch":"SEDE DI PERUGIA","zip":"06121","city":"PERUGIA","address":"CORSO VANNUCCI, 39","support_codes":15},
{"id":6245,"swift_code":"BPBAIT3BXXX","bank_code":6245,"bank":"BANCA POPOLARE DI BARI","branch_code":0,"branch":"AG. 1 ANCONA","zip":"60121","city":"ANCONA","address":"CORSO GARIBALDI, 140","support_codes":15},
{"id":6260,"swift_code":"BCITITMMXXX","bank_code":6260,"bank":"INTESA SANPAOLO SPA","branch_code":0,"branch":"DCO CPF MERC NORD OVEST","zip":"10122","city":"TORINO","address":"VIA SANTA MARIA 8","support_codes":15},
{"id":6270,"swift_code":"CRRAIT2RXXX","bank_code":6270,"bank":"LA CASSA DI RAVENNA S.P.A.","branch_code":0,"branch":"MILANO","zip":"20123","city":"MILANO","address":"VIA GIORGIO GIULINI 3","support_codes":15},
{"id":6280,"swift_code":"BCITITMMXXX","bank_code":6280,"bank":"CASSA DI RISPARMIO DI RIETI SPA","branch_code":0,"branch":"GESTIONE SOPRAVVENIENZE","zip":"10126","city":"TORINO","address":"VIA NIZZA 280","support_codes":15},
{"id":6285,"swift_code":"CRPPIT2PXXX","bank_code":6285,"bank":"CREDIT AGRICOLE SPA","branch_code":0,"branch":"AGENZIA DI BOLOGNA","zip":"40121","city":"BOLOGNA","address":"VIA AMENDOLA, 9\/G","support_codes":15},
{"id":6295,"swift_code":"CRSAIT22XXX","bank_code":6295,"bank":"CASSA DI RISPARMIO DI SALUZZO SPA","branch_code":0,"branch":"DIPENDENZA DI TORINO","zip":"10129","city":"TORINO","address":"VIA GIOVANNI DA VERAZZANO N.63","support_codes":15},
{"id":6300,"swift_code":"CRPPIT2PXXX","bank_code":6300,"bank":"CREDIT AGRICOLE SPA","branch_code":0,"branch":"MILANO","zip":"20123","city":"MILANO","address":"VIA GIUSEPPE MAZZINI 20","support_codes":15},
{"id":6305,"swift_code":"SARCIT2SXXX","bank_code":6305,"bank":"BANCA CASSA DI RISPARMIO DI SAVIGLIANO SPA","branch_code":0,"branch":"FILIALE DI TORINO 1","zip":"10157","city":"TORINO","address":"LARGO FRANCIA, 115\/D","support_codes":15},
{"id":6310,"swift_code":"CRGEITGGXXX","bank_code":6310,"bank":"BANCA CARIGE S.P.A.","branch_code":0,"branch":"B\/O R\/968","zip":"16147","city":"GENOVA","address":"VIA ISONZO 21","support_codes":15},
{"id":6315,"swift_code":"BCITITMMXXX","bank_code":6315,"bank":"INTESA SANPAOLO SPA","branch_code":0,"branch":"DCO PFI CENTRO PUB FINA E INFR NORD OVES","zip":"10122","city":"TORINO","address":"VIA SANTA MARIA 8","support_codes":15},
{"id":6340,"swift_code":"BCITITMMXXX","bank_code":6340,"bank":"CASSA DI RISPARMIO DEL FRIULI VENEZIA GIULIA S.P.A.","branch_code":0,"branch":"DCO CPF MERC NORD OVEST","zip":"10122","city":"TORINO","address":"VIA SANTA MARIA 8","support_codes":15},
{"id":6345,"swift_code":"BCITITMMXXX","bank_code":6345,"bank":"CASSA DI RISPARMIO DI VENEZIA SPA","branch_code":0,"branch":"DCO CPF MERC NORD OVEST","zip":"10122","city":"TORINO","address":"VIA SANTA MARIA 8","support_codes":15},
{"id":6365,"swift_code":"BPMOIT22XXX","bank_code":6365,"bank":"BPER BANCA","branch_code":0,"address":"VIA SAN CARLO","support_codes":15},
{"id":6370,"swift_code":"CRVOIT3VXXX","bank_code":6370,"bank":"CASSA DI RISPARMIO DI VOLTERRA SPA","branch_code":0,"branch":"FILIALE DI CASCIANA TERME","zip":"56034","city":"CASCIANA TERME LARI","address":"PIAZZA GARIBALDI 4","support_codes":15},
{"id":6380,"swift_code":"CRSPIT3SXXX","bank_code":6380,"bank":"CASSA DI RISPARMIO DI TERNI E NARNI SPA","branch_code":0,"branch":"GESTIONE SOPRAVVENIENZE","zip":"10126","city":"TORINO","address":"VIA NIZZA 280"},
{"id":6385,"swift_code":"BCITITMMXXX","bank_code":6385,"bank":"INTESA SANPAOLO SPA","branch_code":0,"branch":"DCO CPF MERC NORD OVEST","zip":"10122","city":"TORINO","address":"VIA SANTA MARIA 8","support_codes":15},
{"id":6390,"swift_code":"INGCITM1XXX","bank_code":6390,"bank":"INTESA GESTIONE CREDITI S.P.A.","branch_code":0,"branch":"SEDE INTESA GESTIONE CREDITI SPA","zip":"20121","city":"MILANO","address":"VIA ANDEGARI, 9"},
{"id":6906,"swift_code":"BLOPIT22XXX","bank_code":6906,"bank":"UBI BANCA SPA","branch_code":0,"branch":"FIL.DI TORINO CORSO V.EMANUELE II","zip":"10128","city":"TORINO","address":"CORSO VITTORIO EMANUELE II N.107","support_codes":15},
{"id":6915,"swift_code":"BMLUIT3LXXX","bank_code":6915,"bank":"BANCA DEL MONTE DI LUCCA SPA","branch_code":0,"branch":"B\/O R\/968","zip":"16147","city":"GENOVA","address":"VIA ISONZO 21","support_codes":15},
{"id":6930,"swift_code":"BCITITMMXXX","bank_code":6930,"bank":"INTESA SANPAOLO SPA","branch_code":0,"branch":"GESTIONE SOPRAVVENIENZE","zip":"10126","city":"TORINO","address":"VIA NIZZA 280","support_codes":15},
{"id":7010,"swift_code":"ICRAITRRON0","bank_code":7010,"bank":"BANCA DI CREDITO COOPERATIVO DI MAIERATO -CZ-","branch_code":0,"branch":"FILIALE DI PIZZO","zip":"89812","city":"PIZZO","address":"VIA NAZIONALE - CETRO KOINE'","support_codes":15},
{"id":7012,"swift_code":"ICRAITRRS40","bank_code":7012,"bank":"BANCA DI CREDITO COOPERATIVO DI BARI SC","branch_code":0,"branch":"B.C.C. DI BARI","zip":"70121","city":"BARI","address":"LARGO G. BRUNO, 53","support_codes":15},
{"id":7017,"swift_code":"CCRTIT2TCIR","bank_code":7017,"bank":"BANCA DI CREDITO COOPERATIVO DELCIRCEO E PRIVERNATE","branch_code":0,"branch":"FILIALE DI LATINA","zip":"04100","city":"LATINA","address":"VIA DON CARLO TORELLO N. 55-57","support_codes":15},
{"id":7026,"swift_code":"ICRAITRRSI0","bank_code":7026,"bank":"BANCA DI TERAMO E DI ASCOLI DICREDITO COOPERATIVO SCRL","branch_code":0,"branch":"SEDE DI TERAMO","zip":"64100","city":"TERAMO","address":"VIA SAVINI, 1","support_codes":15},
{"id":7027,"swift_code":"CCRTIT2TMON","bank_code":7027,"bank":"BANCA DI CREDITO COOPERATIVO DI MONOPOLI S.C.R.L.P.A.","branch_code":0,"branch":"MONOPOLI","zip":"70043","city":"MONOPOLI","address":"VIA LEPANTO 1-C ANG.P.ZZA D'ANNUNZIO 4-A","support_codes":15},
{"id":7048,"swift_code":"ICRAITRRT40","bank_code":7048,"bank":"BANCA DELL'ELBA CREDITO COOPERATIVO S.C.","branch_code":0,"branch":"SUCCURSALE CAMPO NELL'ELBA","zip":"57034","city":"CAMPO NELL'ELBA","address":"VIA ROMA 57","support_codes":15},
{"id":7056,"swift_code":"CCRTIT2TMUR","bank_code":7056,"bank":"BANCA DELL'ALTA MURGIA CREDITOCOOPERATIVO - SOC. COOP.","branch_code":0,"branch":"SEDE","zip":"70022","city":"ALTAMURA","address":"PIAZZA ZANARDELLI, 16","support_codes":15},
{"id":7057,"swift_code":"SVIUITRRXXX","bank_code":7057,"bank":"BANCA PER LO SVILUPPO DELLA COOPERAZIONE DI CREDITO S.P.A.","branch_code":0,"branch":"FILIALE DI MANTOVA","zip":"46100","city":"MANTOVA","address":"VIALE PIAVE S.N.C.","support_codes":15},
{"id":7058,"swift_code":"ICRAITRRHB0","bank_code":7058,"bank":"BANCA REGGIANA - CC S.C.R.L. FUS. BANCO EMILIANO CRED. COOP.","branch_code":0,"branch":"AGENZIA N. 1 DI PARMA","zip":"43123","city":"PARMA","address":"VIA EMILIA EST, 115-A","support_codes":15},
{"id":7060,"swift_code":"ICRAITRRKI0","bank_code":7060,"bank":"BCC DEL GARIGLIANO - S.C.R.L.FUS.ABI 8738-CRA DEL AGROPONTI","branch_code":0,"branch":"FILIALE DI SANTI COSMA E DAMIANO","zip":"04020","city":"SANTI COSMA E DAMIANO","address":"VIA F. BARACCA, 322","support_codes":15},
{"id":7062,"swift_code":"ICRAITRRTI0","bank_code":7062,"bank":"CREDITO COOPERATIVO MEDIOCRATISOC. COOP. A R.L.","branch_code":0,"branch":"FILIALE DI CORIGLIANO SCALO","zip":"87064","city":"CORIGLIANO-ROSSANO","address":"VIA E. BERLINGUER                       FRAZIONE SCALO","support_codes":15},
{"id":7066,"swift_code":"ICRAITRRTM0","bank_code":7066,"bank":"BANCA DI CREDITO COOPERATIVO DI BUCCINO E DEI COMUNI CILENTANI","branch_code":0,"branch":"PISCIOTTA","zip":"84066","city":"PISCIOTTA","address":"VIA BORGO 32","support_codes":15},
{"id":7067,"swift_code":"ROMAITRRXXX","bank_code":7067,"bank":"BANCA DI CREDITO COOPERATIVO DI ROMA","branch_code":0,"branch":"FARNESE CORSO VITTORIO EMANUELE, 404","zip":"01010","city":"FARNESE","address":"CORSO VITTORIO EMANUELE, 404","support_codes":15},
{"id":7070,"swift_code":"ICRAITRRTQ0","bank_code":7070,"bank":"CREDITO COOPERATIVO ROMAGNOLO - BCC DI CESENA E GATTEO SOC. COO","branch_code":0,"branch":"FIL DI RAVENNA","zip":"48100","city":"RAVENNA","address":"PIAZZA BARACCA, 12","support_codes":15},
{"id":7071,"swift_code":"ICRAITRRXXX","bank_code":7071,"bank":"ICCREA BANCA - ISTITUTO CENTRALE DEL CREDITO COOPERATIVO","branch_code":0,"support_codes":15},
{"id":7072,"swift_code":"ICRAITRRTS0","bank_code":7072,"bank":"EMIL BANCA - CREDITO COOPERATIVO - SOCIETA' COOPERAT","branch_code":0,"branch":"AG. BORGO PANIGALE","zip":"40133","city":"BOLOGNA","address":"VIA EMILIA PONENTE, 260","support_codes":15},
{"id":7073,"swift_code":"SVIUITRRXXX","bank_code":7073,"bank":"BANCA ROMAGNA COOPERATIVA","branch_code":0,"branch":"FILIALE DI GALEATA","zip":"47010","city":"GALEATA","address":"VIA ZANNETTI, 11","support_codes":15},
{"id":7074,"swift_code":"ICRAITRRTU0","bank_code":7074,"bank":"BANCA DI MONASTIER E DEL SILE CREDITO COOPERATIVO S.C.R.L.","branch_code":0,"branch":"FILIALE DI MESTRE","zip":"30172","city":"VENEZIA","address":"VIA MESTRINA, 36-38","support_codes":15},
{"id":7075,"swift_code":"ICRAITRRTV0","bank_code":7075,"bank":"BANCA CENTRO - CREDITO COOPERATIVO TOSCANA-UMBRIA SOC.","branch_code":0,"branch":"FILIALE DI FONTIGNANO","zip":"06132","city":"PERUGIA","address":"PIAZZA DEL PERUGINO 2","support_codes":15},
{"id":7076,"swift_code":"ICRAITRRTW0","bank_code":7076,"bank":"BANCA CREMASCA E MANTOVANA CRED.COOP. SOC. COOP.","branch_code":0,"branch":"FIL. DI MANTOVA","zip":"46100","city":"MANTOVA","address":"VIA CALVI 20 - 22","support_codes":15},
{"id":7078,"swift_code":"CCRTIT2TIBL","bank_code":7078,"bank":"BANCA DIC REDITO COOPERATIVO DEI CASTELLI E DEGLI IBLEI S.C.","branch_code":0,"branch":"BUTERA PIAZZA DANTE 13","zip":"93011","city":"BUTERA","address":"PIAZZA DANTE 13","support_codes":15},
{"id":7080,"swift_code":"CCRTIT2TETN","bank_code":7080,"bank":"CREDITO ETNEO - BANCA DI CREDITOCOOEPRATIVO S.C.R.L.","branch_code":0,"branch":"SEDE DI CATANIA","zip":"95123","city":"CATANIA","address":"VIA CESARE BECCARIA, 1","support_codes":15},
{"id":7082,"swift_code":"ICRAITM1XXX","bank_code":7082,"bank":"BANCA DI CREDITO COOPERATIVO DI MINERBIO","branch_code":0},
{"id":7083,"swift_code":"ICRAITRRU30","bank_code":7083,"bank":"BANCA DI CREDITO COOPERATIVO PRIVERNATE S.C.P.A.R.L.","branch_code":0,"branch":"ATM ROCCASECCA","zip":"04010","city":"ROCCASECCA DEI VOLSCI","address":"VIA MEATO","support_codes":15},
{"id":7084,"swift_code":"ICRAITRRU40","bank_code":7084,"bank":"BANCA DELLA MARCA CREDITO COOPERATIVO - SOCIETA' COOPARAT","branch_code":0,"branch":"FAVARO VENETO","zip":"30173","city":"VENEZIA","address":"VIA SAN DONA' 380","support_codes":15},
{"id":7085,"swift_code":"ICRAITRRU50","bank_code":7085,"bank":"CREDITO COOPERATIVO FRIULI SCRL","branch_code":0,"branch":"SUCCURSALE DI FIUMICELLO","zip":"33050","city":"FIUMICELLO VILLA VICENTINA","address":"VIA GRAMSCI 5","support_codes":15},
{"id":7086,"swift_code":"ICRAITRRU60","bank_code":7086,"bank":"BANCA DI CREDITO COOPERATIVO DELL'ADRIATICO TERAMANO S.C.R.L","branch_code":0,"branch":"FILIALE DI ATRI","zip":"64032","city":"ATRI","address":"VIA CIRCONVALLAZIONE EST","support_codes":15},
{"id":7087,"swift_code":"ICRAITRRU70","bank_code":7087,"bank":"BANCA DI TARANTO B.C.C.","branch_code":0,"branch":"BANCA DI TARANTO BCC","zip":"74123","city":"TARANTO","address":"VIA SS. ANNUNZIATA 13","support_codes":15},
{"id":7090,"swift_code":"CCRTIT2TMAL","bank_code":7090,"bank":"BANCA MALATESTIANA - CREDITO COOPERATIVO S.C.","branch_code":0,"branch":"FILIALE POGGIO TORRIANA","zip":"47824","city":"POGGIO TORRIANA","address":"VIA SANTARCANGIOLESE 3102","support_codes":15},
{"id":7091,"swift_code":"ICRAITRRUB0","bank_code":7091,"bank":"BANCA DEL CATANZARESE-CREDITO COOPERATIVO-SC","branch_code":0,"branch":"BANCA DEL CATANZARESE","zip":"88100","city":"CATANZARO","address":"VIA LUCREZIA DELLA VALLE NR 19 11","support_codes":15},
{"id":7092,"swift_code":"CCRTIT2TCRT","bank_code":7092,"bank":"BANCA DI CREDITO COOPERATIVO DEI CASTELLI ROMANI E DEL TUSCO","branch_code":0,"branch":"FILIALE DI SANTA PALOMBA","zip":"00134","city":"ROMA","address":"VIA ARDEATINA 2485","support_codes":15},
{"id":7094,"swift_code":"ICRAITRRUE0","bank_code":7094,"bank":"BANCA DI CREDITO COOPERATIVO DI MASSAFRA","branch_code":0,"branch":"FILIALE DI MASSAFRA","zip":"74016","city":"MASSAFRA","address":"VIALE MAZZINI 65A","support_codes":15},
{"id":7095,"swift_code":"ICRAITR1UF1","bank_code":7095,"bank":"BANCA APUANA - CREDITO COOPERATIVO DI MASSA CARRARA S.","branch_code":0,"branch":"BANCA APUANA CREDITO COOPERATIVO","zip":"54100","city":"MASSA","address":"VIALE EUGENIO CHIESA, 4","support_codes":15},
{"id":7096,"swift_code":"ICRAITRRUG0","bank_code":7096,"bank":"BANCA DI CREDITO COOPERATIVO DI CAGLIARI","branch_code":0,"branch":"SEDE DI CAGLIARI","zip":"09123","city":"CAGLIARI","address":"VIALE TRIESTE, 172","support_codes":15},
{"id":7098,"swift_code":"ICRAITRRUI0","bank_code":7098,"bank":"BANCA DI CREDITO COOPERATIVO \"ANTONELLO DA MESSINA\"","branch_code":0,"branch":"SEDE MASSINA","zip":"98122","city":"MESSINA","address":"PIAZZA DUOMO 15-17","support_codes":15},
{"id":7099,"swift_code":"ICRAITRRJT0","bank_code":7099,"bank":"CREDITO ARETUSEO BCCSOC.COOP.SFUS.BCC DI PACHINO(SIRACUSA)SCR","branch_code":0,"branch":"SEDE","zip":"96100","city":"SIRACUSA","address":"VIA SENATORE DI GIOVANNI, 27 A-B-C","support_codes":15},
{"id":7100,"swift_code":"ICRAITRRUK0","bank_code":7100,"bank":"BANCA DI CREDITO COOPERATIVO DELLA CONTEA DI MODICA SOC. COO","branch_code":0,"branch":"BCC CONTEA DI MODICA - FILIALE DI SEDE","zip":"97015","city":"MODICA","address":"VIALE DEGLI OLEANDRI 3","support_codes":15},
{"id":7101,"swift_code":"ICRAITRRUL0","bank_code":7101,"bank":"BANCA DI ANDRIA DI CREDITO COOP S.R.L.","branch_code":0,"branch":"SEDE DI ANDRIA","zip":"70031","city":"ANDRIA","address":"VIALE DON L. STURZO 13","support_codes":15},
{"id":7104,"swift_code":"ICRAITRRXXX","bank_code":7104,"bank":"BCC BANCA DI SIRACUSA SOC.COOPFUS BCC LA RISCOSSA DI REGALBUT","branch_code":0,"branch":"SEDE","zip":"96100","city":"SIRACUSA","address":"VIALE TERACATI, 172","support_codes":15},
{"id":7105,"swift_code":"ICRAITRRXXX","bank_code":7105,"bank":"BANCA DI CREDITO COOPERATIVO ''LUIGI STURZO'' DI CALTAGIRONE","branch_code":0,"support_codes":15},
{"id":7106,"swift_code":"ICRAIT3FXXX","bank_code":7106,"bank":"BANCA DI CREDITO COOPERATIVO DI SIGNA","branch_code":0,"address":"VIA PROVINCIALE FRANCESCA NORD 78"},
{"id":7107,"swift_code":"ICRAITRRUR0","bank_code":7107,"bank":"BANCA DI RIPATRANSONE E DEL","branch_code":0,"branch":"SEDE DI FERMO","zip":"63023","city":"FERMO","address":"VIALE TRENTO, 72","support_codes":15},
{"id":7108,"swift_code":"ICRAITRRUS0","bank_code":7108,"bank":"BANCA DI CREDITO COOPERATIVO AGRIGENTINO","branch_code":0,"branch":"BANCA DI CREDITO COOPERATIVO AGRIGENTINO","zip":"92100","city":"AGRIGENTO","address":"VIALE LEONARDO SCIASCIA 158","support_codes":15},
{"id":7109,"swift_code":"SVIUITRRXXX","bank_code":7109,"bank":"BANCA DI CREDITO COOPERATIVO BA CA BRUTIA - SOCIETA' COOPERATIV","branch_code":0,"branch":"SEDE DI COSENZA","zip":"87100","city":"COSENZA","address":"PIAZZA ZUMBINI, 46\/52","support_codes":15},
{"id":7110,"swift_code":"ICRAITRRUU0","bank_code":7110,"bank":"BANCA DI CREDITO COOPERATIVO DI NAPOLI","branch_code":0,"branch":"SEDE","zip":"80133","city":"NAPOLI","address":"VIA ROBERTO BRACCO 27\/29","support_codes":15},
{"id":7111,"swift_code":"ROMAITRRXXX","bank_code":7111,"bank":"BANCA DI FRASCATI - DI COOPERATIVA","branch_code":0,"branch":"SEDE DI FRASCATI","zip":"00044","city":"FRASCATI","address":"VIA TUSCOLANA VECCHIA, 109","support_codes":15},
{"id":7112,"swift_code":"CRCBIT22XXX","bank_code":7112,"bank":"BANCA DI VIGEVANO CREDITO COOPERATIVO","branch_code":0,"branch":"SEDE DI VIGEVANO","zip":"27029","city":"VIGEVANO","address":"VIA TRIVULZIO, 23","support_codes":15},
{"id":7113,"swift_code":"ICRAITRRUX0","bank_code":7113,"bank":"BANCA DI CREDITO COOPERATIVO DI PUTIGNANO","branch_code":0,"branch":"PUTIGNANO BA","zip":"70017","city":"PUTIGNANO","address":"VIA MARGHERITA DI SAVOIA, 13","support_codes":15},
{"id":7114,"swift_code":"ICRAITRRUY0","bank_code":7114,"bank":"BCC DEGLI ERNICI S.C.P.A.","branch_code":0,"branch":"SEDE","zip":"03039","city":"SORA","address":"VIA ROMANA SELVA SNC","support_codes":15},
{"id":7115,"swift_code":"ICRAITRRUZ","bank_code":7115,"bank":"BCC DI SCANDICCI BANCO FIORENTINO","branch_code":0,"branch":"CRED. COOPERATIVO DI SCANDICCI","zip":"50018","city":"SCANDICCI","address":"VIA GAETANO DONIZETTI, 48-50","support_codes":15},
{"id":7116,"swift_code":"CCRTIT2TGSI","bank_code":7116,"bank":"BANCA DEL GRAN SASSO D'ITALIA - BANCA DI CREDITO COOPERATIVO SC","branch_code":0,"branch":"L'AQUILA SEDE","zip":"67100","city":"L'AQUILA","address":"VIA NICCOLO PERSICHETTI 44","support_codes":15},
{"id":7117,"swift_code":"ICRAITRRXXX","bank_code":7117,"bank":"ICCREA BANCA","branch_code":0,"branch":"RIVAROLO CANAVESE","zip":"10086","city":"RIVAROLO CANAVESE","address":"C.SO INDIPENDENZA, 74-A","support_codes":15},
{"id":7118,"swift_code":"ICRAITRRV20","bank_code":7118,"bank":"BANCA DI PARMA - CREDITO COOPER SOCIETA' COOPERATIVA","branch_code":0,"branch":"SEDE DI PARMA","zip":"43121","city":"PARMA","address":"VIA TANARA","support_codes":15},
{"id":7601,"swift_code":"BPPIITRRXXX","bank_code":7601,"bank":"POSTE ITALIANE SPA","branch_code":0,"branch":"TORINO V.R.","zip":"10100","city":"TORINO","address":"VIA ARSENALE, 5","support_codes":15},
{"id":7602,"swift_code":"CADPITRRXXX","bank_code":7602,"bank":"CASSA DEPOSITI E PRESTITI","branch_code":0,"branch":"CASSA DEPOSITI E PRESTITI","zip":"00185","city":"ROMA","address":"VIA GOITO, 4","support_codes":15},
{"id":8000,"swift_code":"ICRAITRRXXX","bank_code":8000,"bank":"ICCREA BANCA S.P.A. - ISTITUTOCENTRALE DEL CREDITO COOPERATIV","branch_code":0,"branch":"FILIALE DI MILANO","zip":"20132","city":"MILANO","address":"VIA C.ESTERLE, 11","support_codes":15},
{"id":8001,"swift_code":"ICRAITRR010","bank_code":8001,"bank":"MANTOVABANCA 1896 CREDITO COOPERATIVO S.C.R.L.","branch_code":0,"branch":"FILIALE DI MANTOVA","zip":"46100","city":"MANTOVA","address":"VIA ARRIVABENE N.25","support_codes":15},
{"id":8003,"swift_code":"ICRAITRR030","bank_code":8003,"bank":"VIVAL BANCA - BCC DI MONTECATINITERME BIENTINA E S.","branch_code":0,"branch":"FILIALE SEDE DI PISTOIA","zip":"51100","city":"PISTOIA","address":"VIA PROVINCIALE LUCCHESE 125B","support_codes":15},
{"id":8010,"swift_code":"RZSBIT21008","bank_code":8010,"bank":"CASSA RAIFFEISEN VAL BADIA SCRL","branch_code":0,"branch":"BADIA-ABTEI VIA NAZIONALE, 18","zip":"39036","city":"BADIA-ABTEI","address":"VIA NAZIONALE, 18","support_codes":15},
{"id":8011,"swift_code":"CCRTIT2T01A","bank_code":8011,"bank":"CASSA RURALE VALLAGARINA -B.C.C . S.C.","branch_code":0,"branch":"FILIALE DI ROVERETO","zip":"38068","city":"ROVERETO","address":"VIA BARATTIERI ANGOLO VIA PIOMARTA","support_codes":15},
{"id":8013,"swift_code":"CCRTIT2T03A","bank_code":8013,"bank":"CASSA RURALE DI TRENTO BANCA DI CREDITO COOPERATIVO SOC. COOP.","branch_code":0,"branch":"RAVINA","zip":"38123","city":"TRENTO","address":"VIA DELLA CROCE, 4-1","support_codes":15},
{"id":8015,"swift_code":"RZSBIT21002","bank_code":8015,"bank":"CASSA RAIFFEISEN DI ANDRIANO SOC. COOP","branch_code":0,"branch":"ANDRIANO-ANDRIAN PIAZZA S-URBANO 10","zip":"39010","city":"ANDRIANO-ANDRIAN","address":"PIAZZA S-URBANO 10","support_codes":15},
{"id":8016,"swift_code":"CCRTIT2T04A","bank_code":8016,"bank":"CASSA RURALE ALTO GARDA BANCA DI CREDITO COOPERATIVO SOCIETA'","branch_code":0,"branch":"FILIALE DI TRENTO","zip":"38122","city":"TRENTO","address":"VIA PERINI, 33-35","support_codes":15},
{"id":8019,"swift_code":"ICRAITRRTI0","bank_code":8019,"bank":"CASSA RURALE ED ARTIGIANA DI ALBIDONA","branch_code":0,"branch":"FILIALE DI AMENDOLARA","zip":"87070","city":"AMENDOLARA","address":"VIALE CALABRIA, 2-4-6","support_codes":15},
{"id":8020,"swift_code":"RZSBIT21009","bank_code":8020,"bank":"CASSA RAIFFEISEN ALTA PUSTERIAS.A.R.L.","branch_code":0,"branch":"SEDE","zip":"39038","city":"SAN CANDIDO-INNICHEN","address":"PIAZZA DEL MAGISTRATO, 3","support_codes":15},
{"id":8024,"swift_code":"CCRTIT2T05A","bank_code":8024,"bank":"CASSA RURALE ADAMELLO BCC","branch_code":0,"branch":"DAONE","zip":"38080","city":"VALDAONE","address":"VIA ORTI 11-A","support_codes":15},
{"id":8026,"swift_code":"CCRTIT2T06A","bank_code":8026,"bank":"CASSA RURALE DI LEDRO BANCA DICREDITO COOPERATIVO S.C.P.A. A","branch_code":0,"branch":"FILIALE RIVA DEL GARDA","zip":"38066","city":"RIVA DEL GARDA","address":"VIALE MARTIRI XXVIII GIUGNO N. 2","support_codes":15},
{"id":8030,"swift_code":"ICRAITRR0U0","bank_code":8030,"bank":"BANCA DI CREDITO COOPERATIVO DI BORGHETTO LODIGIANO S.C.R.L.","branch_code":0,"branch":"FILIALE 07 VILLANOVA DEL SILLARO","zip":"26818","city":"VILLANOVA DEL SILLARO","address":"VIA SANT'ANGELO","support_codes":15},
{"id":8031,"swift_code":"CCRTIT2T40A","bank_code":8031,"bank":"CASSA RURALE DI BRENTONICO BANCADI CREDITO COOPERATIVO SCP","branch_code":0,"branch":"BRENTONICO VIA ROMA 24 - B","zip":"38060","city":"BRENTONICO","address":"VIA ROMA 24 - B","support_codes":15},
{"id":8035,"swift_code":"RZSBIT21005","bank_code":8035,"bank":"CASSA RAIFFEISEN DI BRUNICO SCRLRAIFFEISENKASSE BRUNECK GEN","branch_code":0,"branch":"BRUNICO-BRUNECK PRACK ZU ASCH STRASSE, 1","zip":"39031","city":"BRUNICO-BRUNECK","address":"PRACK ZU ASCH STRASSE, 1","support_codes":15},
{"id":8039,"swift_code":"ICRAITRRXXX","bank_code":8039,"bank":"BANCA DEL CILENTO DI SASSANO EVALLO DI DIANO E DELLA LUCANIA","branch_code":0,"branch":"B.C.C.SASSANO FIL.DI SANT'ANGELO LE FRAT","zip":"85050","city":"SANT'ANGELO LE FRATTE","address":"STRADA COMUNALE, 3","support_codes":15},
{"id":8042,"swift_code":"CCRTIT2T10B","bank_code":8042,"bank":"CASSA RURALE DI RABBI E CALDES SCRL BCC","branch_code":0,"branch":"FILIALE DI CALDES","zip":"38022","city":"CALDES","address":"VIA 4 NOVEMBRE 8","support_codes":15},
{"id":8043,"swift_code":"CCRTIT2TXXX","bank_code":8043,"bank":"CASSA RURALE ALTA VALSUGANA BANCA DI CREDITO COOPERATIVO -","branch_code":0,"branch":"CALCERANICA AL LAGO VIA DONEGAI 8","zip":"38050","city":"CALCERANICA AL LAGO","address":"VIA DONEGAI 8","support_codes":15},
{"id":8055,"swift_code":"CCRTIT2TXXX","bank_code":8055,"bank":"CASSA CENTRALE BANCA CREDITO COOPERATIVO DEL NORD EST S.P.A.","branch_code":0,"support_codes":15},
{"id":8056,"swift_code":"RZSBIT21011","bank_code":8056,"bank":"CASSA RAIFFEISEN CASTELROTTO -ORTISEI SOC. COOP","branch_code":0,"branch":"CASTELROTTO-KASTELRUTH PIAZZA KRAUSEN 2","zip":"39040","city":"CASTELROTTO-KASTELRUTH","address":"PIAZZA KRAUSEN 2","support_codes":15},
{"id":8057,"swift_code":"CCRTIT2T15A","bank_code":8057,"bank":"CASSA RURALE CENTROFIEMME - CAVALESE B.C.C. S.C.P.A.R.L.","branch_code":0,"branch":"FILIALE DI CARANO","zip":"38033","city":"CARANO","address":"VIA GIOVANNELLI 54-A","support_codes":15},
{"id":8060,"swift_code":"RZSBIT21047","bank_code":8060,"bank":"CASSA RAIFFEISEN DI CIARDES S.C.","branch_code":0,"branch":"CASTELBELLO CIARDES-KASTELBELL TSCHARS V","zip":"39020","city":"CASTELBELLO CIARDES-KASTELBELL TSCHARS","address":"VIA PRINCIPALE,15","support_codes":15},
{"id":8063,"swift_code":"CCRTIT2119H","bank_code":8063,"bank":"CASSA RURALE DI CONDINO FUS. CASSA RURALE ADAMELLO - BRENTA","branch_code":0,"branch":"BRIONE CONDINO","zip":"25060","city":"BRIONE","address":"CONDINO","support_codes":15},
{"id":8065,"swift_code":"RZSBIT21510","bank_code":8065,"bank":"CASSA RAIFFEISEN SCHLERN-ROSENGARTEN SOCIETA' CO","branch_code":0,"branch":"VIGO DI FASSA","zip":"38039","city":"VIGO DI FASSA","address":"STRADA REZIA 15","support_codes":15},
{"id":8066,"swift_code":"RZSBIT21024","bank_code":8066,"bank":"CASSA RAIFFEISEN ALTA VENOSTA SOC. COOP.","branch_code":0,"branch":"CURON VENOSTA-GRAUN IM VINSCHGAU NUMERO","zip":"39020","city":"CURON VENOSTA-GRAUN IM VINSCHGAU","address":"NUMERO CIVICO 7","support_codes":15},
{"id":8071,"swift_code":"ICRAITRR1Z0","bank_code":8071,"bank":"BANCA DI CREDITO COOPERATIVO DI VALLEDOLMO","branch_code":0,"branch":"BANCA DI CREDITO COOPERATIVO DI VALLEDOL","zip":"90029","city":"VALLEDOLMO","address":"VIA VITTORIO EMANUELE III N.34","support_codes":15},
{"id":8078,"swift_code":"CCRTIT2T20A","bank_code":8078,"bank":"CASSA RURALE GIUDICARIE VALSABBIA PAGANELLA B.C.C.","branch_code":0,"branch":"FILIALE SAN LORENZO IN BANALE","zip":"38078","city":"SAN LORENZO DORSINO","address":"VIA PER PROMEGHIN, 3","support_codes":15},
{"id":8079,"swift_code":"CCRTIT2T21A","bank_code":8079,"bank":"CASSA RURALE BASSA ANAUNIA","branch_code":0,"branch":"DENNO VIA C. BATTISTI 11","zip":"38010","city":"DENNO","address":"VIA C. BATTISTI 11","support_codes":15},
{"id":8080,"swift_code":"RZSBIT21238","bank_code":8080,"bank":"CASSA RAIFFEISEN DI DOBBIACO SCRL-RAIFFEISENKASSE TOBLACH GM","branch_code":0,"branch":"DOBBIACO-TOBLACH VIA CONTE KUENIGL,1","zip":"39034","city":"DOBBIACO-TOBLACH","address":"VIA CONTE KUENIGL,1","support_codes":15},
{"id":8081,"swift_code":"RZSBIT21003","bank_code":8081,"bank":"CASSA RURALE DI BOLZANO - RAIFFEISENKASSE BOZEN","branch_code":0,"branch":"SEDE","zip":"39100","city":"BOLZANO-BOZEN","address":"VIA DE LAI, 2","support_codes":15},
{"id":8083,"swift_code":"CCRTIT2TXXX","bank_code":8083,"bank":"CASSA RURALE ED ARTIGIANA DI FISCIANO","branch_code":0,"branch":"CRA BCC DI FISCIANO - FILIALE DI MONTORO","zip":"83025","city":"MONTORO","address":"VIA RISORGIMENTO, 8 10 12 14","support_codes":15},
{"id":8086,"swift_code":"ICRAITRR2E0","bank_code":8086,"bank":"BANCA DI ANCONA E FALCONARA MARITTIMA CREDITO COOPERATIVO S","branch_code":0,"branch":"SEDE CENTRALE","zip":"60100","city":"ANCONA","address":"VIA MAGGINI, 116","support_codes":15},
{"id":8088,"swift_code":"CCRTIT2T22A","bank_code":8088,"bank":"CASSA RURALE DON LORENZO GUETTI DI QUADRA FIAVE LOMASO BCC","branch_code":0,"branch":"LARIDO","zip":"38071","city":"BLEGGIO SUPERIORE","support_codes":15},
{"id":8091,"swift_code":"CCRTIT2T23A","bank_code":8091,"bank":"CASSA RURALE DEGLI ALTIPIANI BANCA DI CREDITO COOPERATIVO","branch_code":0,"branch":"FILIALE DI ROVERETO","zip":"38068","city":"ROVERETO","address":"VIA BARATTIERI ANGOLO VIA PIOMARTA","support_codes":15},
{"id":8094,"swift_code":"RZSBIT21049","bank_code":8094,"bank":"CASSA RAIFFEISEN DI FUNES SC RAIFFEISENKASSE VILLNOSS G.M.B.","branch_code":0,"branch":"FUNES-VILLNOSS NUMERO CIVICO,119","zip":"39040","city":"FUNES-VILLNOSS","address":"NUMERO CIVICO,119","support_codes":15},
{"id":8095,"swift_code":"CCRTIT2TQ00","bank_code":8095,"bank":"CREDITO COOPERATIVO REGGIANO S.C.R.L.","branch_code":0,"branch":"REGGIO EMILIA OVEST","zip":"42124","city":"REGGIO NELL'EMILIA","address":"LARGO GIAMBELLINO 1","support_codes":15},
{"id":8100,"swift_code":"CCRTIT2T26A","bank_code":8100,"bank":"CASSA RURALE DI GIOVO BCC","branch_code":0,"branch":"FILIALE DI CEMBRA","zip":"38034","city":"CEMBRA LISIGNAGO","address":"VIALE 4 NOVEMBRE, 26","support_codes":15},
{"id":8102,"swift_code":"CCRTIT2T27A","bank_code":8102,"bank":"CASSA RURALE VALSUGANA E TESINO BCC - SOCIETA' COOPERATIVA","branch_code":0,"branch":"CASTEL IVANO","zip":"38059","city":"CASTEL IVANO","address":"PIAZZA MUNICIPIO 11","support_codes":15},
{"id":8107,"swift_code":"CCRTIT2T29A","bank_code":8107,"bank":"CASSA RURALE DI ISERA BANCA DICREDITO COOPERATIVO SOCIET COO","branch_code":0,"branch":"SEDE","zip":"38060","city":"ISERA","address":"PIAZZA SAN VINCENZO 11","support_codes":15},
{"id":8110,"swift_code":"RZSBIT21015","bank_code":8110,"bank":"CASSA RAIFFEISEN LACES SOCIETACOOPERATIVA","branch_code":0,"branch":"LACES-LATSCH VIA PRINCIPALE,38","zip":"39021","city":"LACES-LATSCH","address":"VIA PRINCIPALE,38","support_codes":15},
{"id":8112,"swift_code":"RZSBIT21001","bank_code":8112,"bank":"CASSA RAIFFEISEN DI LAGUNDO SCRL","branch_code":0,"branch":"SEDE LAGUNDO","zip":"39022","city":"LAGUNDO-ALGUND","address":"VIA STRADA VECCHIA,21","support_codes":15},
{"id":8113,"swift_code":"RZSBIT21013","bank_code":8113,"bank":"CASSA RAIFFEISEN BASSA VALL'ISARCO S.C.","branch_code":0,"branch":"BARBIANO-BARBIAN VIA SAN GIACOMO, 35","zip":"39040","city":"BARBIANO-BARBIAN","address":"VIA SAN GIACOMO, 35","support_codes":15},
{"id":8114,"swift_code":"RZSBIT21317","bank_code":8114,"bank":"CASSA RAIFFEISEN BASSA ATESINAS.C. TRAMITE ABI 3493","branch_code":0,"branch":"FIL.BRANZOLL","zip":"39051","city":"BRONZOLO-BRANZOLL","address":"REICHSSTRASSE 57","support_codes":15},
{"id":8115,"swift_code":"RZSBIT21014","bank_code":8115,"bank":"CASSA RAIFFEISEN DI LANA S.C. RAIFFEISENKASSE LANA GEN.D.OB.","branch_code":0,"branch":"FIL. CERMES","zip":"39010","city":"CERMES-TSCHERMS","address":"VIA DELLE PALADE, 22","support_codes":15},
{"id":8117,"swift_code":"RZSBIT21012","bank_code":8117,"bank":"CASSA RAIFFEISEN DI LASA S.C. RAIFFEISENKASSE LAAS GEN.M.B.H.","branch_code":0,"branch":"LASA-LAAS VIA VENOSTA,48","zip":"39023","city":"LASA-LAAS","address":"VIA VENOSTA,48","support_codes":15},
{"id":8120,"swift_code":"CCRTIT2T30A","bank_code":8120,"bank":"CASSA RURALE LAVIS - MEZZOCORONA - VALLE DI CEMBRA B","branch_code":0,"branch":"FILIALE GARDOLO","zip":"38121","city":"TRENTO","address":"VIA SOPRASSASSO 42","support_codes":15},
{"id":8121,"swift_code":"CCRTIT2TXXX","bank_code":8121,"bank":"CASSA RURALE ALTA VALSUGANA BANCA DI CREDITO COOPERATIVO -","branch_code":0,"branch":"LEVICO TERME VIA DANTE 3","zip":"38056","city":"LEVICO TERME","address":"VIA DANTE 3","support_codes":15},
{"id":8123,"swift_code":"CCRTIT2T33A","bank_code":8123,"bank":"CASSA RURALE DI LIZZANA BANCA DI CREDITO COOPERATIVO S.C.P.A.","branch_code":0,"branch":"LIZZANA","zip":"38068","city":"ROVERETO","address":"PIAZZA F. GUELLA 1-G","support_codes":15},
{"id":8126,"swift_code":"ICRAITRR3I0","bank_code":8126,"bank":"BANCA DI CREDITO COOPERATIVO DI MONTEPAONE SCRL (CZ)","branch_code":0,"branch":"BCC DI MONTEPAONE FIL CATANZARO LIDO","zip":"88100","city":"CATANZARO","address":"VIA FRANCESCO CARACCIOLO, 1","support_codes":15},
{"id":8129,"swift_code":"ICRAITRRXXX","bank_code":8129,"bank":"BANCA DI CREDITO COOPERATIVO DELBELICE S.C.R.L.","branch_code":0,"support_codes":15},
{"id":8132,"swift_code":"CCRTIT2T34A","bank_code":8132,"bank":"CASSA RURALE ALTO GARDA","branch_code":0,"branch":"FILIALE VIGOLO BASELGA","zip":"38123","city":"TRENTO","address":"PIAZZA SAN LEONARDO, 5","support_codes":15},
{"id":8133,"swift_code":"RZSBIT21019","bank_code":8133,"bank":"CASSA RAIFFEISEN MERANO SOC. COOP. A R.L.","branch_code":0,"branch":"FILIALE AVELENGO","zip":"39010","city":"AVELENGO-HAFLING","address":"VIA S. CATERINA 2A","support_codes":15},
{"id":8134,"swift_code":"RZSBIT21018","bank_code":8134,"bank":"CASSA RAIFFEISEN DI MARLENGO SOC. COOP.","branch_code":0,"branch":"SEDE","zip":"39020","city":"MARLENGO-MARLING","address":"VIA FRANZ INNERHOFER, 3","support_codes":15},
{"id":8135,"swift_code":"RZSBIT21020","bank_code":8135,"bank":"CASSA RAIFFEISEN DI MELTINA SCRL RAIFFEISENKASSE MOELTEN GM","branch_code":0,"branch":"MELTINA-MOLTEN NUMERO CIVICO 1","zip":"39010","city":"MELTINA-MOLTEN","address":"NUMERO CIVICO 1","support_codes":15},
{"id":8138,"swift_code":"CCRTIT2T36A","bank_code":8138,"bank":"CASSA RURALE DI MEZZOCORONA B.C.C. S.C.P.A.R.L.","branch_code":0,"branch":"MEZZOCORONA VIA DANTE ALIGHIERI 8","zip":"38016","city":"MEZZOCORONA","address":"VIA DANTE ALIGHIERI 8","support_codes":15},
{"id":8139,"swift_code":"CCRTIT2T37A","bank_code":8139,"bank":"CASSA RURALE ROTALIANA E GIOVOBANCA DI CREDITO COOPERATIVO","branch_code":0,"branch":"FILIALE DI CEMBRA","zip":"38034","city":"CEMBRA LISIGNAGO","address":"VIALE 4 NOVEMBRE, 26 CEMBRA","support_codes":15},
{"id":8140,"swift_code":"CCRTIT2T38A","bank_code":8140,"bank":"CASSA RURALE DOLOMITI DI FASSA PRIMIERO E BELLUNO","branch_code":0,"branch":"FILIALE DI TRANSACQUA","zip":"38054","city":"PRIMIERO SAN MARTINO DI CASTROZZA","address":"VIA RISORGIMENTO 5","support_codes":15},
{"id":8145,"swift_code":"CCRTIT2T40A","bank_code":8145,"bank":"CASSA RURALE MORI - BRENTONICO- VAL DI GRESTA - BCC SC","branch_code":0,"branch":"FILIALE DI BRENTONICO","zip":"38060","city":"BRENTONICO","address":"VIA ROMA, 24","support_codes":15},
{"id":8148,"swift_code":"RZSBIT21052","bank_code":8148,"bank":"CASSA RURALE MONGUELFO-CASIES-TESIDO","branch_code":0,"branch":"SEDE","zip":"39035","city":"MONGUELFO-WELSBERG","address":"VIA PUSTERIA,9","support_codes":15},
{"id":8149,"swift_code":"ICRAITRR450","bank_code":8149,"bank":"BANCA DI CREDITO COOPERATIVO DI BASCIANO","branch_code":0,"branch":"BANCA DI CREDITO COOPERATIVO DI BASCIANO","zip":"64100","city":"TERAMO","address":"VIA C.COLOMBO 23","support_codes":15},
{"id":8154,"swift_code":"ICRAITRR4A0","bank_code":8154,"bank":"BANCA DEL CILENTO DI SASSANO EVALLO DI DIANO E DELLA LUCANIA","branch_code":0,"branch":"FILIALE DI PERITO","zip":"84060","city":"PERITO","address":"C.SO EUROPA","support_codes":15},
{"id":8155,"swift_code":"RZSBIT21021","bank_code":8155,"bank":"CASSA RAIFFEISEN DI NALLES SOC. COOP.","branch_code":0,"branch":"NALLES-NALS VIA GREGOR GASSER,2","zip":"39010","city":"NALLES-NALS","address":"VIA GREGOR GASSER,2","support_codes":15},
{"id":8157,"swift_code":"RZSBIT21022","bank_code":8157,"bank":"CASSA RAIFFEISEN BASSA VENOSTASC","branch_code":0,"branch":"PALUS-PLAUS","zip":"39025","city":"PALUS-PLAUS","support_codes":15},
{"id":8161,"swift_code":"RZSBIT21053","bank_code":8161,"bank":"CASSA RAIFFEISEN NOVA LEVANTE S.C.R.L.","branch_code":0,"branch":"FILIALE DI VIGO DI FASSA","zip":"38039","city":"VIGO DI FASSA","address":"VIA ROMA, 27","support_codes":15},
{"id":8162,"swift_code":"RZSBIT21006","bank_code":8162,"bank":"CASSA RAIFFEISEN DI NOVA PONENTE-ALDINO SOC. COOP. A R.L","branch_code":0,"branch":"ALDINO-ALDEIN PIAZZA PAESE, 5","zip":"39040","city":"ALDINO-ALDEIN","address":"PIAZZA PAESE, 5","support_codes":15},
{"id":8163,"swift_code":"CCRTIT2T43A","bank_code":8163,"bank":"CASSA RURALE VAL DI SOLE","branch_code":0,"branch":"FILIALE DI DIMARO","zip":"38025","city":"DIMARO FOLGARIDA","address":"VIA CAMPIGLIO, 104","support_codes":15},
{"id":8167,"swift_code":"CCRTIT2T45A","bank_code":8167,"bank":"CASSA RURALE VALSUGANA E TESINO","branch_code":0,"branch":"FILIALE DI OLLE","zip":"38050","city":"BORGO VALSUGANA","address":"VIA S.BARTOLOMEO DEL CERVO, 2","support_codes":15},
{"id":8175,"swift_code":"RZSBIT21025","bank_code":8175,"bank":"CASSA RAIFFEISEN DI PARCINES S.C.","branch_code":0,"branch":"PARCINES-PARTSCHINS VIA SPAUREGG, 12","zip":"39020","city":"PARCINES-PARTSCHINS","address":"VIA SPAUREGG, 12","support_codes":15},
{"id":8178,"swift_code":"CCRTIT2T47A","bank_code":8178,"bank":"CASSA RURALE ALTA VALSUGANA BANCA DI CREDITO COOPERATIVO -","branch_code":0,"branch":"FIL. TRENTO","zip":"38122","city":"TRENTO","address":"VIA PIAVE, 20","support_codes":15},
{"id":8179,"swift_code":"CCRTIT2T48A","bank_code":8179,"bank":"CASSA RURALE DI PINZOLO","branch_code":0,"branch":"PINZOLO VIALE G. MARCONI","zip":"38086","city":"PINZOLO","address":"VIALE G. MARCONI","support_codes":15},
{"id":8182,"swift_code":"RZSBIT21054","bank_code":8182,"bank":"CASSA RAIFFEISEN WIPPTAL SCRL","branch_code":0,"branch":"FILIALE DI GOSSENSASS","zip":"39041","city":"BRENNERO-BRENNER","address":"PIAZZA PARROCCHIA, 4","support_codes":15},
{"id":8183,"swift_code":"RZSBIT21027","bank_code":8183,"bank":"CASSA RAIFFEISEN PRATO-TUBRE SOC.COOP","branch_code":0,"branch":"FIL. GLORENZA","zip":"39020","city":"GLORENZA-GLURNS","address":"PIAZZA CITTA, 3","support_codes":15},
{"id":8184,"swift_code":"CCRTIT2T50A","bank_code":8184,"bank":"CASSA RURALE VAL DI FIEMME BANCA DI CREDITO COOPERATIVO","branch_code":0,"branch":"FILIALE DI CARANO","zip":"38030","city":"VILLE DI FIEMME","address":"VIA GIOVANELLI, 36","support_codes":15},
{"id":8186,"swift_code":"CCRTIT2TPRE","bank_code":8186,"bank":"BANCA PREALPI SAN BIAGIO","branch_code":0,"branch":"FILIALE DI NOVENTA VICENTINA","zip":"36025","city":"NOVENTA VICENTINA","address":"VIA CARLO PORTA 5","support_codes":15},
{"id":8187,"swift_code":"CCRTIT2TRIT","bank_code":8187,"bank":"CASSA RURALE RENON SOC. COOP. RAIFFEISENKASSE RITTEN GEN.","branch_code":0,"branch":"CASSA RURALE RENON SOC.COOP.","zip":"39100","city":"BOLZANO-BOZEN","address":"VIA WEGGENSTEIN 38                      WEGGENSTEINSTRASSE 38","support_codes":15},
{"id":8189,"swift_code":"ICRAITRR59Z","bank_code":8189,"bank":"BANCA DI CREDITO COOPERATIVO DELLA VALLE DEL TRIGNO","branch_code":0,"branch":"FILIALE DI CAMPOBASSO","zip":"86100","city":"CAMPOBASSO","address":"VIA XXV APRILE N.25","support_codes":15},
{"id":8200,"swift_code":"CCRTIT2T54A","bank_code":8200,"bank":"CASSA RURALE NOVELLA E ALTA ANAUNIA B.C.C. S.C.","branch_code":0,"branch":"FILIALE DI BREZ","zip":"38021","city":"BREZ","address":"VIA NIGAIOLA                            1-A","support_codes":15},
{"id":8206,"swift_code":"CCRTIT2T27A","bank_code":8206,"bank":"CASSA RURALE VALSUGANA E TESINO","branch_code":0,"branch":"RONCEGNO VIA FRONER 3","zip":"38050","city":"RONCEGNO","address":"VIA FRONER 3","support_codes":15},
{"id":8209,"swift_code":"CCRTIT2T56A","bank_code":8209,"bank":"CASSA RURALE DI ROVERE'DELLA LUNA","branch_code":0,"branch":"SEDE - ROVERE' DELLA LUNA","zip":"38030","city":"ROVERE' DELLA LUNA","address":"VIA ANTONIO ROSMINI 3","support_codes":15},
{"id":8210,"swift_code":"CCRTIT2T57A","bank_code":8210,"bank":"CASSA RURALE DI ROVERETO - BANCADI CREDITO COOPERATIVO SOC","branch_code":0,"branch":"ROVERETO VIA MANZONI","zip":"38068","city":"ROVERETO","address":"VIA MANZONI","support_codes":15},
{"id":8214,"swift_code":"ICRAITRR5Y0","bank_code":8214,"bank":"CREDICOOP CERNUSCO SUL NAVIGLIO SC","branch_code":0,"branch":"SEDE","zip":"20063","city":"CERNUSCO SUL NAVIGLIO","address":"PIAZZA UNITA D ITALIA 1-2","support_codes":15},
{"id":8220,"swift_code":"RZSBIT21031","bank_code":8220,"bank":"CASSA RURALE DI SALORNO","branch_code":0,"branch":"CORTACCIA SULLA STRADA DEL VINO-KURTATSC","zip":"39040","city":"CORTACCIA SULLA STRADA DEL VINO-KURTATSC","address":"PIAZZA SCHWEIGGL, 6","support_codes":15},
{"id":8226,"swift_code":"CCRTIT2TSMP","bank_code":8226,"bank":"CASSA RAIFFEISEN DI SAN MARTINO IN PASSIRIA S.C.","branch_code":0,"branch":"SAN MARTINO IN PASSIRIA-SANKT MARTIN IN","zip":"39010","city":"SAN MARTINO IN PASSIRIA-SANKT MARTIN IN","address":"VIA GIOVO, 7","support_codes":15},
{"id":8231,"swift_code":"RZSBIT21039","bank_code":8231,"bank":"CASSA RURALE DI ULTIMO - S. PANCRAZIO - LAUREGNO S.C.R.L.","branch_code":0,"branch":"LAUREGNO-LAUREIN VIA CENTRO 1","zip":"39040","city":"LAUREGNO-LAUREIN","address":"VIA CENTRO 1","support_codes":15},
{"id":8232,"swift_code":"CCRTIT2T60A","bank_code":8232,"bank":"CASSA RURALE DI SAONE - BANCA DI CREDITO COOPERATIVO S.C.P.A.","branch_code":0,"branch":"FILIALE DI SELLA GIUDICARIE","zip":"38087","city":"SELLA GIUDICARIE","address":"VIA MARGEN, 5","support_codes":15},
{"id":8233,"swift_code":"RZSBIT21032","bank_code":8233,"bank":"CASSA RAIFFEISEN VAL SARENTINOS.C.","branch_code":0,"branch":"SARENTINO-SARNTAL PIAZZA DELLA CHIESA,5","zip":"39058","city":"SARENTINO-SARNTAL","address":"PIAZZA DELLA CHIESA,5","support_codes":15},
{"id":8234,"swift_code":"RZSBIT21033","bank_code":8234,"bank":"CASSA RAIFFEISEN DI SCENA SC RAIFFEISENKASSE SCHENNA GEN.","branch_code":0,"branch":"SCENA-SCHENNA PIAZZA ARCIDUCA GIOVANNI,2","zip":"39017","city":"SCENA-SCHENNA","address":"PIAZZA ARCIDUCA GIOVANNI,2","support_codes":15},
{"id":8238,"swift_code":"RZSBIT21055","bank_code":8238,"bank":"CASSA RAIFFEISEN VAL GARDENA SOCIETA' COOPERATIVA","branch_code":0,"branch":"FILIALE DI ORTISEI","zip":"39046","city":"ORTISEI-SANKT ULRICH IN GRODEN","address":"VIA REZIA, 175","support_codes":15},
{"id":8239,"swift_code":"RZSBIT21035","bank_code":8239,"bank":"CASSA RAIFFEISEN DI SENALES SCRLRAIFFEISENKASSE SCHNALS G.M","branch_code":0,"branch":"SENALES-SCHNALS VIA MADONNA 84","zip":"39020","city":"SENALES-SCHNALS","address":"VIA MADONNA 84","support_codes":15},
{"id":8244,"swift_code":"RZSBIT21034","bank_code":8244,"bank":"CASSA RAIFFEISEN SILANDRO SCRLRAIFFEISENKASSE SCHLANDERS GMBH","branch_code":0,"branch":"SILANDRO-SCHLANDERS VIA PRINCIPALE, 33","zip":"39028","city":"SILANDRO-SCHLANDERS","address":"VIA PRINCIPALE, 33","support_codes":15},
{"id":8245,"swift_code":"CCRTIT2162E","bank_code":8245,"bank":"CASSA RURALE DI TRENTO","branch_code":0,"branch":"SUCCURSALE DI CAPRESE MICHELANGELO","zip":"52033","city":"CAPRESE MICHELANGELO","address":"VIA IL CERRO, 125","support_codes":15},
{"id":8248,"swift_code":"CCRTIT2T63A","bank_code":8248,"bank":"CASSA RURALE VAL RENDENA","branch_code":0,"branch":"FILIALE DI JAVRE'","zip":"38080","city":"PORTE DI RENDENA","address":"PIAZZA ALESSANDRO MANZONI, 1","support_codes":15},
{"id":8249,"swift_code":"RZSBIT21036","bank_code":8249,"bank":"CASSA RAIFFEISEN STILVES-TRENSSCRL - RAIFFEISENKASSE STILFES","branch_code":0,"branch":"CAMPO DI TRENS-FREIENFELD CIVICO N. 8\/B","zip":"39040","city":"CAMPO DI TRENS-FREIENFELD","address":"CIVICO N. 8\/B","support_codes":15},
{"id":8251,"swift_code":"CCRTIT2T05A","bank_code":8251,"bank":"CASSA RURALE ADAMELLO BANCA DI CREDITO COOPERATIVO","branch_code":0,"branch":"STREMBO PIAZZA RIGHI 1","zip":"38080","city":"STREMBO","address":"PIAZZA RIGHI 1","support_codes":15},
{"id":8252,"swift_code":"CCRTIT2TXXX","bank_code":8252,"bank":"CASSA CENTRALE BANCA CREDITO COOPERATIVO DEL NORD EST S.P.A.","branch_code":0,"support_codes":15},
{"id":8255,"swift_code":"RZSBIT21048","bank_code":8255,"bank":"CASSA RAIFFEISEN OLTRADIGE SCRL RAIFFEISENKASSE UBERETSCH GMBH","branch_code":0,"branch":"APPIANO SULLA STRADA DEL VINO-EPPAN AN D","zip":"39057","city":"APPIANO SULLA STRADA DEL VINO-EPPAN AN D","address":"PIAZZA MUNICIPIO, 13","support_codes":15},
{"id":8258,"swift_code":"CCRTIT2TCAL","bank_code":8258,"bank":"CREDITO COOPERATIVO CENTRO CALABRIA SOC.COOP","branch_code":0,"branch":"FILIALE DI CATANZARO LIDO","zip":"88063","city":"CATANZARO","address":"VIA CROTONE,","support_codes":15},
{"id":8263,"swift_code":"CCRTIT2T67A","bank_code":8263,"bank":"CASSA RURALE D'ANAUNIA BANCA DI CREDITO COOPERATIVO S.C.P.A.R.L","branch_code":0,"branch":"SEDE DI TAIO","zip":"38100","city":"PREDAIA","address":"Piazza di San Vittore, 3","support_codes":15},
{"id":8264,"swift_code":"CCRTIT2T68A","bank_code":8264,"bank":"CASSA RURALE DI TASSULLO E NANNO","branch_code":0,"branch":"TASSULLO","zip":"38019","city":"VILLE D'ANAUNIA","address":"PIAZZA PILATI, 15","support_codes":15},
{"id":8269,"swift_code":"RZSBIT21042","bank_code":8269,"bank":"CASSA RAIFFEISEN ETSCHTAL SOCIETA' COOPERATIVA","branch_code":0,"branch":"ANDRIAN","zip":"39010","city":"ANDRIANO-ANDRIAN","address":"ST.-URBAN-PLATZ 10","support_codes":15},
{"id":8273,"swift_code":"RZSBIT21045","bank_code":8273,"bank":"CASSA RAIFFEISEN DI TESIMO SCRL","branch_code":0,"branch":"TESIMO-TISENS VIA TESIMO 81","zip":"39010","city":"TESIMO-TISENS","address":"VIA TESIMO 81","support_codes":15},
{"id":8278,"swift_code":"RZSBIT21044","bank_code":8278,"bank":"CASSA RURALE DI TIROLO","branch_code":0,"branch":"FILIALE DI MERANO","zip":"39012","city":"MERANO-MERAN","address":"VIA DELLE CORSE, 124","support_codes":15},
{"id":8279,"swift_code":"CCRTIT2T72A","bank_code":8279,"bank":"CASSA RURALE VALLI DI PRIMIEROE VANOI B.C.C.","branch_code":0,"branch":"SEDE DI TRANSACQUA","zip":"38054","city":"PRIMIERO SAN MARTINO DI CASTROZZA","address":"VIA RISORGIMENTO, 5","support_codes":15},
{"id":8281,"swift_code":"RZSBIT2BXXX","bank_code":8281,"bank":"CASSA RAIFFEISEN DI TUBRE S.C.R.L.","branch_code":0,"support_codes":15},
{"id":8282,"swift_code":"CCRTIT2T73A","bank_code":8282,"bank":"CASSA RURALE VAL DI NON - B.C.C. SOCIETA' COOPERATIVA","branch_code":0,"branch":"FILIALE DI TAIO","zip":"38012","city":"PREDAIA","address":"PIAZZA DI SAN VITTORE 3                                                         TAIO","support_codes":15},
{"id":8285,"swift_code":"RZSBIT21040","bank_code":8285,"bank":"CASSA RAIFFEISEN TURES - AURINA S.COOP.","branch_code":0,"branch":"CAMPO TURES-SAND IN TAUFERS VIA TURES, 1","zip":"39032","city":"CAMPO TURES-SAND IN TAUFERS","address":"VIA TURES, 11","support_codes":15},
{"id":8295,"swift_code":"RZSBIT21050","bank_code":8295,"bank":"CASSA RAIFFEISEN DI VANDOIES SOC. COOP.","branch_code":0,"branch":"RIO DI PUSTERIA-MUHLBACH CIVICO, 92","zip":"39037","city":"RIO DI PUSTERIA-MUHLBACH","address":"CIVICO, 92","support_codes":15},
{"id":8302,"swift_code":"RZSBIT21023","bank_code":8302,"bank":"CASSA RAIFFEISEN DI VILLABASSASC - RAIFFEISENKASSE NIEDERDOR","branch_code":0,"branch":"FILIALE DI BRIAIES","zip":"39030","city":"BRAIES-PRAGS","address":"NUMERO CIVICO, 40","support_codes":15},
{"id":8304,"swift_code":"CCRTIT2T76A","bank_code":8304,"bank":"CASSA DI TRENTO LAVIS MEZZOCORONA E VALLE DI CEMBRA","branch_code":0,"branch":"GARDOLO","zip":"38121","city":"TRENTO","address":"PIAZZA DELLA LIBERTA' 3","support_codes":15},
{"id":8305,"swift_code":"CCRTIT2T77A","bank_code":8305,"bank":"CASSA RURALE ALTA VALLAGARINA E LIZZANA BANCA DI CREDITO COOPER","branch_code":0,"branch":"SEDE DI LIZZANA","zip":"38068","city":"ROVERETO","address":"PIAZZA F.GUELLA, 1-G","support_codes":15},
{"id":8307,"swift_code":"RZSBIT21007","bank_code":8307,"bank":"CASSA RURALE DELLA VALLE ISARCO","branch_code":0,"branch":"BRESSANONE-BRIXEN VIA CROCE,7","zip":"39042","city":"BRESSANONE-BRIXEN","address":"VIA CROCE,7","support_codes":15},
{"id":8309,"swift_code":"CCRTIT2TBCV","bank_code":8309,"bank":"CENTROVENETO BASSANO BANCA","branch_code":0,"branch":"FILIALE 1 DI BASSANO","zip":"36061","city":"BASSANO DEL GRAPPA","address":"VIALE VICENZA 93","support_codes":15},
{"id":8311,"swift_code":"ICRAITRRXXX","bank_code":8311,"bank":"ICCREA BANCA","branch_code":0,"branch":"FILIALE BARDOLINO","zip":"37011","city":"BARDOLINO","address":"VIA MARCONI                             60","support_codes":15},
{"id":8315,"swift_code":"ICRAITRR8R0","bank_code":8315,"bank":"VALPOLICELLA BENACO BANCA CREDITO COOPERATIVO (VERONA) SO","branch_code":0,"branch":"SUCCURSALE DI SAN MASSIMO","zip":"37139","city":"VERONA","address":"VIA BRIGATA REGINA, 1","support_codes":15},
{"id":8316,"swift_code":"CCRTIT2TXXX","bank_code":8316,"bank":"CASSA RURALE ALTA VALSUGANA BANCA DI CREDITO COOPERATIVO -","branch_code":0,"branch":"TRENTO","zip":"38122","city":"TRENTO","address":"VIA PIAVE 20","support_codes":15},
{"id":8320,"swift_code":"ICRAITRRTM0","bank_code":8320,"bank":"BANCA DI CREDITO COOPERATIVO DI BUCCINO","branch_code":0,"branch":"FELITTO","zip":"84055","city":"FELITTO","address":"PIAZZA MERCATO 3","support_codes":15},
{"id":8322,"swift_code":"ICRAITRR8Y0","bank_code":8322,"bank":"BANCA VERONESE - CREDITO COOPERATIVO DI CONCAMARISE S.C.","branch_code":0,"branch":"BANCA VERONESE CRED. COOP. CONCAMARISE","zip":"37137","city":"VERONA","address":"VIA MANTOVANA 93D","support_codes":15},
{"id":8324,"swift_code":"ICRAITRR900","bank_code":8324,"bank":"BANCA CENTROPADANA - CREDITO COOPERATIVO SCRL","branch_code":0,"branch":"MILANO","zip":"20123","city":"MILANO","address":"VIA SANTA MARIA FULCORINA 9","support_codes":15},
{"id":8325,"swift_code":"ICRAITRR910","bank_code":8325,"bank":"BANCO FIORENTINO-MUGELLO IMPRUNETA SIGNA-CREDITO COOPERA","branch_code":0,"branch":"FIRENZE","zip":"50133","city":"FIRENZE","address":"VIA FAENTINA 105","support_codes":15},
{"id":8326,"swift_code":"ICRAITRRXXX","bank_code":8326,"bank":"BANCA DI CREDITO COOPERATIVO","branch_code":0,"support_codes":15},
{"id":8327,"swift_code":"ROMAITRRXXX","bank_code":8327,"bank":"BANCA DI CREDITO COOPERATIVO DI ROMA SCRL","branch_code":0,"branch":"AG. 9","zip":"00198","city":"ROMA","address":"VIA ADIGE, 26","support_codes":15},
{"id":8329,"swift_code":"ICRAITRR950","bank_code":8329,"bank":"BCC BRIANZA E LAGHI SOCIETA' COOPERATIVA","branch_code":0,"branch":"FILIALE DI COMO","zip":"22100","city":"COMO","address":"VIA RUBINI 3","support_codes":15},
{"id":8330,"swift_code":"CCRTIT2T99A","bank_code":8330,"bank":"PRIMACASSA","branch_code":0,"branch":"FILIALE DI RIVIGNANO TEOR","zip":"33050","city":"RIVIGNANO TEOR","address":"PIAZZA DELLA VITTORIA 45","support_codes":15},
{"id":8331,"swift_code":"CCRTIT2TFEL","bank_code":8331,"bank":"BCC FELSINEA","branch_code":0,"branch":"FIL. PORRETTA TERME","zip":"40046","city":"ALTO RENO TERME","address":"VIA MAZZINI, 33","support_codes":15},
{"id":8332,"swift_code":"ICRAITRRD60","bank_code":8332,"bank":"BANCA DEL PICENO CREDITO COOPERATIVO","branch_code":0,"branch":"SAN BENEDETTO DEL TRONTO VIALE A.GRAMSCI","zip":"63039","city":"SAN BENEDETTO DEL TRONTO","address":"VIALE A.GRAMSCI, 29","support_codes":15},
{"id":8338,"swift_code":"CCRTIT2TALB","bank_code":8338,"bank":"BANCA DI CREDITO COOPERATIVO DI ALBEROBELLO","branch_code":0,"branch":"FILIALE DI MATERA","zip":"75100","city":"MATERA","address":"VIA LUCANA N. 123","support_codes":15},
{"id":8340,"swift_code":"CCRTIT2TPAD","bank_code":8340,"bank":"CASSA PADANA BANCA DI CREDITO COOPERATIVO S.C.R.L.","branch_code":0,"branch":"FILIALE DI SISSA","zip":"43018","city":"SISSA TRECASALI","address":"VIA MATTEOTTI 1","support_codes":15},
{"id":8341,"swift_code":"ICRAITRR9H0","bank_code":8341,"bank":"BANCA DI CREDITO COOPERATIVO DI ALTOFONTE E CACCAMO S.C","branch_code":0,"branch":"PALERMO VIALE REGIONE SICILIANA, 480\/482","zip":"90100","city":"PALERMO","address":"VIALE REGIONE SICILIANA, 480\/482","support_codes":15},
{"id":8342,"swift_code":"CCRTIT2TAQU","bank_code":8342,"bank":"BANCA DI CREDITO COOPERATIVO DI AQUARA SCRL","branch_code":0,"branch":"BCC AQUARA SPORTELLO DI SALERNO","zip":"84131","city":"SALERNO","address":"VIA WENNER N.62","support_codes":15},
{"id":8344,"swift_code":"CCRTIT2TN00","bank_code":8344,"bank":"BANCA DI CREDITO COOPERATIVO DI ANAGNI","branch_code":0,"branch":"FIL. DI ROMA","zip":"00173","city":"ROMA","address":"VIA TORRE DI MEZZAVIA, 35","support_codes":15},
{"id":8345,"swift_code":"ICRAITRR9L0","bank_code":8345,"bank":"BANCA DI ANGHIARI E STIA CREDITO COOPERATIVO S.C.R.L.","branch_code":0,"branch":"FILIALE DI STIA","zip":"52017","city":"PRATOVECCHIO STIA","address":"PIAZZA DELLA REPUBBLICA 7","support_codes":15},
{"id":8351,"swift_code":"ICRAITRR9R0","bank_code":8351,"bank":"BANCASCIANO CREDITO COOPERATIVO SCRL","branch_code":0,"branch":"AGENZIA DI TAVERNE D'ARBIA","zip":"53010","city":"SIENA","address":"VIA ALDOBRANDINO DEGLI ALDOBRANDESCHI, 20","support_codes":15},
{"id":8354,"swift_code":"ICRAITRR9U0","bank_code":8354,"bank":"BANCA DI CREDITO COOPERATIVO DI AVETRANA (TA) SCRL","branch_code":0,"branch":"AVETRANA VIA ROMA,109","zip":"74020","city":"AVETRANA","address":"VIA ROMA,109","support_codes":15},
{"id":8356,"swift_code":"ICRAITRR9W0","bank_code":8356,"bank":"BANCA DI CREDITO COOPERATIVO PORDENONESE E MONSILE S.C.","branch_code":0,"branch":"MESTRE","zip":"30172","city":"VENEZIA","address":"VIA MESTRINA 36-A                                                               MESTRE","support_codes":15},
{"id":8358,"swift_code":"ICRAITRR9Y0","bank_code":8358,"bank":"BANCA DI PESCIA E CASCINA CREDITO COOPERATIVO - SOCIETA'","branch_code":0,"branch":"FILIALE DI PERIGNANO","zip":"56035","city":"CASCIANA TERME LARI","address":"VIA TOSCANA 4","support_codes":15},
{"id":8362,"swift_code":"ICRAITRRA20","bank_code":8362,"bank":"BANCA DI CREDITO COOPERATIVO DI ARBOREA","branch_code":0,"branch":"FIL. DI ORISTANO FRAZ. DONIGALA F.","zip":"09170","city":"ORISTANO","address":"VIA ORISTANO, 107","support_codes":15},
{"id":8365,"swift_code":"CCRTIT2TATC","bank_code":8365,"bank":"B.C.C. DELL'ALTO TIRRENO DELLACALABRIA (CS) SCRL","branch_code":0,"branch":"FILIALE DI SCALEA","zip":"87029","city":"SCALEA","address":"VIA CARLO ALBERTO DALLA CHIESA","support_codes":15},
{"id":8374,"swift_code":"CCRTIT2TBAR","bank_code":8374,"bank":"BANCA DI CREDITO COOPERATIVO DI BARLASSINA (MI) SCRL","branch_code":0,"branch":"BANCA DI CREDITO COOPERATIVO FIL.MILANO","zip":"20154","city":"MILANO","address":"VIA LOSANNA 6","support_codes":15},
{"id":8375,"swift_code":"ICRAITRRAF0","bank_code":8375,"bank":"BANCA DI CREDITO COOPERATIVO DI BASILIANOSCRL","branch_code":0,"branch":"FILIALE DI RIVIGNANO","zip":"33050","city":"RIVIGNANO TEOR","address":"PIAZZA IV NOVEMBRE 31","support_codes":15},
{"id":8378,"swift_code":"ICRAITRRAI0","bank_code":8378,"bank":"BCC CAMPANIA CENTRO-CASSA RURALE ED ARTIGIANA SOC. COOP.","branch_code":0,"branch":"FILIALE DI SALERNO","zip":"84127","city":"SALERNO","address":"VIA GENERALE SABATO ROBERTELLI, 40","support_codes":15},
{"id":8379,"swift_code":"CCRTIT2TBTL","bank_code":8379,"bank":"BANCA DEL TERRITORIO LOMBARDO","branch_code":0,"branch":"FILIALE DI BRESCIA 2","zip":"25121","city":"BRESCIA","address":"VIA CRETA 86","support_codes":15},
{"id":8381,"swift_code":"ICRAITRRAL0","bank_code":8381,"bank":"BANCA DI CREDIT0 COOPERATIVO DI BELLEGRA S.C.R.L.","branch_code":0,"branch":"FILIALE DI GERANO","zip":"00025","city":"GERANO","address":"PIAZZA ROMA N 7","support_codes":15},
{"id":8382,"swift_code":"CCRTIT2TBEN","bank_code":8382,"bank":"BENE BANCA CREDITO COOPERATIVODI BENE VAGIENNA (CUNEO) - S.C.","branch_code":0,"branch":"BANCA DI CRED. COOP. DI BENE VAGIENNA","zip":"10123","city":"TORINO","address":"VIA ANDREA DORIA 10","support_codes":15},
{"id":8386,"swift_code":"ICRAITRRAQ0","bank_code":8386,"bank":"C.R.A. DI BINASCO - CREDITO COOPERATIVO SCRL","branch_code":0,"branch":"CRA BINASCO CREDITO COOPERATIVO","zip":"27100","city":"PAVIA","address":"VIA MATTEOTTI 40","support_codes":15},
{"id":8393,"swift_code":"CCRTIT2TBSG","bank_code":8393,"bank":"C.R.A. DI BORGO SAN GIACOMO SCRLCREDITO COOPERATIVO","branch_code":0,"branch":"SEDE","zip":"25022","city":"BORGO SAN GIACOMO","address":"VIA PETROBELLI,11\/13","support_codes":15},
{"id":8396,"swift_code":"CCRTIT2TPAD","bank_code":8396,"bank":"CASSA PADANA BCC S.C.R.L.","branch_code":0,"branch":"BANCA CREDITO COOPERATIVO DELLA VALTROMP","zip":"25061","city":"BOVEGNO","address":"PIAZZA ZANARDELLI 8","support_codes":15},
{"id":8397,"swift_code":"CCRTIT2TBOV","bank_code":8397,"bank":"C.R.A. DI BOVES - BANCA DI CREDITO COOPERATIVO (CN) SCRL","branch_code":0,"branch":"CUNEO VIA BISALTA, 13\/BIS","zip":"12100","city":"CUNEO","address":"VIA BISALTA, 13\/BIS","support_codes":15},
{"id":8399,"swift_code":"ICRAITRRB30","bank_code":8399,"bank":"CASSA RURALE ED ARTIGIANA DI BRENDOLA - CRED. COOPERATIVO SC","branch_code":0,"branch":"FILIALE DI PONTE DI BARBARANO","zip":"36021","city":"BARBARANO MOSSANO","address":"VIA A. PIGAFFETTA, 2","support_codes":15},
{"id":8404,"swift_code":"ICRAITRRB80","bank_code":8404,"bank":"BANCA DI CREDITO COOPERATIVO DI BUSTO GAROLFO E BUGUGGIATE SCRL","branch_code":0,"branch":"VARESE PIAZZA S.EVASIO, 1","zip":"21100","city":"VARESE","address":"PIAZZA S.EVASIO, 1","support_codes":15},
{"id":8406,"swift_code":"CCRTIT2TVIT","bank_code":8406,"bank":"BANCA LAZIO NORD","branch_code":0,"branch":"BARBARANO ROMANO VIA  IV NOVEMBRE 3\/5","zip":"01010","city":"BARBARANO ROMANO","address":"VIA  IV NOVEMBRE 3\/5","support_codes":15},
{"id":8407,"swift_code":"ICRAITRRCK0","bank_code":8407,"bank":"BANCA ANNIA","branch_code":0,"branch":"MALCONTENTA","zip":"30030","city":"VENEZIA","address":"VIA STAZIONE 22","support_codes":15},
{"id":8409,"swift_code":"ICRAITRRBD0","bank_code":8409,"bank":"BANCA DI CREDITO COOPERATIVO DI BUONABITACOLO","branch_code":0,"branch":"BCC DI BUONABITACOLO AG LAGONEGRO","zip":"85042","city":"LAGONEGRO","address":"VIALE COLOMBO","support_codes":15},
{"id":8414,"swift_code":"ICRAITRRFW0","bank_code":8414,"bank":"BCC DI GAMBATESA","branch_code":0,"branch":"FILIALE DI TERMOLI","zip":"86039","city":"TERMOLI","address":"VIA MASCILONGO, 91","support_codes":15},
{"id":8416,"swift_code":"ICRAITRRBK0","bank_code":8416,"bank":"BANCA DI VERONA CREDITO COOPERATIVO CADIDAVID S.C.A R.L","branch_code":0,"branch":"CADIDAVID","zip":"37061","city":"VERONA","address":"VIA FORTE TOMBA, 8","support_codes":15},
{"id":8422,"swift_code":"ICRAITRRBQ0","bank_code":8422,"bank":"BANCA DI CREDITO COOPERATIVO DI VERGATO (BO) SCRL","branch_code":0,"branch":"CASTEL D'AIANO VIA BOLOGNA, 19","zip":"40034","city":"CASTEL D'AIANO","address":"VIA BOLOGNA, 19","support_codes":15},
{"id":8425,"swift_code":"CRACIT33XXX","bank_code":8425,"bank":"BANCA CAMBIANO 1884 SPA","branch_code":0,"branch":"FILIALE TORINO","zip":"10138","city":"TORINO","address":"LARGO FRANCIA 113","support_codes":15},
{"id":8427,"swift_code":"ICRAITRRXXX","bank_code":8427,"bank":"CREDITO COOPERATIVO FIORENTINO-CAMPI BISENZIO SCRL","branch_code":0,"support_codes":15},
{"id":8428,"swift_code":"ICRAITRRB30","bank_code":8428,"bank":"BANCA DI CREDITO COOPERATIVO DI CAMPIGLIA DEI BERICI (VI) SCRL","branch_code":0,"branch":"FIL. DI AGUGLIARO","zip":"36020","city":"AGUGLIARO","address":"VIA GIACOMO ZANELLA","support_codes":15},
{"id":8429,"swift_code":"ROMAITRRXXX","bank_code":8429,"bank":"BANCA DI CREDITO COOPERATIVO DI ROMA","branch_code":0,"branch":"AG. PADOVA","zip":"35129","city":"PADOVA","address":"VIA LUIGI DA PORTO 24","support_codes":15},
{"id":8430,"swift_code":"ACARIT22XXX","bank_code":8430,"bank":"CASSA RURALE ED ARTIGIANA DI CANTU' B.C.C. SOC. COOP.","branch_code":0,"branch":"SOLBIATE CON CAGNO","zip":"22070","city":"SOLBIATE CON CAGNO","address":"PIAZZA ROMA 6","support_codes":15},
{"id":8431,"swift_code":"ICRAITRRBZ0","bank_code":8431,"bank":"BANCA DI CREDITO COOPERATIVO DI CAPACCIO PAESTUM E SERINO S.C.","branch_code":0,"branch":"FILIALE DI MONTORO","zip":"83026","city":"MONTORO","address":"VIA MUNICIPIO, 1","support_codes":15},
{"id":8434,"swift_code":"ICRAITRRC20","bank_code":8434,"bank":"BANCA DI CREDITO COOPERATIVO ABRUZZESE - CAPPELLE SUL TAVO S","branch_code":0,"branch":"FILIALE DI PESCARA","zip":"65125","city":"PESCARA","address":"STRADA VECCHIA DELLA MADONNA, 9","support_codes":15},
{"id":8436,"swift_code":"ROMAITRRXXX","bank_code":8436,"bank":"BANCA DI CAPRANICA CREDITO COOPERATIVO SCPA","branch_code":0,"branch":"FILIALE DI CANALE MONTERANO","zip":"00060","city":"CANALE MONTERANO","address":"PIAZZA DEL CAMPO, 9","support_codes":15},
{"id":8437,"swift_code":"ICRAITRRC50","bank_code":8437,"bank":"BANCA DI CREDITO COOPERATIVO DELBASSO SEBINO S.C.R.L.","branch_code":0,"branch":"CASTELLI CALEPIO VIA DEI MILLE, 54\/56","zip":"24060","city":"CASTELLI CALEPIO","address":"VIA DEI MILLE, 54\/56","support_codes":15},
{"id":8439,"swift_code":"CCRTIT2TCAR","bank_code":8439,"bank":"BANCA DI CARAGLIO DEL CUNEESEE DELLA RIVIERA DEI FIORI C.C.","branch_code":0,"branch":"SEDE DISTACCATA DI TORINO","zip":"10128","city":"TORINO","address":"CORSO STATI UNITI 13B 13D","support_codes":15},
{"id":8440,"swift_code":"CRCBIT22XXX","bank_code":8440,"bank":"BANCA DI CREDITO COOPERATIVO DI CARATE BRIANZA SCRI","branch_code":0,"branch":"FILIALE DI MILANO (SEMPIONE)","zip":"20154","city":"MILANO","address":"CORSO SEMPIONE 60","support_codes":15},
{"id":8441,"swift_code":"ICRAITRRC90","bank_code":8441,"bank":"CREDITO COOPERATIVO DI CARAVAGGIO ADDA E CREMASCO-CASS","branch_code":0,"branch":"FILIALE DI MILANO","zip":"20139","city":"MILANO","address":"CORSO LODI, 73","support_codes":15},
{"id":8445,"swift_code":"ICRAITRRCD0","bank_code":8445,"bank":"BANCA DI CREDITO COOPERATIVO DI TERRA D'OTRANTO S.C.R.L.","branch_code":0,"branch":"SEDE CENTRALE","zip":"73100","city":"LECCE","address":"VIALE LEOPARDI, 73","support_codes":15},
{"id":8446,"swift_code":"CCRTIT2TXXX","bank_code":8446,"bank":"CREDITO COOPERATIVO AREA PRATESE S.C.R.L.","branch_code":0,"branch":"FILIALE DI PRATO","zip":"50047","city":"PRATO","address":"VIA G. FERRARIS, 63","support_codes":15},
{"id":8450,"swift_code":"ICRAITRRCI0","bank_code":8450,"bank":"BANCA ALPI MARITTIME CREDITO COOPERATIVO CARRU' SCPA","branch_code":0,"branch":"FILIALE DI TORINO","zip":"10121","city":"TORINO","address":"VIA SANTA TERESA, 26","support_codes":15},
{"id":8452,"swift_code":"ICRAITRRCK0","bank_code":8452,"bank":"BANCA DI CREDITO COOPERATIVO DI VENEZIA PADOVA E ROVIGO - BANC","branch_code":0,"branch":"FILIALE DI MALCONTENTA","zip":"30176","city":"VENEZIA","address":"VIA STAZIONE 22","support_codes":15},
{"id":8453,"swift_code":"ICRAITRRCL0","bank_code":8453,"bank":"BANCA DI CREDITO COOPERATIVO DI MILANO - SOCIETA' COOPERATIVA","branch_code":0,"branch":"FILIALE DI MILANO - 1","zip":"20133","city":"MILANO","address":"VIA SANGALLO, 19","support_codes":15},
{"id":8454,"swift_code":"ICRAITRRCM0","bank_code":8454,"bank":"CREDITO PADANO BANCA DI CREDITO COOPERATIVO - SOCIETA' COOPERAT","branch_code":0,"branch":"FILIALE DI CREMONA","zip":"26100","city":"CREMONA","address":"VIA DEL GIORDANO 109","support_codes":15},
{"id":8456,"swift_code":"ICRAITRRCO0","bank_code":8456,"bank":"BANCA DI CREDITO COOPERATIVO DI CASAVECCHIA","branch_code":0,"branch":"BANCA DEI SIBILLINI FILIALE DI MACERATA","zip":"62100","city":"MACERATA","address":"VIA TRENTO 39C","support_codes":15},
{"id":8457,"swift_code":"ICRAITRRCP0","bank_code":8457,"bank":"BANCA DI CREDITO COOPERATIVO DI CASCIA DI REGGELLO S.C.A R.L.","branch_code":0,"branch":"FIGLINE","zip":"50063","city":"FIGLINE E INCISA VALDARNO","address":"VIA DELLA VETRERIA, 3","support_codes":15},
{"id":8458,"swift_code":"ICRAITR1XXX","bank_code":8458,"bank":"BANCA DI CREDITO COOPERATIVO DI CASCINA","branch_code":0,"branch":"FILIALE DI PERIGNANO","zip":"56030","city":"CASCIANA TERME LARI","address":"VIA TOSCANA 4","support_codes":15},
{"id":8460,"swift_code":"CCRTIT2TCSM","bank_code":8460,"bank":"BANCA DI CREDITO COOPERATIVO DI CASSANO DELLE MURGE E TOLVE S.C","branch_code":0,"branch":"FILIALE DI BARI","zip":"70124","city":"BARI","address":"VIA ORFEO MAZZITELLI 272 A","support_codes":15},
{"id":8461,"swift_code":"CCRTIT2TCAS","bank_code":8461,"bank":"BANCA DI CREDITO COOPERATIVO DI CASTAGNETO CARDUCCI SCPA","branch_code":0,"branch":"FILIALE DI LIVORNO","zip":"57123","city":"LIVORNO","address":"VIA SANSONI 7","support_codes":15},
{"id":8462,"swift_code":"CCRTIT2TROC","bank_code":8462,"bank":"BANCA DI CREDITO COOPERATIVO DELLA ROMAGNA OCCIDENTALE S.C.R","branch_code":0,"branch":"FIL. DI IMOLA","zip":"40026","city":"IMOLA","address":"PIAZZALE MICHELANGELO BUONARROTI 2","support_codes":15},
{"id":8466,"swift_code":"ICRAITRRCY0","bank_code":8466,"bank":"BANCA DI CREDITO COOPERATIVO DI CASTEL GOFFREDO S.C.R.L.","branch_code":0,"branch":"FILIALE DI MANTOVA","zip":"46100","city":"MANTOVA","address":"VIA 25 APRILE 2","support_codes":15},
{"id":8469,"swift_code":"ICRAITRRD10","bank_code":8469,"bank":"CASSA RURALE ED ARTIGIANA DI CASTELLANA GROTTE - CRED. COOP.","branch_code":0,"branch":"FILIALE DI BARI","zip":"70122","city":"BARI","address":"VIA NICCOLO' PICCINNI,170               ANGOLO VIA DE ROSSI","support_codes":15},
{"id":8472,"swift_code":"CCRTIT2TFEL","bank_code":8472,"bank":"BCC FELSINEA - BCC DAL 1902 - SOCIETA' COOPERATIVA","branch_code":0,"branch":"FILIALE BOLOGNA-PONTEVECCHIO","zip":"40137","city":"BOLOGNA","address":"VIA CARLO SIGONIO, 10-D","support_codes":15},
{"id":8473,"swift_code":"ICRAITRRD50","bank_code":8473,"bank":"BANCA DI CREDITO COOP. DI CASTIGLIONE MESSER RAIMONDO E P","branch_code":0,"branch":"FILIALE DI TERAMO","zip":"64100","city":"TERAMO","address":"FRANCESCO SAVINI,1","support_codes":15},
{"id":8474,"swift_code":"ICRAITRRD60","bank_code":8474,"bank":"BANCA DEL PICENO CREDITO COOPERATIVO SOCIETA' COOPERATIV","branch_code":0,"branch":"FILIALE ASCOLI PICENO","zip":"63100","city":"ASCOLI PICENO","address":"VIA SALARIA, 291\/B","support_codes":15},
{"id":8481,"swift_code":"ICRAITRRDD0","bank_code":8481,"bank":"CEREABANCA 1897 - CREDITO COOPERATIVO SOC. COOP. PER A.R.","branch_code":0,"branch":"SAN GIORGIO BIGARELLO","zip":"46030","city":"SAN GIORGIO BIGARELLO","address":"STRADA STATALE LEGNAGHESE 22","support_codes":15},
{"id":8485,"swift_code":"ICRAITF1OLI","bank_code":8485,"bank":"BANCA DI CHIANCIANO TERME CREDITO COOPERATIVO VAL D'ORCIA","branch_code":0,"branch":"AGENZIA CENTRO STORICO","zip":"53042","city":"CHIANCIANO TERME","address":"VIA CASINI, 32"},
{"id":8486,"swift_code":"CCRTIT2TXXX","bank_code":8486,"bank":"BANCA DI CREDITO COOPERATIVO DI PISTOIA SCRL","branch_code":0,"branch":"BANCA DI PISTOIA CREDITO COOPERATIVO","zip":"51100","city":"PISTOIA","address":"CORSO SILVANO FEDI N.25","support_codes":15},
{"id":8487,"swift_code":"CCRTIT2TCHE","bank_code":8487,"bank":"BANCA DI CREDITO COOPERATIVO DI CHERASCO SCRL","branch_code":0,"branch":"TORINO","zip":"01000","city":"TORINO","address":"VIA SANTA TERESA 12","support_codes":15},
{"id":8489,"swift_code":"ICRAITRRDL0","bank_code":8489,"bank":"BANCA VALDICHIANA CREDITO COOPERATIVO DI CHIUSI E MONTEPU","branch_code":0,"branch":"SEDE DI AREZZO","zip":"52100","city":"AREZZO","address":"VIA ROMANA, 17-19-21","support_codes":15},
{"id":8491,"swift_code":"CCRTIT2TCIV","bank_code":8491,"bank":"BANCO MARCHIGIANO CREDITO COOPERATIVO","branch_code":0,"branch":"FILIALE DI MACERATA","zip":"62100","city":"MACERATA","address":"VIA ROMA, 283","support_codes":15},
{"id":8492,"swift_code":"ICRAITRRDO0","bank_code":8492,"bank":"BANCA DI CREDITO COOPERATIVO DI CITTANOVA - S.C.R.I.","branch_code":0,"branch":"FILIALE DI GERACE","zip":"89040","city":"GERACE","address":"PIAZZA TRIBUNA SNC","support_codes":15},
{"id":8499,"swift_code":"ICRAITRRQ40","bank_code":8499,"bank":"BANCA DI CRED. COOP. OROBICA DI BARIANO E COLOGNO AL SERIO (BG)","branch_code":0,"branch":"FILIALE DI BARIANO","zip":"24050","city":"BARIANO","address":"PIAZZA DON L.PAGANESSI, 3","support_codes":15},
{"id":8503,"swift_code":"CCRTIT2TT00","bank_code":8503,"bank":"BANCA DI CREDITO COOPERATIVO DI CONVERSANO SCRL","branch_code":0,"branch":"BANCA DI CRED. COOP. DI CONVERSANO SCRL","zip":"70100","city":"BARI","support_codes":15},
{"id":8508,"swift_code":"ICRAITRRE40","bank_code":8508,"bank":"BANCA DI CREDITO COOPERATIVO DI CORINALDO SCRL","branch_code":0,"branch":"FIL. BRUGNETTO DI RIPE","zip":"60012","city":"TRECASTELLI","address":"ANTONELLI 27E","support_codes":15},
{"id":8509,"swift_code":"CCRTIT2TBCE","bank_code":8509,"bank":"BANCA CENTRO EMILIA - CREDITO COOPERATIVO S.C.","branch_code":0,"branch":"SANT'AGOSTINO","zip":"44047","city":"TERRE DEL RENO","address":"PIAZZA PERTINI 14","support_codes":15},
{"id":8511,"swift_code":"CCRTIT2T95A","bank_code":8511,"bank":"CORTINABANCA - CREDITO COOPERATIVO - SOCIETA' COOPERAT","branch_code":0,"branch":"FILIALE VAL DI ZOLDO","zip":"32010","city":"VAL DI ZOLDO","address":"VIA MONTE CIVETTA 2 PECOL","support_codes":15},
{"id":8514,"swift_code":"ICRAITRREA0","bank_code":8514,"bank":"BANCA DI CREDITO COOPERATIVO DELL'OGLIO E DEL SERIO S.C.","branch_code":0,"branch":"SEDE DIST.BERGAMO (EX BCC PMI)","zip":"24121","city":"BERGAMO","address":"VIA PARTIGIANI 2","support_codes":15},
{"id":8515,"swift_code":"ICRAITRREB0","bank_code":8515,"bank":"BANCA DELLA VALSASSINA CREDITOCOOPERATIVO - SOCIETA' COOPERAT","branch_code":0,"branch":"FILIALE DI LECCO","zip":"23900","city":"LECCO","address":"CORSO PROMESSI SPOSI N.44","support_codes":15},
{"id":8517,"swift_code":"ICRAITRRXXX","bank_code":8517,"bank":"ICCREA BANCA - ISTITUTO CENTRALE DEL CREDITO COOPERATIVO","branch_code":0,"support_codes":15},
{"id":8519,"swift_code":"ICRAITRREF0","bank_code":8519,"bank":"BANCA DI CREDITO COOPERATIVO DI FANO SCRL","branch_code":0,"branch":"AGENZIA DI CALCINELLI","zip":"61036","city":"COLLI AL METAURO","address":"PIAZZA PIO FRANCHI DE CAVALIERI 19","support_codes":15},
{"id":8530,"swift_code":"ICRAITRREQ0","bank_code":8530,"bank":"BANCA D'ALBA CREDITO COOPERATIVO SC","branch_code":0,"branch":"FILIALE DI TORINO","zip":"10121","city":"TORINO","address":"VIA MEUCCI 14-A","support_codes":15},
{"id":8531,"swift_code":"ICRAITRRXXX","bank_code":8531,"bank":"BANCA DI COSENZA CREDITO COOPERATIVO SOC. COOP.","branch_code":0,"support_codes":15},
{"id":8532,"swift_code":"CCRTIT2TV00","bank_code":8532,"bank":"ZKB ZADRUZNA KRASKA BANKA","branch_code":0,"branch":"B.C.C. DI DOBERDO' E SAVOGNA","zip":"34170","city":"GORIZIA","address":"VIA DEL CARSO, 73A","support_codes":15},
{"id":8537,"swift_code":"ICRAITRREX0","bank_code":8537,"bank":"CREDITO COOPERATIVO C.R.A. DI ERCHIE (BR)","branch_code":0,"branch":"CREDITO COOPERATIVO CRA DI ERCHIE (BR)","zip":"72020","city":"ERCHIE","address":"VIA ROMA 89","support_codes":15},
{"id":8540,"swift_code":"MAOISMSMXXX","bank_code":8540,"bank":"BANCA DI SAN MARINO S.P.A.SASM","branch_code":0,"branch":"SEDE FAETANO","zip":"47896","city":"REPUBBLICA DI SAN MARINO","address":"STRADA DELLA CROCE, 39","support_codes":15},
{"id":8542,"swift_code":"ICRAITRRF20","bank_code":8542,"bank":"CREDITO COOPERATIVO RAVENNATE FORLIVESE E IMOLESE SOC. COOP.","branch_code":0,"branch":"MEZZANO","zip":"48010","city":"RAVENNA","address":"PIAZZA REPUBBLICA, 5","support_codes":15},
{"id":8549,"swift_code":"ICRAITRRF90","bank_code":8549,"bank":"BANCA DI FILOTTRANO - CREDITO COOPERATIVO DI FILOTTRANO E DI","branch_code":0,"branch":"FILIALE DI CAMERANO","zip":"60021","city":"CAMERANO","address":"VIA MONS. DONZELLI  34 36","support_codes":15},
{"id":8550,"swift_code":"CCRTIT2TBCL","bank_code":8550,"bank":"BANCA CENTRO LAZIO CREDITO COOPERATIVO","branch_code":0,"branch":"FILIALE DI FROSINONE","zip":"03100","city":"FROSINONE","address":"PIAZZALE DE MATTHAEIS,48 49 50","support_codes":15},
{"id":8551,"swift_code":"ICRAITRRFB0","bank_code":8551,"bank":"BANCA DI CREDITO COOPERATIVO DI FIUMICELLO ED AIELLO DEL FRIULI","branch_code":0,"branch":"AIELLO DEL FRIULI VIA CESARE BATTISTI 1","zip":"33041","city":"AIELLO DEL FRIULI","address":"VIA CESARE BATTISTI 1","support_codes":15},
{"id":8553,"swift_code":"CCRTIT2TFLU","bank_code":8553,"bank":"BANCA DI CREDITO COOPERATIVO DI FLUMERI SOC. COOP.","branch_code":0,"branch":"SEDE DISTACCATA DI BENEVENTO","zip":"82100","city":"BENEVENTO","address":"CORSO GARIBALDI 236","support_codes":15},
{"id":8554,"swift_code":"ICRAITRRFE0","bank_code":8554,"bank":"BANCA DI CREDITO COOPERATIVO DI GAUDIANO DI LAVELLO","branch_code":0,"branch":"LAVELLO VIA ROMA N.81 83","zip":"85024","city":"LAVELLO","address":"VIA ROMA N.81 83","support_codes":15},
{"id":8556,"swift_code":"ICRAITRRFG0","bank_code":8556,"bank":"BANCA DI FORLI' - CREDITO COOPERATIVO SCRL","branch_code":0,"branch":"FIL.14 - SAN ZACCARIA","zip":"48020","city":"RAVENNA","address":"VIA DISMANO 623","support_codes":15},
{"id":8561,"swift_code":"CCRTIT2T91A","bank_code":8561,"bank":"BANCA DI SALERNO CREDITO COOPERATIVO S.C.R.L.","branch_code":0,"branch":"SALERNO CENTRO","zip":"84123","city":"SALERNO","address":"CORSO VITTORIO EMANUELE 193","support_codes":15},
{"id":8562,"swift_code":"BCCFIT33XXX","bank_code":8562,"bank":"BANCA DI PISA E FORNACETTE CREDITO COOPERATIVO SCPA","branch_code":0,"branch":"BANCA DI PISA E FORNACETTE CREDITO COOPE","zip":"55100","city":"LUCCA","address":"VIALE C. CASTRACANI 1070","support_codes":15},
{"id":8565,"swift_code":"ICRAITRRTM0","bank_code":8565,"bank":"BANCA DI CREDITO COOPERATIVO DI BUCCINO","branch_code":0,"branch":"SPORTELLO DI COLLIANO","zip":"84020","city":"COLLIANO","address":"VIA NAZIONALE 7","support_codes":15},
{"id":8572,"swift_code":"ICRAITRRFW0","bank_code":8572,"bank":"BANCA DI CREDITO COOPERATVO DIGAMBATESA","branch_code":0,"branch":"BCC DI GAMBATESA FILIALE DI CASTELVETERE","zip":"82023","city":"CASTELVETERE IN VAL FORTORE","address":"CORSO UMBERTO I","support_codes":15},
{"id":8574,"swift_code":"ICRAITR1FY8","bank_code":8574,"bank":"CREDITO COOP ROMAGNOLO - BCC DI CESENA E GATTEO S.C.'","branch_code":0,"branch":"FILIALE DI CESENA","zip":"47023","city":"CESENA","address":"VIA FIORENZUOLA, 1122","support_codes":15},
{"id":8575,"swift_code":"ICRAITRRFZ0","bank_code":8575,"bank":"BANCA DI CREDITO COOPERATIVO DELL'AGRO BRESCIANO SCRL","branch_code":0,"branch":"BRESCIA","zip":"25124","city":"BRESCIA","address":"VIA SALGARI NR. 7 (CENTRO COM. FLAMINIA)","support_codes":15},
{"id":8578,"swift_code":"ICRAITRRXXX","bank_code":8578,"bank":"ICCREA BANCA","branch_code":0,"branch":"FILIALE DI MONTECCHIO","zip":"61022","city":"VALLEFOGLIA","address":"VIA ROMA 34","support_codes":15},
{"id":8586,"swift_code":"ICRAITRRXXX","bank_code":8586,"bank":"ICCREA BANCA","branch_code":0,"branch":"ALBANO SANT'ALESSANDRO","zip":"24061","city":"ALBANO SANT'ALESSANDRO","address":"VIA GIOVANNI XXIII  27-17","support_codes":15},
{"id":8587,"swift_code":"CCRTIT2TVAL","bank_code":8587,"bank":"B.C.C. VALDOSTANA COOPERATIVE DE CREDIT VALDOTAINE S.C.R.L.","branch_code":0,"branch":"FILIALE AOSTA 5","zip":"11100","city":"AOSTA","address":"VIA GRAMSCI 24","support_codes":15},
{"id":8590,"swift_code":"CCRTIT2TBCV","bank_code":8590,"bank":"CENTROVENETO BASSANO BANCA - CREDITO COOPERATIVO - SOC. COOP","branch_code":0,"branch":"SANTA CATERINA DI LUSIANA CONCO","zip":"36046","city":"LUSIANA CONCO","address":"VIA S. CATERINA 21","support_codes":15},
{"id":8591,"swift_code":"ICRAITRRGF0","bank_code":8591,"bank":"BANCA DI CREDITO COOPERATIVO DI IMPRUNETA-BANCO FIORENTINO - S.","branch_code":0,"branch":"BANCA DI CREDITO COOPERATIVO IMPRUNETA","zip":"50124","city":"FIRENZE","address":"VIA SENESE 182-184","support_codes":15},
{"id":8592,"swift_code":"GATEITMMXXX","bank_code":8592,"bank":"BANCA DI CREDITO COOPERATIVO DI CARUGATE","branch_code":0,"branch":"SUCCURSALE DI MONZA","zip":"20052","city":"MONZA","address":"VIA PAVONI 6"},
{"id":8595,"swift_code":"ICRAITRRGJ0","bank_code":8595,"bank":"LA BCC DEL CROTONESE CREDITO COOPERATIVO S.C.","branch_code":0,"branch":"FILIALE DI CROTONE","zip":"88900","city":"CROTONE","address":"VIA ROMA 180-184","support_codes":15},
{"id":8597,"swift_code":"ICRAITRRGL0","bank_code":8597,"bank":"BCC BASILICATA - CREDITO COOPERATIVO DI LAURENZANA E COM","branch_code":0,"branch":"FILIALE DI POTENZA","zip":"85100","city":"POTENZA","address":"VIA NAZARIO SAURO, 130","support_codes":15},
{"id":8601,"swift_code":"ICRAITRRGP0","bank_code":8601,"bank":"BANCA DI CREDITO COOPERATIVO VALLE DEL TORTO - SOCIETA' COOP","branch_code":0,"branch":"ALIA","zip":"90021","city":"ALIA","address":"VIA V. EMANUELE, 84","support_codes":15},
{"id":8603,"swift_code":"ICRAITRRGR0","bank_code":8603,"bank":"BANCA DI CREDITO COOPERATIVO DI LEVERANO (LE) SCRL","branch_code":0,"branch":"B.C.C. DI LEVERANO FILIALE DI LECCE","zip":"73100","city":"LECCE","address":"VIA ALDO MORO 61-63","support_codes":15},
{"id":8606,"swift_code":"ICRAITRRGU0","bank_code":8606,"bank":"BANCA DI CREDITO COOPERATIVO DI CANOSA - LOCONIA SCRL","branch_code":0,"branch":"FILIALE DI BARLETTA","zip":"70051","city":"BARLETTA","address":"VIALE REGINA MARGHERITA, 148","support_codes":15},
{"id":8607,"swift_code":"CCRTIT2TLND","bank_code":8607,"bank":"BANCA DI CREDITO COOPERATIVO DI LOCOROTONDO","branch_code":0,"branch":"FILIALE DI PEZZE DI GRECO","zip":"72010","city":"FASANO","address":"VIA PASTRENGO N.12","support_codes":15},
{"id":8610,"swift_code":"CCRTIT2T83A","bank_code":8610,"bank":"BANCA DEI COLLI EUGANEI CREDITO COOPERATIVO LOZZO ATESTINO S.C.","branch_code":0,"branch":"FILIALE DI ABANO TERME","zip":"35031","city":"ABANO TERME","address":"VIA GIACOMO MATTEOTTI 3","support_codes":15},
{"id":8616,"swift_code":"CCRTIT2T97A","bank_code":8616,"bank":"BANCA ADIGE PO CREDITO COOPERATIVO LUSIA SOC. COOP.","branch_code":0,"branch":"FILIALE DI ROVIGO","zip":"45100","city":"ROVIGO","address":"VIA MAZZINI 6","support_codes":15},
{"id":8618,"swift_code":"ICRAITRRH60","bank_code":8618,"bank":"BANCA DI CREDITO COOPERATIVO DI LEZZENO SCRL","branch_code":0,"branch":"B.CA DI CREDITO COOP. DI LEZZENO AG.COMO","zip":"22100","city":"COMO","address":"VIA CANIGGIA, 7\/9","support_codes":15},
{"id":8619,"swift_code":"ICRAITRRH70","bank_code":8619,"bank":"B.C.C. DI LESMO","branch_code":0,"branch":"BANCA DI CREDITO COOPERATIVO DI LESMO","zip":"20052","city":"MONZA","address":"VIA MANZONI 32 34","support_codes":15},
{"id":8622,"swift_code":"CCRTIT2T96A","bank_code":8622,"bank":"CREDITO COOPERATIVO - CASSA RURALE ED ARTIGIANA DEL FRIULI","branch_code":0,"branch":"FILIALE DI TRIESTE","zip":"34121","city":"TRIESTE","address":"MAZZINI 26A","support_codes":15},
{"id":8623,"swift_code":"ICRAITRRTS0","bank_code":8623,"bank":"EMIL BANCA CREDITO COOPERATIVO BOLOGNA","branch_code":0,"branch":"AG.34 PARMA","zip":"43123","city":"PARMA","address":"VIA EMILIA EST 115-A","support_codes":15},
{"id":8630,"swift_code":"ICRAITRRHI0","bank_code":8630,"bank":"BANCA DI MANTIGNANA - CREDITO COOPERATIVO UMBRO S.C. A R.L.","branch_code":0,"branch":"PERUGIA VIA FRANCESCO BRIGANTI 127","zip":"06100","city":"PERUGIA","address":"VIA FRANCESCO BRIGANTI 127","support_codes":15},
{"id":8631,"swift_code":"CCRTIT2TTER","bank_code":8631,"bank":"BANCATER CREDITO COOPERATIVO FVG- SOCIETA' COOPERATIVA","branch_code":0,"branch":"FILIALE DI TRIESTE","zip":"34132","city":"TRIESTE","address":"PIAZZA SANT'ANTONIO NUOVO 2","support_codes":15},
{"id":8633,"swift_code":"ICRAITRRXXX","bank_code":8633,"bank":"BANCA DI CREDITO COOPERATIVO MONTAGNA PISTOIESE-MARESCA SOC.COOP","branch_code":0,"support_codes":15},
{"id":8636,"swift_code":"ICRAITRRXXX","bank_code":8636,"bank":"ICCREA BANCA","branch_code":0,"branch":"MARINA DI GROSSETO","zip":"58100","city":"GROSSETO","address":"VIA XXIV MAGGIO 93","support_codes":15},
{"id":8637,"swift_code":"CCRTIT2T99A","bank_code":8637,"bank":"PRIMACASSA - CREDITO COOPERATIV O FVG - SOCIETA' COOPERATIVA","branch_code":0,"branch":"SUCC. RIVIGNANO TEOR","zip":"33050","city":"RIVIGNANO TEOR","address":"PIAZZA DELLA VITTORIA N. 45","support_codes":15},
{"id":8639,"swift_code":"ICRAITRRHR0","bank_code":8639,"bank":"BANCA DI CREDITO COOPERATIVO DI MASIANO (PISTOIA)","branch_code":0,"branch":"BANCA DI CREDITO COOPERATIVO DI MASIANO","zip":"51100","city":"PISTOIA","address":"VIA MASIANO 6.A","support_codes":15},
{"id":8657,"swift_code":"SELBIT2BXXX","bank_code":8657,"bank":"BANCA SELLA SUD ARDITI GALATI S PA","branch_code":0,"branch":"SEDE DI DASA'","zip":"89832","city":"DASA'","address":"VIA PROVINCIALE, 31","support_codes":15},
{"id":8661,"swift_code":"CCRTIT2TFLU","bank_code":8661,"bank":"BCC DI FLUMERI","branch_code":0,"branch":"SEDE DI AVELLINO","zip":"83100","city":"AVELLINO","address":"VIA TUORO CAPPUCCINI, 97-A","support_codes":15},
{"id":8662,"swift_code":"ICRAITRRXXX","bank_code":8662,"bank":"B.C.C. DI MONTECORVINO ROVELLAS.C.R.L.","branch_code":0,"branch":"MONTECORVINO ROVELLA VIA ROMA, 400\/402","zip":"84096","city":"MONTECORVINO ROVELLA","address":"VIA ROMA, 400\/402                                                               BELLIZZI","support_codes":15},
{"id":8669,"swift_code":"CCRTIT2TF01","bank_code":8669,"bank":"BANCA ALTO VICENTINO CREDITO COOPERATIVO DI SCHIO PEDEMONTE","branch_code":0,"branch":"FILIALE DI VICENZA","zip":"36100","city":"VICENZA","address":"VIALE TRENTO, 49","support_codes":15},
{"id":8670,"swift_code":"ICRAITRRIM0","bank_code":8670,"bank":"BANCA DI CREDITO COOPERATIVO DI MONTEPULCIANO S.C.R.L.","branch_code":0,"branch":"AREZZO","zip":"52100","city":"AREZZO","address":"VIA CRISPI 7","support_codes":15},
{"id":8672,"swift_code":"ICRAITRRIO0","bank_code":8672,"bank":"BANCA DI CREDITO COOPERATIVO DI MONTERENZIO SOC. COOP.","branch_code":0,"branch":"CASTIGLIONE DEI PEPOLI","zip":"40035","city":"CASTIGLIONE DEI PEPOLI","address":"VIA BOLOGNESE, 1","support_codes":15},
{"id":8673,"swift_code":"ICRAITRRIP0","bank_code":8673,"bank":"CHIANTIBANCA - CREDITO COOPERATIVO - S.C.","branch_code":0,"branch":"FIRENZE LEGNAIA","zip":"50142","city":"FIRENZE","address":"VIA DEL POLLAIUOLO 83","support_codes":15},
{"id":8676,"swift_code":"ICRAITRRIS0","bank_code":8676,"bank":"BANCA DI CREDITO COOPERATIVO COLLI MORENICI DEL GARDA SOC. C","branch_code":0,"branch":"FILIALE DI BRESCIA","zip":"25100","city":"BRESCIA","address":"VIA F.LLI LECHI","support_codes":15},
{"id":8679,"swift_code":"ICRAITRRIV0","bank_code":8679,"bank":"BANCA DI CREDITO COOPERATIVO DI MOZZANICA (BG) SCRL","branch_code":0,"branch":"SEDE DI MOZZANICA","zip":"24050","city":"MOZZANICA","address":"VIA UMBERTO I N.10","support_codes":15},
{"id":8682,"swift_code":"ICRAITRRIY0","bank_code":8682,"bank":"BANCA DI CREDITO COOPERATIVO ALTO CASERTANO E BASSO FRUSINAT","branch_code":0,"branch":"FILIALE DI CASSINO","zip":"03043","city":"CASSINO","address":"VIA LOMBARDIA                           70","support_codes":15},
{"id":8688,"swift_code":"ICRAITRRJ40","bank_code":8688,"bank":"BANCA DI CREDITO COOPERATIVO DI MARINA DI GINOSA SCARL","branch_code":0,"branch":"AGENZIA DI CASTELLANETA MARINA","zip":"74010","city":"CASTELLANETA","address":"PIAZZA KENNEDY, 15","support_codes":15},
{"id":8689,"swift_code":"ICRAITRRU40","bank_code":8689,"bank":"BANCA DELLA MARCA","branch_code":0,"branch":"FAVARO VENETO","zip":"30030","city":"VENEZIA","address":"VIA ALTINIA 8-10","support_codes":15},
{"id":8692,"swift_code":"CCRTIT2TH00","bank_code":8692,"bank":"BANCA DI CREDITO COOPERATIVO DI BRESCIA S.C.","branch_code":0,"branch":"FILIALE DI BRESCIA","zip":"25128","city":"BRESCIA","address":"VIA OBERDAN ANG. VIA REVERBERI","support_codes":15},
{"id":8693,"swift_code":"ICRAITRRJ90","bank_code":8693,"bank":"BANCA DI CREDITO COOPERATIVO DI NETTUNO S.C.R.L.","branch_code":0,"branch":"BANCA DI CREDITO COOPERATIVO DI NETTUNO","zip":"04100","city":"LATINA","address":"VIA S. MARIA, 18 - BORGO S. MARIA","support_codes":15},
{"id":8700,"swift_code":"ICRAITRRJG0","bank_code":8700,"bank":"BANCA DI CREDITO COOPERATIVO DEL METAURO S.C.R.L.","branch_code":0,"branch":"FILIALE DI ORCIANO DI PESARO","zip":"61038","city":"TERRE ROVERESCHE","address":"VIA G.MATTEOTTI, 4 - ORCIANO DI PESARO","support_codes":15},
{"id":8703,"swift_code":"SVIUITRRXXX","bank_code":8703,"bank":"BANCA DI CREDITO COOPERATIVO EUGANEA DI OSPEDALETTO EUGANEO","branch_code":0,"branch":"BCC EUGANEA DI OSPEDALETTO E.FIL.CONSELV","zip":"35026","city":"CONSELVE","address":"VIA FOSSALTA 1","support_codes":15},
{"id":8704,"swift_code":"ICRAITRRJK0","bank_code":8704,"bank":"BANCA DI CREDITO COOPERATIVO DI OSTRA E MORRO D'ALBA S.C.R.L.","branch_code":0,"branch":"FILIALE DI PASSO RIPE","zip":"60012","city":"TRECASTELLI","address":"VIA FORNACE, 7","support_codes":15},
{"id":8705,"swift_code":"ICRAITRRJL0","bank_code":8705,"bank":"BANCA DI CREDITO COOPERATIVO DI OSTRA VETERE SCRL","branch_code":0,"branch":"FILIALE DI ARCEVIA","zip":"60011","city":"ARCEVIA","address":"VIA S. GIOVANNI BATTISTA N. 93","support_codes":15},
{"id":8706,"swift_code":"ICRAITRRJM0","bank_code":8706,"bank":"BANCA DI CREDITO COOPERATIVO DI OSTUNI S.C.RL.","branch_code":0,"branch":"BCC OSTUNI FILIALE DI BRINDISI","zip":"72100","city":"BRINDISI","address":"VIA ALDO MORO N 57 59 61","support_codes":15},
{"id":8708,"swift_code":"ICRAITRRJO0","bank_code":8708,"bank":"BANCA DI CREDITO COOPERATIVO DI OPPIDO LUCANO E RIPACANDIDA SCR","branch_code":0,"branch":"FILIALE DI BARILE","zip":"85022","city":"BARILE","address":"VIA ACQUA DEL SALICE SNC","support_codes":15},
{"id":8712,"swift_code":"ICRAITRRJS0","bank_code":8712,"bank":"B.C.C. \"SEN. PIETRO GRAMMATICO\" DI PACECO","branch_code":0,"branch":"TRAPANI S.S. 115, N. 211","zip":"91020","city":"TRAPANI","address":"S.S. 115, N. 211","support_codes":15},
{"id":8713,"swift_code":"ICRAITRRJT0","bank_code":8713,"bank":"BANCA DI CREDITO COOPERATIVO DI PACHINO (SIRACUSA) SCRI","branch_code":0,"branch":"FILIALE DI CATANIA","zip":"95125","city":"CATANIA","address":"VIA UMBERTO 144 E","support_codes":15},
{"id":8715,"swift_code":"ICRAITRRJV0","bank_code":8715,"bank":"BANCA DI UDINE CREDITO COOPERATIVO S.C.P.A R.L.","branch_code":0,"branch":"BANCA DI UDINE CREDITO COOPERATIVO","zip":"33100","city":"UDINE","address":"VIA TRICESIMO 85","support_codes":15},
{"id":8716,"swift_code":"CCRTIT2TBCL","bank_code":8716,"bank":"BANCA CENTRO LAZIO CREDITO COOPERATIVO SOCIETA' COOPERATIV","branch_code":0,"branch":"FILIALE ROMA1 PONTE DI NONA","zip":"00010","city":"ROMA","address":"VIALE FRANCESCO CALTAGIRONE 366\/368 ROMA","support_codes":15},
{"id":8717,"swift_code":"ICRAITRRJX0","bank_code":8717,"bank":"CREDITO COOPERATIVO - C.R.A. DI PALIANO SCRL","branch_code":0,"branch":"FILIALE","zip":"00034","city":"COLLEFERRO","address":"VIALE EUROPA, 7\/9\/11","support_codes":15},
{"id":8720,"swift_code":"ICRAITRRXXX","bank_code":8720,"bank":"BANCA DI CREDITO COOPERATIVO DI PEDEMONTE S.C.A R.L.","branch_code":0,"branch":"FILIALE DI ARSIERO","zip":"36011","city":"ARSIERO","address":"VIA MARCONI 63B","support_codes":15},
{"id":8726,"swift_code":"ICRAITRRK60","bank_code":8726,"bank":"BANCA VERSILIA LUNIGIANA E GARFAGNANA - CREDITO COOPERATIV","branch_code":0,"branch":"AGENZIA N.22 LA SPEZIA","zip":"19124","city":"LA SPEZIA","address":"PIAZZALE KENNEDY, 31","support_codes":15},
{"id":8728,"swift_code":"ICRAITRRK80","bank_code":8728,"bank":"BANCA PATAVINA CREDITO COOPERATIVO DI SANT'ELENA E PIO","branch_code":0,"branch":"PADOVA","zip":"35129","city":"PADOVA","address":"VIA S. CRISPINO, 66","support_codes":15},
{"id":8730,"swift_code":"ICRAITRRXXX","bank_code":8730,"bank":"ICCREA BANCA","branch_code":0,"branch":"SUCCURSALE","zip":"53025","city":"PIANCASTAGNAIO","address":"VIALE ANTONIO GRAMSCI 193","support_codes":15},
{"id":8731,"swift_code":"ICRAITRRKB0","bank_code":8731,"bank":"BANCA DI CREDITO COOPERATIVO DI PERGOLA E CORINALDO SOCIETA' CO","branch_code":0,"branch":"BRUGNETTO","zip":"60012","city":"TRECASTELLI","address":"VIA ANTONELLI 27E                                                               BRUGNETTO","support_codes":15},
{"id":8732,"swift_code":"ICRAITRRKC0","bank_code":8732,"bank":"B.C.C. VICENTINO - POJANA MAGGIORE (VI)","branch_code":0,"branch":"FILIALE DI ALONTE","zip":"36045","city":"ALONTE","address":"PIAZZA SANTA SAVINA, 13","support_codes":15},
{"id":8735,"swift_code":"CCRTIT2TBTL","bank_code":8735,"bank":"BANCA DEL TERRITORIO LOMBARDO CREDITO COOPERATIVO SOC. COOP.","branch_code":0,"branch":"MILANO 1","zip":"20121","city":"MILANO","address":"BASTIONI DI PORTA VOLTA 10","support_codes":15},
{"id":8736,"swift_code":"ICRAITRRKG0","bank_code":8736,"bank":"BANCA DI CREDITO COOPERATIVO DI PONTASSIEVE","branch_code":0,"branch":"AGENZIA FIRENZE 1","zip":"50121","city":"FIRENZE","address":"PIAZZA BECCARIA 2 ROSSO","support_codes":15},
{"id":8738,"swift_code":"ICRAITRRKI0","bank_code":8738,"bank":"CASSA RURALE ED ARTIGIANA DELL'AGRO PONTINO - B.C.C.","branch_code":0,"branch":"LATINA","zip":"04100","city":"LATINA","address":"LARGO CAVALLI, 18","support_codes":15},
{"id":8743,"swift_code":"CCRTIT2TVEL","bank_code":8743,"bank":"BANCA DI CREDITO COOPERATIVO DEL VELINO - POSTA (RI)","branch_code":0,"branch":"FILIALE DI RIETI","zip":"02100","city":"RIETI","address":"VIALE E. MARAINI 106","support_codes":15},
{"id":8744,"swift_code":"ICRAITRRXXX","bank_code":8744,"bank":"ICCREA BANCA","branch_code":0,"branch":"SEDE POSTINO","zip":"26010","city":"DOVERA","address":"VIA EUROPA 6 1","support_codes":15},
{"id":8745,"swift_code":"ICRAITRRO50","bank_code":8745,"bank":"B.C.C. \"VALLE SERIANA\" SCRL","branch_code":0,"branch":"ALBINO VIA PATRIOTI, 16","zip":"24021","city":"ALBINO","address":"VIA PATRIOTI, 16","support_codes":15},
{"id":8747,"swift_code":"ICRAITRRKR0","bank_code":8747,"bank":"BANCA DI CREDITO COOPERATIVO DI PRATOLA PELIGNA","branch_code":0,"branch":"BCC DI PRATOLA PELIGNA FIL CHIETI","zip":"66100","city":"CHIETI","address":"VIA BENEDETTO CROCE N.462 464","support_codes":15},
{"id":8749,"swift_code":"ICRAITRRKT0","bank_code":8749,"bank":"CENTROMARCA BANCA CREDITO COOPERATIVO DI TREVISO E VENEZI","branch_code":0,"branch":"FILIALE DI ZELARINO","zip":"30174","city":"VENEZIA","address":"VIA CASTELLANA, 130","support_codes":15},
{"id":8753,"swift_code":"CCRTIT2TPIA","bank_code":8753,"bank":"BANCA DI CREDITO COOPERATIVO DI PIANFEI E ROCCA DE' BALDI S.C.R","branch_code":0,"branch":"CUNEO VIA CAPPA N.4","zip":"12100","city":"CUNEO","address":"VIA CAPPA N.4                           MADONNA DELLE GRAZIE","support_codes":15},
{"id":8765,"swift_code":"ICRAITRRL90","bank_code":8765,"bank":"B.C.C. DI RECANATI E COLMURANO(MC) SCRL","branch_code":0,"branch":"FILIALE DI MACERATA","zip":"62100","city":"MACERATA","address":"VIA ROMA, 231","support_codes":15},
{"id":8769,"swift_code":"ICRAITRRLD0","bank_code":8769,"bank":"BANCA DI RIPATRANSONE E DEL FERMANO - CREDITO COOPERATIVO S","branch_code":0,"branch":"SAN BENEDETTO DEL TRONTO","zip":"63039","city":"SAN BENEDETTO DEL TRONTO","address":"VIA MANZONI, 23","support_codes":15},
{"id":8770,"swift_code":"ICRAITRRLE0","bank_code":8770,"bank":"CASSA RURALE ED ARTIGIANA DI RIVAROLO MANTOVANO","branch_code":0,"branch":"FILIALE PIADENA","zip":"26034","city":"PIADENA DRIZZONA","address":"VIA PLATINA 18","support_codes":15},
{"id":8771,"swift_code":"ICRAITRRC90","bank_code":8771,"bank":"CREDITO COOPERATIVO DI CARAVAGGIO ADDA E CREMASCO-CASS","branch_code":0,"branch":"MELEGNANO","zip":"20077","city":"MELEGNANO","address":"VIA GIUSEPPE MAZZINI, 9","support_codes":15},
{"id":8772,"swift_code":"CCRTIT2T98A","bank_code":8772,"bank":"CASSA RURALE ED ARTIGIANA DI ROANA - CREDITO COOPERATIVO SCR","branch_code":0,"branch":"FILIALE DI ASIAGO","zip":"36012","city":"ASIAGO","address":"VIA MATTEOTTI, 83","support_codes":15},
{"id":8777,"swift_code":"ICRAITRRLL0","bank_code":8777,"bank":"BANCA DI CREDITO COOPERATIVO DEL TUSCOLO - ROCCA PRIORA SCRL","branch_code":0,"branch":"COLONNA PIAZZA VITTORIO EMANUELE","zip":"00030","city":"COLONNA","address":"PIAZZA VITTORIO EMANUELE","support_codes":15},
{"id":8778,"swift_code":"CCRTIT2TRNB","bank_code":8778,"bank":"BANCA DI CREDITO COOPERATIVO DI RONCIGLIONE E BARBARANO ROMANO","branch_code":0,"branch":"FILIALE DI SAN MARTINO AL CIMINO","zip":"01030","city":"VITERBO","address":"P.ZZA G. OBERDAN, 15","support_codes":15},
{"id":8784,"swift_code":"CCRTIT2TMPR","bank_code":8784,"bank":"BANCA MONTE PRUNO CREDITO COOPERATIVO DI FISCIANO ROSCIG","branch_code":0,"branch":"FILIALE DI POTENZA","zip":"85100","city":"POTENZA","address":"CORSO GARIBALDI 57","support_codes":15},
{"id":8787,"swift_code":"ICRAITRRLV0","bank_code":8787,"bank":"BANCA DI CREDITO COOPERATIVO DI RIANO SCRL","branch_code":0,"branch":"FILIALE DI ROMA","zip":"00188","city":"ROMA","address":"VIA DELLA GIUSTINIANA 60A - 62","support_codes":15},
{"id":8792,"swift_code":"CCRTIT2TRMB","bank_code":8792,"bank":"ROMAGNABANCA CREDITO COP","branch_code":0,"branch":"AGENZIA DI CERVIA","zip":"48015","city":"CERVIA","address":"VIALE ORIANI, 14 - ANG. VIA PARATOIE","support_codes":15},
{"id":8794,"swift_code":"CCRTIT2TLAU","bank_code":8794,"bank":"B.C.C. LAUDENSE - LODI","branch_code":0,"branch":"FILIALE DI LODI","zip":"26900","city":"LODI","address":"VIA GARIBALDI, 5","support_codes":15},
{"id":8796,"swift_code":"CCRTIT2TSAM","bank_code":8796,"bank":"BANCA DI CREDITO COOPERATIVO DI SAMBUCA DI SICILIA","branch_code":0,"branch":"AGENZIA DI CONTESSA ENTELLINA","zip":"90030","city":"CONTESSA ENTELLINA","address":"VIA MOREA, 61","support_codes":15},
{"id":8800,"swift_code":"ICRAITRRM80","bank_code":8800,"bank":"BANCA DI CREDITO COOPERATIVO DI SAN BIAGIO PLATANI SCRI","branch_code":0,"branch":"FILIALE DI CAMMARATA","zip":"92020","city":"CAMMARATA","address":"LARGO DEI PINI, 4","support_codes":15},
{"id":8802,"swift_code":"ICRAITF1XXX","bank_code":8802,"bank":"CHIANTI BANCA","branch_code":0,"address":"VIA A. PONCHIELLI N. 22"},
{"id":8805,"swift_code":"CCRTIT2TFOB","bank_code":8805,"bank":"FRIULOVEST BANCA-CREDITO COOPERATIVO-SOCIETA COOPERATIVA","branch_code":0,"branch":"FILIALE DI ARZENE","zip":"33098","city":"VALVASONE ARZENE","address":"VIA SANTA MARGHERITA 29","support_codes":15},
{"id":8807,"swift_code":"ICRAITRRBSG","bank_code":8807,"bank":"BANCA SAN GIORGIO QUINTO VALLEAGNO CR.COOP. - SOC.COOP.","branch_code":0,"branch":"FILIALE DI COLCERESA","zip":"36060","city":"COLCERESA","address":"VIA PONTICELLO, 48","support_codes":15},
{"id":8810,"swift_code":"CCRTIT2TSGR","bank_code":8810,"bank":"BANCA DI CREDITO COOPERATIVO DI SAN GIOVANNI ROTONDO","branch_code":0,"branch":"FILIALE DI FOGGIA","zip":"71100","city":"FOGGIA","address":"VIALE MANFREDI 1 PALAZZO AMGAS","support_codes":15},
{"id":8811,"swift_code":"ICRAITRRMJ0","bank_code":8811,"bank":"BANCA CREDITO COOPERATIVO DI S. GIOVANNI VALDARNO","branch_code":0,"branch":"FILIALE DI CASTELFRANCO DI SOPRA","zip":"52026","city":"CASTELFRANCO PIANDISCO'","address":"PIAZZA V.EMANUELE 4-6","support_codes":15},
{"id":8812,"swift_code":"ICRAITRRMK0","bank_code":8812,"bank":"BANCA DI FORMELLO E TREVIGNANOROMANO DI CREDITO COOPERATIVO","branch_code":0,"branch":"CESANO DI ROMA","zip":"00123","city":"ROMA","address":"VIA DELLA STAZIONE DI CESANO 359","support_codes":15},
{"id":8817,"swift_code":"CCRTIT2TSMZ","bank_code":8817,"bank":"BANCA DI CREDITO COOPERATIVO DI SAN MARZANO DI SAN GIUSEPPE SCR","branch_code":0,"branch":"FILIALE DI TARANTO","zip":"74100","city":"TARANTO","address":"VIA PUPINO, 13 A-C","support_codes":15},
{"id":8824,"swift_code":"ICRAITRRMW0","bank_code":8824,"bank":"BANCA DI CREDITO COOPERATIVO DI SERINO (AVELLINO) S.C.","branch_code":0,"branch":"FILIALE DI ATRIPALDA","zip":"83042","city":"ATRIPALDA","address":"VIA TUFAROLE 3A","support_codes":15},
{"id":8826,"swift_code":"ICRAITRRMY0","bank_code":8826,"bank":"BANCA DI PESARO CREDITO COOPERATIVO SOC. COOP. A R.L.","branch_code":0,"branch":"BANCA DI PESARO","zip":"61022","city":"VALLEFOGLIA","address":"STRADA MONTEFELTRO 21","support_codes":15},
{"id":8829,"swift_code":"ICRAITRRN10","bank_code":8829,"bank":"VIBANCA - BANCA DI CREDITO COOP DI SAN PIETRO IN VINCIO","branch_code":0,"branch":"VIBANCA BANCA DI CREDITO COOPERATIVO","zip":"51030","city":"PISTOIA","address":"VIA PROVINCIALE LUCCHESE 125B","support_codes":15},
{"id":8833,"swift_code":"CCRTIT2TCSS","bank_code":8833,"bank":"BANCA DI CREDITO COOPERATIVO DI CASALGRASSO E SANT'ALBANO STURA","branch_code":0,"branch":"TORINO - C.SO V. EMANUELE","zip":"10139","city":"TORINO","address":"C.SO VITTORIO EMANUELE II, 189","support_codes":15},
{"id":8839,"swift_code":"CCRTIT2TCIV","bank_code":8839,"bank":"BANCO MARCHIGIANO CREDITO COOPERATIVO","branch_code":0,"branch":"FILIALE DI SENIGALLIA","zip":"60019","city":"SENIGALLIA","address":"STRADA STATALE ADRIATICA NORD 50","support_codes":15},
{"id":8843,"swift_code":"ICRAITR1XXX","bank_code":8843,"bank":"BANCA DI CREDITO COOPERATIVO DI SANT'ELENA (PD) SCRL","branch_code":0,"branch":"PADOVA VIA GUIZZA, 194","zip":"35125","city":"PADOVA","address":"VIA GUIZZA, 194","support_codes":15},
{"id":8844,"swift_code":"ICRAITRRNG0","bank_code":8844,"bank":"BANCA DI CREDITO COOPERATIVO DI SANTERAMO IN COLLE SCRL","branch_code":0,"branch":"FILIALE DI MATERA","zip":"75100","city":"MATERA","address":"PIAZZA DEGLI OLMI, 75","support_codes":15},
{"id":8850,"swift_code":"CCRTIT2TSAR","bank_code":8850,"bank":"BANCA DI CREDITO COOPERATIVO DI SARSINA (FO) SCRI","branch_code":0,"branch":"BAGNO DI ROMAGNA VIA T. CORZANI, 32\/34","zip":"47026","city":"BAGNO DI ROMAGNA","address":"VIA T. CORZANI, 32\/34","support_codes":15},
{"id":8851,"swift_code":"ICRAITRRNN0","bank_code":8851,"bank":"TERRE ETRUSCHE E DI MAREMMA CREDITO COOP. S.C","branch_code":0,"branch":"MARINA DI GROSSETO","zip":"58100","city":"GROSSETO","address":"VIA XXIV MAGGIO 93                                                              MARINA DI GROSSETO","support_codes":15},
{"id":8852,"swift_code":"CCRTIT2TRMB","bank_code":8852,"bank":"ROMAGNABANCA CREDITO COOPERATIVO S.C.","branch_code":0,"branch":"AGENZIA DI CERVIA","zip":"48015","city":"CERVIA","address":"VIALE ORIANI, 14 - ANGOLO VIA PARATOIE","support_codes":15},
{"id":8855,"swift_code":"ICRAITRRNR0","bank_code":8855,"bank":"BANCA DI CREDITO COOPERATIVO DI SCAFATI E CETARA S.C.R.L.","branch_code":0,"branch":"FILIALE DI AGEROLA","zip":"80051","city":"AGEROLA","address":"VIA PRINCIPE DI PIEMONTE, 19","support_codes":15},
{"id":8865,"swift_code":"ICRAITRRO1Z","bank_code":8865,"bank":"BANCA DI CREDITO COOPERATIVO DI SESTO SAN GIOVANNI","branch_code":0,"branch":"FILIALE DI MILANO","zip":"20100","city":"MILANO","address":"VIA PONTE VECCHIO 3","support_codes":15},
{"id":8866,"swift_code":"ICRAITRRO20","bank_code":8866,"bank":"BANCA DI CREDITO COOPERATIVO DI SIGNA SCRL","branch_code":0,"branch":"FIRENZE","zip":"50129","city":"FIRENZE","address":"PIAZZA DELLA LIBERTA' 32 ROSSO","support_codes":15},
{"id":8867,"swift_code":"ICRAITRRXXX","bank_code":8867,"bank":"BANCA DI CREDITO COOPERATIVO DELLA SILA PICCOLA","branch_code":0,"branch":"FILIALE DI SIMERI CRICHI","zip":"88050","city":"SIMERI CRICHI","address":"PIAZZA MARTERI 1809","support_codes":15},
{"id":8869,"swift_code":"ICRAITRRO50","bank_code":8869,"bank":"BANCA DI CREDITO COOPERATIVO BERGAMO E VALLI BCC BERGAMO","branch_code":0,"branch":"FILIALE DI BERGAMO SAN BERNARDINO","zip":"24126","city":"BERGAMO","address":"VIA SAN BERNARDINO, 78-H","support_codes":15},
{"id":8871,"swift_code":"CCRTIT2TSBE","bank_code":8871,"bank":"BANCA DI CREDITO COOPERATIVO DI SPELLO E BETTONA","branch_code":0,"branch":"BCC DI SPELLO E BETTONA FIL. DI PERUGIA","zip":"06129","city":"PERUGIA","address":"VIA SETTEVALLI N. 131 F","support_codes":15},
{"id":8873,"swift_code":"ICRAITRRO90","bank_code":8873,"bank":"BANCA DI CREDITO COOPERATIVO DI SPINAZZOLA (BARI) SCRL","branch_code":0,"branch":"FILIALE 4 ANDRIA - BT","zip":"76123","city":"ANDRIA","address":"VIA GIUSEPPE VERDI 90","support_codes":15},
{"id":8877,"swift_code":"ICRAITRROD0","bank_code":8877,"bank":"BANCA DI CREDITO COOPERATIVO DI STARANZANO E VILLESSE SOC. COOP","branch_code":0,"branch":"SUCCURSALE DI TRIESTE - PONTEROSSO","zip":"34132","city":"TRIESTE","address":"VIA ROMA, 18","support_codes":15},
{"id":8883,"swift_code":"CCRTIT2TBDB","bank_code":8883,"bank":"BANCA DI BOLOGNA CREDITOCOOPERATIVO SCRL","branch_code":0,"branch":"AGENZIA DI BOLOGNA","zip":"40127","city":"BOLOGNA","address":"VIA ALDO MORO, 16","support_codes":15},
{"id":8885,"swift_code":"ICRAITRROL0","bank_code":8885,"bank":"BANCA CRAS - CR.COOP. TOSCANO - SIENA","branch_code":0,"branch":"FILIALE DI LIVORNO","zip":"57123","city":"LIVORNO","address":"VIA BORRA, 2","support_codes":15},
{"id":8887,"swift_code":"ICRAITRRON0","bank_code":8887,"bank":"CREDITO COOPERATIVO DI SAN CALOGERO E MAIERATO - BCC DEL V","branch_code":0,"branch":"FILIALE DI SPILINGA","zip":"89864","city":"SPILINGA","address":"PIAZZA ITALIA, 6","support_codes":15},
{"id":8892,"swift_code":"SVIUITRRXXX","bank_code":8892,"bank":"BANCA DEI DUE MARI DI CALABRIA","branch_code":0,"branch":"FILIALE DI CASTROVILLARI","zip":"87012","city":"CASTROVILLARI","address":"VIA COSCILE, 10","support_codes":15},
{"id":8894,"swift_code":"CCRTIT2T99A","bank_code":8894,"bank":"PRIMACASSA","branch_code":0,"branch":"FILIALE DI AMARO","zip":"33020","city":"AMARO","address":"VIA VALLI DI CARNIA N. 2","support_codes":15},
{"id":8899,"swift_code":"ICRAITRRTR0","bank_code":8899,"bank":"BANCA DI CREDITO COOPERATIVO DI TREVIGLIO E GERA D'ADDA S.C.R.L","branch_code":0,"branch":"FILIALE DI BERGAMO","zip":"24121","city":"BERGAMO","address":"VIA CIFRONDI ANGOLO VIA COGHETTI","support_codes":15},
{"id":8901,"swift_code":"ICRAITRRP10","bank_code":8901,"bank":"BANCA DI CREDITO COOPERATIVO DI TRIUGGIO E DELLA VALLE DEL LAMB","branch_code":0,"branch":"B.C.C. DI TRIUGGIO FIL. BESANA IN B.ZA","zip":"20045","city":"BESANA IN BRIANZA","address":"BUONARROTI 3","support_codes":15},
{"id":8903,"swift_code":"CCRTIT2TTUR","bank_code":8903,"bank":"BANCA DI CREDITO COOPERATIVO DI TURRIACO SOC. COOP.","branch_code":0,"branch":"FILIALE DI RONCHI DEI LEGIONARI","zip":"34077","city":"RONCHI DEI LEGIONARI","address":"VIA AQUILEIA, 8","support_codes":15},
{"id":8904,"swift_code":"CCRTIT2TPRE","bank_code":8904,"bank":"BANCA PREALPI SANBIAGIO CREDITO COOPERATIVO - SOCIETA' COOPERAT","branch_code":0,"branch":"B.C.C. DELLE PREALPI - MESTRE","zip":"30172","city":"VENEZIA","address":"VIALE ANCONA 13                                                                 MESTRE","support_codes":15},
{"id":8907,"swift_code":"ICRAITRRXXX","bank_code":8907,"bank":"BANCA DI CREDITO COOPERATIVO DI SCANDALE SCRL","branch_code":0,"branch":"BANCA DI CREDITO COOPERATIVO DI SCANDALE","zip":"88900","city":"CROTONE","address":"VIA ROMA 180 182 184","support_codes":15},
{"id":8910,"swift_code":"CCRTIT2TB01","bank_code":8910,"bank":"CASSA RURALE ED ARTIGIANA DI VESTENANOVA","branch_code":0,"branch":"CRA DI VESTENANOVA - AGENZIA 8","zip":"37141","city":"VERONA","address":"VIA OLIVE 9A","support_codes":15},
{"id":8913,"swift_code":"ICRAITRRPD0","bank_code":8913,"bank":"B.C.C. DELLA VALLE DEL FITALIA-LONGI SCRL","branch_code":0,"branch":"FRAZZANO' VIA LIBERTA' 5B","zip":"98070","city":"FRAZZANO'","address":"VIA LIBERTA' 5B","support_codes":15},
{"id":8916,"swift_code":"ICRAITRRPG0","bank_code":8916,"bank":"BANCA DI ANCONA - CREDITO COOPERATIVO S.C.R.L.","branch_code":0,"branch":"SEDE CENTRALE","zip":"60100","city":"ANCONA","address":"VIA MAGGINI,116","support_codes":15},
{"id":8917,"swift_code":"ICRAITRRPH0","bank_code":8917,"bank":"CREDITO TREVIGIANO - BANCA DI CREDITO COOPERATIVO -SOC. COO","branch_code":0,"branch":"FILIALE DI TREVISO","zip":"31100","city":"TREVISO","address":"VIA VENIER, 56","support_codes":15},
{"id":8919,"swift_code":"CCRTIT2TH00","bank_code":8919,"bank":"BANCA DI CREDITO COOPERATIVO DI VEROLAVECCHIA S.C.R.L.","branch_code":0,"branch":"FIL. DI BAGNOLO MELLA","zip":"25021","city":"BAGNOLO MELLA","address":"VIA GRAMSCI N.129B","support_codes":15},
{"id":8922,"swift_code":"ICRAITRRPM0","bank_code":8922,"bank":"BANCA ALTA TOSCANA CREDITO COOPERATIVO - SC","branch_code":0,"branch":"AGENZIA DI MARESCA","zip":"51028","city":"SAN MARCELLO PITEGLIO","address":"PIAZZA DELLA STAZIONE 148 MARESCA","support_codes":15},
{"id":8927,"swift_code":"CCRTIT2T94A","bank_code":8927,"bank":"CENTROMARCA BCC DI TREVISO SOCIETA' COOPERATIVA PER AZIONI","branch_code":0,"branch":"TREVISO - VIA DE GASPERI 44","zip":"31100","city":"TREVISO","address":"VIA DELLE ABSIDI 10","support_codes":15},
{"id":8928,"swift_code":"CCRTIT2TV00","bank_code":8928,"bank":"BANCA DI CREDITO COOPERATIVO DELCARSO SOC. COOP. - ZADRUGA","branch_code":0,"branch":"TRIESTE VIA DEL RICREATORIO, 2","zip":"34016","city":"TRIESTE","address":"VIA DEL RICREATORIO, 2","support_codes":15},
{"id":8930,"swift_code":"ICRAITRRXXX","bank_code":8930,"bank":"B.C.C. DI VISCHE E DEL CAVALESE","branch_code":0,"support_codes":15},
{"id":8931,"swift_code":"CCRTIT2TVIT","bank_code":8931,"bank":"BANCA LAZIO NORD CREDITO COOPERATIVO SCPA","branch_code":0,"branch":"SEDE","zip":"01100","city":"VITERBO","address":"VIA TOMMASO CARLETTI 25","support_codes":15},
{"id":8933,"swift_code":"ICRAITRRCK0","bank_code":8933,"bank":"BANCA ANNIA","branch_code":0,"branch":"FILIALE DI ROVIGO","zip":"45100","city":"ROVIGO","address":"VIALE PORTA PO, 58","support_codes":15},
{"id":8940,"swift_code":"ICRAITRRQ40","bank_code":8940,"bank":"BANCA DI CREDITO COOPERATIVO BERGAMASCA E OROBICA S.C.","branch_code":0,"branch":"FILIALE DI BERGAMO","zip":"24122","city":"BERGAMO","address":"VIA ZELASCO, 18","support_codes":15},
{"id":8941,"swift_code":"ICRAITRRJT0","bank_code":8941,"bank":"BCC DI PACHINO","branch_code":0,"branch":"TAORMINA VIA FRANCAVILLA, 217","zip":"98030","city":"TAORMINA","address":"VIA FRANCAVILLA, 217","support_codes":15},
{"id":8946,"swift_code":"ICRAITRRQA0","bank_code":8946,"bank":"BANCA DON RIZZO - CREDITO COOPERATIVO DELLA SICILIA OCCID","branch_code":0,"branch":"AGENZIA DI PALERMO","zip":"90143","city":"PALERMO","address":"VIA E. DE AMICIS, 38","support_codes":15},
{"id":8947,"swift_code":"ICRAITRRQB0","bank_code":8947,"bank":"BANCA DI CREDITO COOPERATIVO DONSTELLA DI RESUTTANO","branch_code":0,"branch":"RESUTTANO VIA ROMA, 5","zip":"93010","city":"RESUTTANO","address":"VIA ROMA, 5","support_codes":15},
{"id":8951,"swift_code":"ICRAITRRQF0","bank_code":8951,"bank":"BANCA DI CREDITO COOPERATIVO DEI COLLI ALBANI - SOCIETA' COO","branch_code":0,"branch":"FILIALE DI MARINO","zip":"00047","city":"MARINO","address":"VIA GARIBALDI 49","support_codes":15},
{"id":8952,"swift_code":"ICRAITRRQG0","bank_code":8952,"bank":"BANCA DI CREDITO COOPERATIVO \"G. TONIOLO\"DI SAN CATALDO S.C.","branch_code":0,"branch":"AGENZIA DI PALERMO","zip":"90144","city":"PALERMO","address":"PIAZZA UNITA' D'ITALIA, 15\/F","support_codes":15},
{"id":8954,"swift_code":"CCRTIT2TO00","bank_code":8954,"bank":"BANCA DI CREDITO COOPERATIVO LA RISCOSSA DI REGALBUTO","branch_code":0,"branch":"BCC LA RISCOSSA DI REGALBUTO F.MESSINA","zip":"98122","city":"MESSINA","address":"P.ZA DUOMO N. 15 17","support_codes":15},
{"id":8958,"swift_code":"ICRAITRRQM0","bank_code":8958,"bank":"BANCA DI CREDITO COOPERATIVO MUTUO SOCCORSO DI GANGI","branch_code":0,"branch":"SEDE","zip":"90024","city":"GANGI","address":"CORSO UMBERTO I,24","support_codes":15},
{"id":8964,"swift_code":"ICRAITRRQS0","bank_code":8964,"bank":"CASSA RURALE ED ARTIGIANA SAN BARNABA DI MARINO","branch_code":0,"branch":"MARINO VIA G.GARIBALDI, 49","zip":"00047","city":"MARINO","address":"VIA G.GARIBALDI, 49","support_codes":15},
{"id":8965,"swift_code":"CCRTIT2TU00","bank_code":8965,"bank":"BANCA S.BIAGIO DEL VENETO ORIENTALE DI CESAROLO E FOSSALT","branch_code":0,"branch":"BANCA SAN BIAGIO DEL VENETO ORIENTALE","zip":"30020","city":"CAORLE","address":"VIA PRETORIANA, 15","support_codes":15},
{"id":8967,"swift_code":"ICRAITRRXXX","bank_code":8967,"bank":"BANCA DI CREDITO COOPERATIVO DI TARSIA SOC. COOP.","branch_code":0,"support_codes":15},
{"id":8968,"swift_code":"CCRTIT2TTEA","bank_code":8968,"bank":"B.C.C. SANGRO TEATINA SCRL","branch_code":0,"branch":"FILIALE CHIETI SCALO","zip":"66013","city":"CHIETI","address":"VIA COLONNETTA, 50 (ANGOLO VIA BELLINI)","support_codes":15},
{"id":8969,"swift_code":"ICRAITRRQX0","bank_code":8969,"bank":"BANCA S. FRANCESCO - CREDITO COOPERATIVO - CANICATTI' SCRL","branch_code":0,"branch":"AGENZIA DI AGRIGENTO","zip":"92100","city":"AGRIGENTO","address":"VIA IMERA 144","support_codes":15},
{"id":8970,"swift_code":"ICRAITRRXXX","bank_code":8970,"bank":"RIMINIBANCA CREDITO COOPERATIVO RIMINI E DELLA VALMARECCHIA S.C","branch_code":0,"branch":"FILIALE DI RICCIONE","zip":"47838","city":"RICCIONE","address":"VIA EMILIA, 64","support_codes":15},
{"id":8973,"swift_code":"ICRAITRRF90","bank_code":8973,"bank":"C.R.A. \"SAN GIUSEPPE\" CREDITO COOPERATIVO CAMERANO SCRL (AN)","branch_code":0,"branch":"SEDE","zip":"60021","city":"CAMERANO","address":"VIA MONS. DONZELLI, 34\/36","support_codes":15},
{"id":8975,"swift_code":"ICRAITRRR30","bank_code":8975,"bank":"B.C.C. \"SAN GIUSEPPE\" DI MUSSOMELI","branch_code":0,"branch":"ACQUAVIVA PLATANI VIA VITTORIO EMANUELE,","zip":"93010","city":"ACQUAVIVA PLATANI","address":"VIA VITTORIO EMANUELE, 38","support_codes":15},
{"id":8976,"swift_code":"ICRAITRRR40","bank_code":8976,"bank":"BANCA DI CREDITO COOPERATIVO SANGIUSEPPE DELLE MADONIE","branch_code":0,"branch":"CALTAVUTURO CORSO VITTORIO EMANUELE, 57","zip":"90022","city":"CALTAVUTURO","address":"CORSO VITTORIO EMANUELE, 57","support_codes":15},
{"id":8979,"swift_code":"ICRAITRRR70","bank_code":8979,"bank":"BANCA DI C.C.S.MICHELE DI CALTANISETTA E PIERTRAPERZIA","branch_code":0,"branch":"BANCA DI CREDITO COOP. SAN MICHELE","zip":"93100","city":"CALTANISSETTA","address":"CORSO UMBERTO I , 113-119","support_codes":15},
{"id":8982,"swift_code":"CCRTIT2T97A","bank_code":8982,"bank":"BANCA ADRIA COLLI EUGANEI - CREDITO COOPERATIVO SOCIETA' CO","branch_code":0,"branch":"FILIALE DI ROVIGO","zip":"45100","city":"ROVIGO","address":"VIA MAZZINI 6","support_codes":15},
{"id":8985,"swift_code":"CCRTIT2TNIS","bank_code":8985,"bank":"BANCA SICANA C.C. DI SOMMATINOSERRADIFALCO E SAMBUCA DI SICIL","branch_code":0,"branch":"CALTANISSETTA","zip":"93100","city":"CALTANISSETTA","address":"VIALE DELLA REGIONE, 99","support_codes":15},
{"id":8986,"swift_code":"CCRTIT2TG01","bank_code":8986,"bank":"ROVIGOBANCA CREDITO COOPERATIVO","branch_code":0,"branch":"FILIALE DI ROVIGO","zip":"45100","city":"ROVIGO","address":"CORSO DEL POPOLO, 260","support_codes":15},
{"id":8987,"swift_code":"ICRAITRRRF0","bank_code":8987,"bank":"BANCA DI CREDITO COOPERATIVO TERRA DI LAVORO-S.VINCENZO DE'","branch_code":0,"branch":"CASERTA VIA BOTTICELLI, 15","zip":"81100","city":"CASERTA","address":"VIA BOTTICELLI, 15","support_codes":15},
{"id":8988,"swift_code":"ICRAITRRRG0","bank_code":8988,"bank":"BANCA DI CREDITO COOPERATIVO DEGLI ULIVI - TERRA DI BARI SCR","branch_code":0,"branch":"BITETTO PIAZZA ALDO MORO,26","zip":"70020","city":"BITETTO","address":"PIAZZA ALDO MORO,26","support_codes":15},
{"id":8990,"swift_code":"ICRAITRRRI0","bank_code":8990,"bank":"B.C.C. SANTO STEFANO MARTELLAGO SCRL","branch_code":0,"branch":"ZELARINO","zip":"30174","city":"VENEZIA","address":"VIA CASTELLANA 130-A","support_codes":15},
{"id":8995,"swift_code":"ICRAITRRRN0","bank_code":8995,"bank":"RIVIERABANCA CREDITO COOPERATIVO DI RIMINI E GRADARA","branch_code":0,"branch":"FILIALE DI POGGIO BERNI","zip":"47824","city":"POGGIO TORRIANA","address":"VIA SANTARCANGIOLESE 2990","support_codes":15},
{"id":8997,"swift_code":"ICRAITRRRP0","bank_code":8997,"bank":"BCC DI S.MARCO DEI CAVOTI E DEL SANNIO CALVI SOCIETA COOPERATIV","branch_code":0,"branch":"BENEVENTO","zip":"82100","city":"BENEVENTO","address":"VIA NICOLA SALA,48","support_codes":15},
{"id":8998,"swift_code":"RZSBIT21026","bank_code":8998,"bank":"CASSA RAIFFEISEN DELLA VAL PASSIRIA SOC. COOP. A R.L.","branch_code":0,"branch":"MOSO IN PASSIRIA-MOOS IN PASSEIER NUMERO","zip":"39013","city":"MOSO IN PASSIRIA-MOOS IN PASSEIER","address":"NUMERO CIVICO 68","support_codes":15},
{"id":10008,"swift_code":"BPMOIT22XXX","bank_code":10008,"bank":"MELIORBANCA SPA","branch_code":0,"support_codes":15},
{"id":10309,"swift_code":"PASCITMMXXX","bank_code":10309,"bank":"MONTE PASCHI FONDIARIO E OPEREPUBBLICHE SPA","branch_code":0,"branch":"SIENA PIAZZA DELL'ABBADIA","zip":"53100","city":"SIENA","address":"PIAZZA DELL'ABBADIA","support_codes":15},
{"id":10312,"swift_code":"CFIUITR2XXX","bank_code":10312,"bank":"CREDITO FONDIARIO S.P.A.","branch_code":0,"branch":"ROMA VIA CRISTOFORO COLOMBO, 80","zip":"00147","city":"ROMA","address":"VIA CRISTOFORO COLOMBO, 80","support_codes":1},
{"id":10327,"swift_code":"BNLIITRRXXX","bank_code":10327,"bank":"BNL - SEZ. CRED. CINEMATOGRAFICOE TEATRALE SPA -","branch_code":0,"branch":"ROMA PIAZZA SAN BERNARDO, 101","zip":"00187","city":"ROMA","address":"PIAZZA SAN BERNARDO, 101","support_codes":15},
{"id":10630,"swift_code":"ISCSITRRXXX","bank_code":10630,"bank":"ISTITUTO PER IL CREDITO SPORTIVO","branch_code":0,"branch":"ROMA VIA ALESSANDRO FARNESE, 1","zip":"00192","city":"ROMA","address":"VIA ALESSANDRO FARNESE, 1","support_codes":15},
{"id":10631,"swift_code":"BAMEITMMXXX","bank_code":10631,"bank":"MEDIOBANCA BANCA DI CREDITO FINANZIARIO S.P.A.","branch_code":0,"branch":"SEDE DI TORINO","zip":"10128","city":"TORINO","address":"C.SO VITTORIO EMANUELE II, 97","support_codes":1},
{"id":10632,"swift_code":"BAPPIT22XXX","bank_code":10632,"bank":"EFIBANCA S.P.A. FUS BANCO POPOL ARE SOCIETA' COOPERATIVA","branch_code":0,"branch":"TORINO VIA MAGENTA, 25","zip":"10128","city":"TORINO","address":"VIA MAGENTA, 25","support_codes":15},
{"id":10633,"swift_code":"BPCCITM1XXX","bank_code":10633,"bank":"UBI BANCA SPA","branch_code":0,"branch":"MILANO CORSO EUROPA, 20","zip":"20122","city":"MILANO","address":"CORSO EUROPA, 20"},
{"id":10636,"swift_code":"TWOSITMMXXX","bank_code":10636,"bank":"UNICREDIT BANCA MEDIOCREDITO SPA","branch_code":0,"branch":"SEDE","zip":"10128","city":"TORINO","address":"CORSO STATI UNITI, 21\/23","support_codes":7},
{"id":10637,"swift_code":"BCITIT61XXX","bank_code":10637,"bank":"MEDIOCREDITO ITALIANO SPA","branch_code":0,"branch":"SUCCURSALE","zip":"10121","city":"TORINO","address":"VIA SANTA TERESA, 9"},
{"id":10638,"swift_code":"CCRTIT2TM00","bank_code":10638,"bank":"MEDIOCREDITO TRENTINO ALTO ADIGESPA","branch_code":0,"branch":"SEDE LEGALE","zip":"38122","city":"TRENTO","address":"VIA PARADISI 1","support_codes":15},
{"id":10639,"swift_code":"UNGCIT21XXX","bank_code":10639,"bank":"DOBANK S.P.A","branch_code":0,"branch":"SEDE DI VERONA","zip":"37121","city":"VERONA","address":"PIAZZETTA MONTE, 1","support_codes":1},
{"id":10640,"swift_code":"MFVGIT21XXX","bank_code":10640,"bank":"MEDIOCREDITO DEL FRIULI - VENEZIA GIULIA SPA","branch_code":0,"branch":"UDINE VIA GORGHI, 2","zip":"33100","city":"UDINE","address":"VIA GORGHI, 2","support_codes":15},
{"id":10643,"swift_code":"MPSMIT31XXX","bank_code":10643,"bank":"MPS CAPITAL SERVICES BANCA PERLE IMPRESE S.P.A.","branch_code":0,"branch":"MPSCS - SUCCURSALE DI MILANO","zip":"20123","city":"MILANO","address":"VIA DANTE, 14"},
{"id":10647,"swift_code":"ISEDITN1XXX","bank_code":10647,"bank":"ISTITUTO PER LO SVILUPPO ECONOMICO DELL'ITALIA MERIDIONA","branch_code":0,"branch":"NAPOLI VIA ALCIDE DE GASPERI, 71","zip":"80133","city":"NAPOLI","address":"VIA ALCIDE DE GASPERI, 71"},
{"id":10648,"swift_code":"MECRIT31XXX","bank_code":10648,"bank":"IRFIS-MEDIOCREDITO DELLA SICILIA SPA","branch_code":0},
{"id":10680,"swift_code":"MCENITRRXXX","bank_code":10680,"bank":"MEDIOCREDITO CENTRALE SPA","branch_code":0,"branch":"FILIALE N. 1  MILANO","zip":"20123","city":"MILANO","address":"PIAZZA EDISON, 1","support_codes":1},
{"id":10681,"swift_code":"ARTCITR1XXX","bank_code":10681,"bank":"ARTIGIANCASSA S.P.A.","branch_code":0,"branch":"TORINO VIA GIANNONE, 1","zip":"10121","city":"TORINO","address":"VIA GIANNONE, 1","support_codes":15},
{"id":10685,"swift_code":"IBFIITMMXXX","bank_code":10685,"bank":"GE CAPITAL INTERBANCA S.P.A. ACQ.GR.BCIFIS FUS BANCA IFIS S.","branch_code":0,"branch":"MILANO CORSO VENEZIA, 56","zip":"20121","city":"MILANO","address":"CORSO VENEZIA, 56"},
{"id":12028,"swift_code":"CAMBITRRXXX","bank_code":12028,"bank":"BANCA D'ITALIA","branch_code":0},
{"id":19275,"swift_code":"CMPYITM1XXX","bank_code":19275,"bank":"COMPASS BANCA S.P.A.","branch_code":0,"branch":"MILANO SEDE","zip":"20121","city":"MILANO","address":"FORO BUONAPARTE, 10","support_codes":15},
{"id":32532,"swift_code":"SIGPITM1XXX","bank_code":32532,"bank":"SISALPAY S.P.A.","branch_code":0,"branch":"SEDE","zip":"16121","city":"GENOVA","address":"VIA XX SETTEMBRE 29 7","support_codes":7},
{"id":32698,"swift_code":"LIIPITM1XXX","bank_code":32698,"bank":"LIS Istituto di Pagamento SPA","branch_code":0,"support_codes":15},
{"id":32875,"swift_code":"NEPYITM1XXX","bank_code":32875,"bank":"BANCA NEXI PAYMENTS SPA","branch_code":0,"branch":"COMPARTO MONETICA 1 SIA","zip":"20147","city":"MILANO","address":"CORSO SEMPIONE 55","support_codes":1},
{"id":33500,"swift_code":"SIGPITM1XXX","bank_code":33500,"bank":"SISAL GROUP SPA","branch_code":0,"branch":"SISAL GROUP SPA","zip":"20154","city":"MILANO","address":"VIA A. TOCQUEVILLE, 13","support_codes":7},
{"id":33604,"swift_code":"PIRLITM1XXX","bank_code":33604,"bank":"SIAPAY S.R.L.","branch_code":0,"branch":"FILIALE SEDE","zip":"20147","city":"MILANO","address":"VIA GONIN, 36","support_codes":7},
{"id":36000,"swift_code":"CIMTITR1XXX","bank_code":36000,"bank":"CARTALIS IMEL SPA","branch_code":0,"branch":"CARTA PREPAGATA","zip":"00153","city":"ROMA","address":"VIA DEL CAMPO BOARIO, 56D","support_codes":15},
{"id":36001,"swift_code":"MOBMITM1XXX","bank_code":36001,"bank":"MOBILMAT IMELSPA (ENTE CREDITIZ IO)","branch_code":0,"branch":"MOBILMAT - FILIALE 1","zip":"20124","city":"MILANO","address":"VIALE FRANCESCO RESTELLI, 5"},
{"id":36002,"swift_code":"IMEEIT21XXX","bank_code":36002,"bank":"ISTITUTO DI MONETA ELETTRONICA EUROPEO SPA (ENTE CREDITIZIO)","branch_code":0,"branch":"SEDE","zip":"24040","city":"STEZZANO","address":"VIA PONTIDA, 213"},
{"id":36003,"swift_code":"MDDLITM2XXX","bank_code":36003,"bank":"FLOWE SPA SOCIETA BENEFIT","branch_code":0,"support_codes":7},
{"id":36017,"swift_code":"PAYTITM1XXX","bank_code":36017,"bank":"PAY TIPPER S.P.A","branch_code":0,"branch":"SEDE CENTRALE","zip":"20147","city":"MILANO","address":"VIALE LEGIONI ROMANE, 43","support_codes":1},
{"id":36018,"swift_code":"CBPSIT31XXX","bank_code":36018,"bank":"CABEL PER I PAGAMENTI I.P. SPA","branch_code":0,"branch":"SEDE DI EMPOLI","zip":"50053","city":"EMPOLI","address":"VIA CHERUBINI, 99","support_codes":15},
{"id":36024,"swift_code":"CIPYIT31XXX","bank_code":36024,"bank":"CITYPOSTE PAYMENT S.P.A.","branch_code":0,"branch":"TERAMO","zip":"64100","city":"TERAMO","address":"PIAZZA DEL CARMINE N. 26","support_codes":7},
{"id":36033,"swift_code":"MOETIT31XXX","bank_code":36033,"bank":"MONEYNET SPA","branch_code":0,"branch":"SEDE","zip":"90146","city":"PALERMO","address":"VIA SACRA FAMIGLIA N. 18","support_codes":7},
{"id":36039,"swift_code":"CCRGIT21XXX","bank_code":36039,"bank":"CCN SERVIZI DI PAGAMENTO S.P.A.","branch_code":0,"branch":"SEDE","zip":"42040","city":"CAMPEGINE","address":"VIA KENNEDY, 5","support_codes":15},
{"id":36041,"swift_code":"SOEPIT21XXX","bank_code":36041,"bank":"SOCIETA' SERVIZI DI PAGAMENTO SPA","branch_code":0,"branch":"SOCIETA' SERVIZI DI PAGAMENTO S.P.A.","zip":"41122","city":"MODENA","address":"VIA DANIMARCA, 80","support_codes":15},
{"id":36042,"swift_code":"IFSPIT21XXX","bank_code":36042,"bank":"INFOCAMERE SOC. CONSORTILE DI INFORMATICA DELLE CAMERE DI COM","branch_code":0,"branch":"ISTITUTO DI PAGAMENTO INFOCAMERE","zip":"00161","city":"ROMA","address":"VIA G.B. MORGAGNI,13","support_codes":7},
{"id":36044,"swift_code":"BMEUITM1XXX","bank_code":36044,"bank":"BMCE EUROSERVICE S.A.","branch_code":0,"branch":"MILANO","zip":"20124","city":"MILANO","address":"VIALE NAZARIO SAURO, 5"},
{"id":36047,"swift_code":"SOIFIT31XXX","bank_code":36047,"bank":"SOGEFIN SPA","branch_code":0,"branch":"SEDE","zip":"63077","city":"MONSAMPOLO DEL TRONTO","address":"VIA MANZONI","support_codes":15},
{"id":36049,"swift_code":"ORUNITRRXXX","bank_code":36049,"bank":"IPAGOO LLP","branch_code":0,"branch":"IPAGOO","zip":"20121","city":"MILANO","address":"VIA MARINA, 3"},
{"id":36063,"swift_code":"SEPFIT31XXX","bank_code":36063,"bank":"SE.PA.FIN. - S.P.A.","branch_code":0,"branch":"SEDE CENTRALE","zip":"70017","city":"PUTIGNANO","address":"VIA NINO BIXIO 46 A","support_codes":1},
{"id":36064,"swift_code":"ATPIITM1XXX","bank_code":36064,"bank":"A-TONO PAYMENT INSTITUTE SPA","branch_code":0,"branch":"CORSO BUENOS AIRES, 77","zip":"20124","city":"MILANO","address":"CORSO BUENOS AIRES, 77","support_codes":1},
{"id":36072,"swift_code":"MFERITM1XXX","bank_code":36072,"bank":"MACCORP FINANCIAL SERVICES SRL","branch_code":0,"branch":"SEDE LEGALE","zip":"20121","city":"MILANO","address":"VIA FATEBENEFRATELLI, 5","support_codes":1},
{"id":36080,"swift_code":"NIPSITR1XXX","bank_code":36080,"bank":"ADMIRAL PAY IP S.R.L.","branch_code":0,"branch":"SEDE ROMA AMS","zip":"00144","city":"ROMA","address":"VIA AMSTERDAM 125","support_codes":1},
{"id":36081,"swift_code":"PPAYITR1XXX","bank_code":36081,"bank":"POSTEPAY","branch_code":0,"branch":"77666 UFFICIO VIRTUALE IMEL","zip":"00144","city":"ROMA","address":"VIALE EUROPA, 175","support_codes":15},
{"id":36085,"swift_code":"EFSSITR1XXX","bank_code":36085,"bank":"Enel XFinancial Services Sr","branch_code":0,"support_codes":7},
{"id":36087,"swift_code":"VPAYITM2XXX","bank_code":36087,"bank":"VIVA PAYMENT SERVICES S.A.","branch_code":0,"support_codes":1},
{"id":36092,"swift_code":"QNTOITM2XXX","bank_code":36092,"bank":"OLINDA SAS","branch_code":0,"branch":"QONTO - OLINDA MILANO","zip":"20123","city":"MILANO","address":"VIA TORINO 2","support_codes":15},
{"id":36772,"swift_code":"HYEEIT22XXX","bank_code":36772,"bank":"HYPE SPA","branch_code":0,"support_codes":1}    ]
}
