{
    "country_code": "SK",
    "isSEPAcountry": true,
    "ISO_3166_1": { "name": "Slovakia" , "name_fr": "Slovaquie (la)" , "alpha2": "SK" , "alpha3": "SVK" , "numeric": 703 },
    "list": [
{"id": 200,"swift_code":"SUBASKBXXXX","bank_code":200,"bank":"VÚB banka, a.s.","branch_code":123456,"zip":"829 90","city":"Bratislava","address":"Mlynské nivy 1","support_codes":15},
{"id": 720,"swift_code":"NBSBSKBXXXX","bank_code":720,"bank":"Národná banka Slovenska","branch_code":123456,"zip":"813 25","city":"Bratislava","address":"Imricha Karvaša 1","support_codes":7},
{"id": 900,"swift_code":"GIBASKBXXXX","bank_code":900,"bank":"Slovenská sporitelna, a.s.","branch_code":123456,"zip":"832 37","city":"Bratislava","address":"Tomášikova 48","support_codes":15},
{"id":1100,"swift_code":"TATRSKBXXXX","bank_code":1100,"bank":"Tatra banka, a.s.","branch_code":123456,"zip":"850 05","city":"Bratislava","address":"Hodžovo námestie 3","support_codes":15},
{"id":1111,"swift_code":"UNCRSKBXXXX","bank_code":1111,"bank":"Unicredit Bank Slovakia, a.s.","branch_code":123456,"zip":"813 33","city":"Bratislava","address":"Šancová 1\/A","support_codes":15},
{"id":2010,"swift_code":"FIOBCZPPXXX","bank_code":2010,"bank":"FIO BANKA, A.S.","branch_code":123456,"support_codes":7},
{"id":3000,"swift_code":"SLZBSKBAXXX","bank_code":3000,"bank":"Slovenská zárucná a rozvojová banka, a.s.","branch_code":123456,"zip":"814 99","city":"Bratislava","address":"Štefánikova 27","support_codes":7},
{"id":3100,"swift_code":"LUBASKBXXXX","bank_code":3100,"bank":"SBERBANK SLOVENSKO A.S.","branch_code":123456,"zip":"810 00","city":"Bratislava","address":"Vysoká 9","support_codes":7},
{"id":4000,"swift_code":"EXPNCZPPXXX","bank_code":4000,"bank":"Expobank CZ a.s.","branch_code":123456,"support_codes":1},
{"id":5200,"swift_code":"OTPVSKBXXXX","bank_code":5200,"bank":"OTP Banka Slovensko, a.s.","branch_code":123456,"zip":"811 08","city":"Bratislava","address":"Dunajská 7114\/15","support_codes":7},
{"id":5600,"swift_code":"KOMASK2XXXX","bank_code":5600,"bank":"Primabanka Slovensko, a.s.","branch_code":123456,"zip":"010 11","city":"Žilina","address":"Hodžova 11","support_codes":7},
{"id":5800,"swift_code":"JTBPCZPPXXX","bank_code":5800,"bank":"J&amp;T BANKA AS","branch_code":123456,"support_codes":7},
{"id":5900,"swift_code":"PRVASKBAXXX","bank_code":5900,"bank":"Prvá stavebná sporitelna, a.s.","branch_code":123456,"zip":"829 48","city":"Bratislava","address":"Bajkalská 30","support_codes":7},
{"id":6500,"swift_code":"POBNSKBAXXX","bank_code":6500,"bank":"Poštová banka, a.s.","branch_code":123456,"zip":"811 02","city":"Bratislava","address":"Dvorákovo nábrežie 4","support_codes":7},
{"id":7300,"swift_code":"INGBSKBXXXX","bank_code":7300,"bank":"ING Bank N.V.","branch_code":123456,"zip":"811 09","city":"Bratislava","address":"Pribinova 10","support_codes":15},
{"id":7500,"swift_code":"CEKOSKBXXXX","bank_code":7500,"bank":"Ceskoslovenská obchodná banka, a.s","branch_code":123456,"zip":"815 63","city":"Bratislava","address":"Michalská 18","support_codes":15},
{"id":7930,"swift_code":"WUSTSKBAXXX","bank_code":7930,"bank":"Wustenrot stavebná sporitelna, a.s.","branch_code":123456,"zip":"824 68","city":"Bratislava","address":"Grösslingová 77","support_codes":1},
{"id":8050,"swift_code":"COBASKBXXXX","bank_code":8050,"bank":"Commerzbank AG","branch_code":123456,"zip":"810 00","city":"Bratislava","address":"Rajská 15\/A, P.O.BOX 138","support_codes":15},
{"id":8100,"swift_code":"KOMBSKBAXXX","bank_code":8100,"bank":"Komercní banka, a.s","branch_code":123456,"zip":"810 00","city":"Bratislava","address":"Hodžovo námestie 1A","support_codes":15},
{"id":8120,"swift_code":"BSLOSK22XXX","bank_code":8120,"bank":"PRIVATBANKA, A.S.","branch_code":123456,"zip":"851 01","city":"Bratislava","address":"EINSTEINOVA 25","support_codes":7},
{"id":8130,"swift_code":"CITISKBAXXX","bank_code":8130,"bank":"Citibank Europe plc","branch_code":123456,"zip":"825 01","city":"Bratislava","address":"Mlynské nivy 43 (Apollo Business Center I)","support_codes":15},
{"id":8160,"swift_code":"EXSKSKBXXXX","bank_code":8160,"bank":"EXIMBANKA SR","branch_code":123456,"zip":"813 50","city":"Bratislava","address":"Grösslingová 1","support_codes":1},
{"id":8170,"swift_code":"KBSPSKBXXXX","bank_code":8170,"bank":"CSOB stavebná sporitelna, a.s.","branch_code":123456,"zip":"813 23","city":"Bratislava","address":"Radlinského 10","support_codes":7},
{"id":8180,"swift_code":"SPSRSKBAXXX","bank_code":8180,"bank":"Štátna pokladnica","branch_code":123456,"zip":"810 05","city":"Bratislava","address":"Radlinského 32","support_codes":7},
{"id":8191,"swift_code":"CSDSSKBAXXX","bank_code":8191,"bank":"Centrálny depozitár cenných papierov SR, a.s.","branch_code":123456,"city":"814 80 BRATISLAVA","address":"UL.29.AUGUSTA 1\/A"},
{"id":8320,"swift_code":"JTBPSKBAXXX","bank_code":8320,"bank":"J&T BANKA, a.s.","branch_code":123456,"zip":"811 02","city":"Bratislava","address":"Dvorákovo nábrežie 4","support_codes":7},
{"id":8330,"swift_code":"FIOZSKBAXXX","bank_code":8330,"bank":"Fio banka, a.s.","branch_code":123456,"zip":"811 01","city":"Bratislava","address":"Nám. SNP 480\/21","support_codes":7},
{"id":8360,"swift_code":"BREXSKBXXXX","bank_code":8360,"bank":"mBank S.A., pobocka zahranicnej banky","branch_code":123456,"zip":"851 01","city":"Bratislava","address":"Einsteinova 24","support_codes":7},
{"id":8370,"swift_code":"OBKLSKBAXXX","bank_code":8370,"bank":"Oberbank AG","branch_code":123456,"zip":"821 09","city":"Bratislava","address":"Prievozská 4\/A, ","support_codes":15},
{"id":8390,"swift_code":"AKCTSK21XXX","bank_code":8390,"bank":"AKCENTA, sporitelní a uverní družstvo, pobocka Košice","branch_code":123456,"zip":"821 08","city":"Bratislava","address":"METODOVA 7"},
{"id":8400,"swift_code":"TATRSKBXXXX","bank_code":8400,"bank":"Banco Banif Mais, S. A., pobocka zahranicnej banky","branch_code":123456,"zip":"851 01","city":"Bratislava","address":"Einsteinova 21","support_codes":15},
{"id":8410,"swift_code":"RIDBSKBXXXX","bank_code":8410,"bank":"ZUNO BANK AG","branch_code":123456,"zip":"811 09","city":"Bratislava","address":"Pribinova 8"},
{"id":8420,"swift_code":"BFKKSKBBXXX","bank_code":8420,"bank":"BKS Bank AG","branch_code":123456,"zip":"811 09","city":"Bratislava","address":"Eurovea Central 1 Pribinova 4","support_codes":7},
{"id":8430,"swift_code":"KODBSKBXXXX","bank_code":8430,"bank":"KDB Bank Europe Ltd. pobocka zahranicnej banky","branch_code":123456,"zip":"811 06","city":"Bratislava","address":"2, OBCHODNA","support_codes":1},
{"id":9950,"swift_code":"FDXXSKBAXXX","bank_code":9950,"bank":"SIA Central Europe","branch_code":123456,"zip":"851 01","city":"Bratislava","address":"DIGITAL PARK II EINSTEINOVA 25"},
{"id":9952,"swift_code":"TPAYSKBXXXX","bank_code":9952,"bank":"Trust Pay, a.s.","branch_code":123456,"zip":"831 03","city":"Bratislava","address":"ZA KASARNOU","support_codes":7}
    ]
}
